{
"type": "FeatureCollection",
"name": "Aldeias",
"crs": { "type": "name", "properties": { "name": "urn:ogc:def:crs:OGC:1.3:CRS84" } },
"features": [
{ "type": "Feature", "properties": { "id": "aldeias_pontos.fid-53b2ce4f_1954ca18bba_-7456", "cod_aldeia": 2992, "nome_aldei": "ACONÃ", "cod_ti": 601, "cod_munici": 2709202, "data_cadas": "03/09/2018", "flag_ativo": "A", "nome_cr": "COORDENACAO REGIONAL NORDESTE I", "nommunic": "Traipu", "nomuf": "Alagoas", "undadm_cod": "30202001969", "coord_lat": -10.0702166667, "coord_long": -36.943383333299998 }, "geometry": { "type": "Point", "coordinates": [ -36.943383333299998, -10.070216668076887 ] } },
{ "type": "Feature", "properties": { "id": "aldeias_pontos.fid-53b2ce4f_1954ca18bba_-7422", "cod_aldeia": 3043, "nome_aldei": "AMARO", "cod_ti": 50701, "cod_munici": 2706307, "data_cadas": "04/09/2018", "flag_ativo": "A", "nome_cr": "COORDENACAO REGIONAL NORDESTE I", "nommunic": "Palmeira dos Índios", "nomuf": "Alagoas", "undadm_cod": "30202001969", "coord_lat": -9.3688916666700006, "coord_long": -36.6556 }, "geometry": { "type": "Point", "coordinates": [ -36.6556, -9.368891667748718 ] } },
{ "type": "Feature", "properties": { "id": "aldeias_pontos.fid-53b2ce4f_1954ca18bba_-7410", "cod_aldeia": 2994, "nome_aldei": "ANUM NOVO", "cod_ti": 12501, "cod_munici": 2706307, "data_cadas": "03/09/2018", "flag_ativo": "A", "nome_cr": "COORDENACAO REGIONAL NORDESTE I", "nommunic": "Palmeira dos Índios", "nomuf": "Alagoas", "undadm_cod": "30202001969", "coord_lat": -9.3902833333300002, "coord_long": -36.581738888899999 }, "geometry": { "type": "Point", "coordinates": [ -36.581738888899999, -9.390283334417195 ] } },
{ "type": "Feature", "properties": { "id": "aldeias_pontos.fid-53b2ce4f_1954ca18bba_-7296", "cod_aldeia": 3049, "nome_aldei": "BAIXA DA AREIA", "cod_ti": 50701, "cod_munici": 2706307, "data_cadas": "04/09/2018", "flag_ativo": "A", "nome_cr": "COORDENACAO REGIONAL NORDESTE I", "nommunic": "Palmeira dos Índios", "nomuf": "Alagoas", "undadm_cod": "30202001969", "coord_lat": -9.3681555555599996, "coord_long": -36.611827777800002 }, "geometry": { "type": "Point", "coordinates": [ -36.611827777800009, -9.368155556638426 ] } },
{ "type": "Feature", "properties": { "id": "aldeias_pontos.fid-53b2ce4f_1954ca18bba_-7203", "cod_aldeia": 3052, "nome_aldei": "BOM JARDIM", "cod_ti": 50701, "cod_munici": 2706307, "data_cadas": "04/09/2018", "flag_ativo": "A", "nome_cr": "COORDENACAO REGIONAL NORDESTE I", "nommunic": "Palmeira dos Índios", "nomuf": "Alagoas", "undadm_cod": "30202001969", "coord_lat": -9.3518916666699994, "coord_long": -36.625725 }, "geometry": { "type": "Point", "coordinates": [ -36.625725, -9.351891667742006 ] } },
{ "type": "Feature", "properties": { "id": "aldeias_pontos.fid-53b2ce4f_1954ca18bba_-71ec", "cod_aldeia": 3042, "nome_aldei": "BOQUEIRÃO", "cod_ti": 50701, "cod_munici": 2706307, "data_cadas": "04/09/2018", "flag_ativo": "A", "nome_cr": "COORDENACAO REGIONAL NORDESTE I", "nommunic": "Palmeira dos Índios", "nomuf": "Alagoas", "undadm_cod": "30202001969", "coord_lat": -9.3883722222199992, "coord_long": -36.6644138889 }, "geometry": { "type": "Point", "coordinates": [ -36.6644138889, -9.388372223306439 ] } },
{ "type": "Feature", "properties": { "id": "aldeias_pontos.fid-53b2ce4f_1954ca18bba_-712e", "cod_aldeia": 3046, "nome_aldei": "CAFURNA DE BAIXO", "cod_ti": 50701, "cod_munici": 2706307, "data_cadas": "04/09/2018", "flag_ativo": "A", "nome_cr": "COORDENACAO REGIONAL NORDESTE I", "nommunic": "Palmeira dos Índios", "nomuf": "Alagoas", "undadm_cod": "30202001969", "coord_lat": -9.3898416666699998, "coord_long": -36.626825 }, "geometry": { "type": "Point", "coordinates": [ -36.626825, -9.389841667757022 ] } },
{ "type": "Feature", "properties": { "id": "aldeias_pontos.fid-53b2ce4f_1954ca18bba_-70e8", "cod_aldeia": 3044, "nome_aldei": "CAPELA", "cod_ti": 50701, "cod_munici": 2706307, "data_cadas": "04/09/2018", "flag_ativo": "A", "nome_cr": "COORDENACAO REGIONAL NORDESTE I", "nommunic": "Palmeira dos Índios", "nomuf": "Alagoas", "undadm_cod": "30202001969", "coord_lat": -9.392425, "coord_long": -36.6318 }, "geometry": { "type": "Point", "coordinates": [ -36.6318, -9.39242500108805 ] } },
{ "type": "Feature", "properties": { "id": "aldeias_pontos.fid-53b2ce4f_1954ca18bba_-70a2", "cod_aldeia": 3014, "nome_aldei": "COCAL", "cod_ti": 49701, "cod_munici": 2703809, "data_cadas": "03/09/2018", "flag_ativo": "A", "nome_cr": "COORDENACAO REGIONAL NORDESTE I", "nommunic": "Joaquim Gomes", "nomuf": "Alagoas", "undadm_cod": "30202001969", "coord_lat": -9.0561555555600002, "coord_long": -35.716266666700001 }, "geometry": { "type": "Point", "coordinates": [ -35.716266666700001, -9.056155556519053 ] } },
{ "type": "Feature", "properties": { "id": "aldeias_pontos.fid-53b2ce4f_1954ca18bba_-7099", "cod_aldeia": 3047, "nome_aldei": "COITÉ", "cod_ti": 50701, "cod_munici": 2706307, "data_cadas": "04/09/2018", "flag_ativo": "A", "nome_cr": "COORDENACAO REGIONAL NORDESTE I", "nommunic": "Palmeira dos Índios", "nomuf": "Alagoas", "undadm_cod": "30202001969", "coord_lat": -9.3857416666700004, "coord_long": -36.611316666699999 }, "geometry": { "type": "Point", "coordinates": [ -36.611316666699999, -9.385741667755395 ] } },
{ "type": "Feature", "properties": { "id": "aldeias_pontos.fid-53b2ce4f_1954ca18bba_-6fa6", "cod_aldeia": 3048, "nome_aldei": "ENGENHO VELHO", "cod_ti": 50701, "cod_munici": 2706307, "data_cadas": "04/09/2018", "flag_ativo": "A", "nome_cr": "COORDENACAO REGIONAL NORDESTE I", "nommunic": "Palmeira dos Índios", "nomuf": "Alagoas", "undadm_cod": "30202001969", "coord_lat": -9.3811166666699997, "coord_long": -36.601986111099997 }, "geometry": { "type": "Point", "coordinates": [ -36.601986111099997, -9.38111666775356 ] } },
{ "type": "Feature", "properties": { "id": "aldeias_pontos.fid-53b2ce4f_1954ca18bba_-6f62", "cod_aldeia": 2995, "nome_aldei": "FAZENDA CANTO", "cod_ti": 12501, "cod_munici": 2706307, "data_cadas": "03/09/2018", "flag_ativo": "A", "nome_cr": "COORDENACAO REGIONAL NORDESTE I", "nommunic": "Palmeira dos Índios", "nomuf": "Alagoas", "undadm_cod": "30202001969", "coord_lat": -9.3977888888900001, "coord_long": -36.586705555599998 }, "geometry": { "type": "Point", "coordinates": [ -36.586705555600005, -9.397788889980182 ] } },
{ "type": "Feature", "properties": { "id": "aldeias_pontos.fid-53b2ce4f_1954ca18bba_-6f37", "cod_aldeia": 422, "nome_aldei": "Figueiredo", "cod_ti": 19402, "cod_munici": 2706422, "data_cadas": null, "flag_ativo": "A", "nome_cr": "COORDENACAO REGIONAL NORDESTE I", "nommunic": "Pariconha", "nomuf": "Alagoas", "undadm_cod": "30202001969", "coord_lat": -9.2299747222199997, "coord_long": -38.029696111100002 }, "geometry": { "type": "Point", "coordinates": [ -38.029696111100002, -9.229974723244569 ] } },
{ "type": "Feature", "properties": { "id": "aldeias_pontos.fid-53b2ce4f_1954ca18bba_-6f13", "cod_aldeia": 3011, "nome_aldei": "GEREBA", "cod_ti": 49701, "cod_munici": 2703809, "data_cadas": "03/09/2018", "flag_ativo": "A", "nome_cr": "COORDENACAO REGIONAL NORDESTE I", "nommunic": "Joaquim Gomes", "nomuf": "Alagoas", "undadm_cod": "30202001969", "coord_lat": -9.0487527777800008, "coord_long": -35.709394444399997 }, "geometry": { "type": "Point", "coordinates": [ -35.70939444439999, -9.048752778736322 ] } },
{ "type": "Feature", "properties": { "id": "aldeias_pontos.fid-53b2ce4f_1954ca18bba_-6f0b", "cod_aldeia": 3050, "nome_aldei": "GRAVATAÇU", "cod_ti": 50701, "cod_munici": 2706307, "data_cadas": "04/09/2018", "flag_ativo": "A", "nome_cr": "COORDENACAO REGIONAL NORDESTE I", "nommunic": "Palmeira dos Índios", "nomuf": "Alagoas", "undadm_cod": "30202001969", "coord_lat": -9.3612611111100001, "coord_long": -36.615030555600001 }, "geometry": { "type": "Point", "coordinates": [ -36.615030555600008, -9.361261112185701 ] } },
{ "type": "Feature", "properties": { "id": "aldeias_pontos.fid-53b2ce4f_1954ca18bba_-6e85", "cod_aldeia": 3013, "nome_aldei": "ITABIRA", "cod_ti": 49701, "cod_munici": 2703809, "data_cadas": "03/09/2018", "flag_ativo": "A", "nome_cr": "COORDENACAO REGIONAL NORDESTE I", "nommunic": "Joaquim Gomes", "nomuf": "Alagoas", "undadm_cod": "30202001969", "coord_lat": -9.0720444444399995, "coord_long": -35.707777777799997 }, "geometry": { "type": "Point", "coordinates": [ -35.707777777799997, -9.072044445404938 ] } },
{ "type": "Feature", "properties": { "id": "aldeias_pontos.fid-53b2ce4f_1954ca18bba_-6da6", "cod_aldeia": 4294, "nome_aldei": "Jeripancó", "cod_ti": 19402, "cod_munici": 2706422, "data_cadas": "16/04/2021", "flag_ativo": "A", "nome_cr": "COORDENACAO REGIONAL NORDESTE I", "nommunic": "Pariconha", "nomuf": "Alagoas", "undadm_cod": "30202001969", "coord_lat": -9.2182893333300004, "coord_long": -38.025062333299999 }, "geometry": { "type": "Point", "coordinates": [ -38.025062333299999, -9.218289334350088 ] } },
{ "type": "Feature", "properties": { "id": "aldeias_pontos.fid-53b2ce4f_1954ca18bba_-6d74", "cod_aldeia": 3007, "nome_aldei": "KARIRI XOCÓ", "cod_ti": 21702, "cod_munici": 2707503, "data_cadas": "03/09/2018", "flag_ativo": "A", "nome_cr": "COORDENACAO REGIONAL NORDESTE I", "nommunic": "Porto Real do Colégio", "nomuf": "Alagoas", "undadm_cod": "30202001969", "coord_lat": -10.174394444400001, "coord_long": -36.836686111100001 }, "geometry": { "type": "Point", "coordinates": [ -36.836686111100001, -10.174394445824777 ] } },
{ "type": "Feature", "properties": { "id": "aldeias_pontos.fid-53b2ce4f_1954ca18bba_-6d40", "cod_aldeia": 4293, "nome_aldei": "Kalankó", "cod_ti": 73201, "cod_munici": 2700102, "data_cadas": "16/04/2021", "flag_ativo": "A", "nome_cr": "COORDENACAO REGIONAL NORDESTE I", "nommunic": "Água Branca", "nomuf": "Alagoas", "undadm_cod": "30202001969", "coord_lat": -9.1598685, "coord_long": -37.8887792222 }, "geometry": { "type": "Point", "coordinates": [ -37.8887792222, -9.159868500997845 ] } },
{ "type": "Feature", "properties": { "id": "aldeias_pontos.fid-53b2ce4f_1954ca18bba_-6cfe", "cod_aldeia": 4296, "nome_aldei": "Koiupanká", "cod_ti": 73201, "cod_munici": 2703304, "data_cadas": "16/04/2021", "flag_ativo": "A", "nome_cr": "COORDENACAO REGIONAL NORDESTE I", "nommunic": "Inhapi", "nomuf": "Alagoas", "undadm_cod": "30202001969", "coord_lat": -9.2160983333300006, "coord_long": -37.757093555600001 }, "geometry": { "type": "Point", "coordinates": [ -37.757093555600001, -9.216098334349248 ] } },
{ "type": "Feature", "properties": { "id": "aldeias_pontos.fid-53b2ce4f_1954ca18bba_-6bc5", "cod_aldeia": 3008, "nome_aldei": "MATA DA CAFUNA", "cod_ti": 27901, "cod_munici": 2706307, "data_cadas": "03/09/2018", "flag_ativo": "A", "nome_cr": "COORDENACAO REGIONAL NORDESTE I", "nommunic": "Palmeira dos Índios", "nomuf": "Alagoas", "undadm_cod": "30202001969", "coord_lat": -9.3820861111100005, "coord_long": -36.6290222222 }, "geometry": { "type": "Point", "coordinates": [ -36.6290222222, -9.382086112193944 ] } },
{ "type": "Feature", "properties": { "id": "aldeias_pontos.fid-53b2ce4f_1954ca18bba_-6b89", "cod_aldeia": 3051, "nome_aldei": "MONTE ALEGRE", "cod_ti": 50701, "cod_munici": 2706307, "data_cadas": "04/09/2018", "flag_ativo": "A", "nome_cr": "COORDENACAO REGIONAL NORDESTE I", "nommunic": "Palmeira dos Índios", "nomuf": "Alagoas", "undadm_cod": "30202001969", "coord_lat": -9.357725, "coord_long": -36.621775 }, "geometry": { "type": "Point", "coordinates": [ -36.621775, -9.357725001074305 ] } },
{ "type": "Feature", "properties": { "id": "aldeias_pontos.fid-53b2ce4f_1954ca18bba_-6960", "cod_aldeia": 421, "nome_aldei": "Ouricuri", "cod_ti": 19402, "cod_munici": 2706422, "data_cadas": null, "flag_ativo": "A", "nome_cr": "COORDENACAO REGIONAL NORDESTE I", "nommunic": "Pariconha", "nomuf": "Alagoas", "undadm_cod": "30202001969", "coord_lat": -9.2237197222200002, "coord_long": -38.027501388899999 }, "geometry": { "type": "Point", "coordinates": [ -38.027501388899999, -9.223719723242167 ] } },
{ "type": "Feature", "properties": { "id": "aldeias_pontos.fid-53b2ce4f_1954ca18bba_-6901", "cod_aldeia": 3009, "nome_aldei": "PEDRINHAS", "cod_ti": 49701, "cod_munici": 2702108, "data_cadas": "03/09/2018", "flag_ativo": "A", "nome_cr": "COORDENACAO REGIONAL NORDESTE I", "nommunic": "Colônia Leopoldina", "nomuf": "Alagoas", "undadm_cod": "30202001969", "coord_lat": -9.0302194444400001, "coord_long": -35.722058333299998 }, "geometry": { "type": "Point", "coordinates": [ -35.722058333299998, -9.030219445389491 ] } },
{ "type": "Feature", "properties": { "id": "aldeias_pontos.fid-53b2ce4f_1954ca18bba_-67ce", "cod_aldeia": 423, "nome_aldei": "Poço da Areia", "cod_ti": 19401, "cod_munici": 2706422, "data_cadas": null, "flag_ativo": "A", "nome_cr": "COORDENACAO REGIONAL NORDESTE I", "nommunic": "Pariconha", "nomuf": "Alagoas", "undadm_cod": "30202001969", "coord_lat": -9.1975891666699994, "coord_long": -38.113994722199998 }, "geometry": { "type": "Point", "coordinates": [ -38.113994722200005, -9.197589167682175 ] } },
{ "type": "Feature", "properties": { "id": "aldeias_pontos.fid-53b2ce4f_1954ca18bba_-6784", "cod_aldeia": 3041, "nome_aldei": "RIACHO FUNDO DE BAIXO", "cod_ti": 50701, "cod_munici": 2706307, "data_cadas": "04/09/2018", "flag_ativo": "A", "nome_cr": "COORDENACAO REGIONAL NORDESTE I", "nommunic": "Palmeira dos Índios", "nomuf": "Alagoas", "undadm_cod": "30202001969", "coord_lat": -9.3969444444400008, "coord_long": -36.681980555599999 }, "geometry": { "type": "Point", "coordinates": [ -36.681980555599999, -9.396944445529849 ] } },
{ "type": "Feature", "properties": { "id": "aldeias_pontos.fid-53b2ce4f_1954ca18bba_-6753", "cod_aldeia": 4295, "nome_aldei": "Riacho Fundo do Meio", "cod_ti": 50701, "cod_munici": 2706307, "data_cadas": "16/04/2021", "flag_ativo": "A", "nome_cr": "COORDENACAO REGIONAL NORDESTE I", "nommunic": "Palmeira dos Índios", "nomuf": "Alagoas", "undadm_cod": "30202001969", "coord_lat": -9.384956, "coord_long": -36.6814906667 }, "geometry": { "type": "Point", "coordinates": [ -36.681490666700007, -9.384956001085081 ] } },
{ "type": "Feature", "properties": { "id": "aldeias_pontos.fid-53b2ce4f_1954ca18bba_-6725", "cod_aldeia": 3053, "nome_aldei": "SALGADO", "cod_ti": 50701, "cod_munici": 2706307, "data_cadas": "04/09/2018", "flag_ativo": "A", "nome_cr": "COORDENACAO REGIONAL NORDESTE I", "nommunic": "Palmeira dos Índios", "nomuf": "Alagoas", "undadm_cod": "30202001969", "coord_lat": -9.413475, "coord_long": -36.572811111100002 }, "geometry": { "type": "Point", "coordinates": [ -36.572811111100002, -9.413475001096435 ] } },
{ "type": "Feature", "properties": { "id": "aldeias_pontos.fid-53b2ce4f_1954ca18bba_-66ac", "cod_aldeia": 3045, "nome_aldei": "SERRA DA CAPELA", "cod_ti": 50701, "cod_munici": 2706307, "data_cadas": "04/09/2018", "flag_ativo": "A", "nome_cr": "COORDENACAO REGIONAL NORDESTE I", "nommunic": "Palmeira dos Índios", "nomuf": "Alagoas", "undadm_cod": "30202001969", "coord_lat": -9.3888972222200007, "coord_long": -36.637277777800001 }, "geometry": { "type": "Point", "coordinates": [ -36.637277777800008, -9.388897223306651 ] } },
{ "type": "Feature", "properties": { "id": "aldeias_pontos.fid-53b2ce4f_1954ca18bba_-6593", "cod_aldeia": 3012, "nome_aldei": "SÃO PEDRO", "cod_ti": 49701, "cod_munici": 2705101, "data_cadas": "03/09/2018", "flag_ativo": "A", "nome_cr": "COORDENACAO REGIONAL NORDESTE I", "nommunic": "Matriz de Camaragibe", "nomuf": "Alagoas", "undadm_cod": "30202001969", "coord_lat": -9.04185, "coord_long": -35.699444444400001 }, "geometry": { "type": "Point", "coordinates": [ -35.699444444400001, -9.041850000953772 ] } },
{ "type": "Feature", "properties": { "id": "aldeias_pontos.fid-53b2ce4f_1954ca18bba_-64d6", "cod_aldeia": 3010, "nome_aldei": "TORRES", "cod_ti": 49701, "cod_munici": 2703809, "data_cadas": "03/09/2018", "flag_ativo": "A", "nome_cr": "COORDENACAO REGIONAL NORDESTE I", "nommunic": "Joaquim Gomes", "nomuf": "Alagoas", "undadm_cod": "30202001969", "coord_lat": -9.0399583333300004, "coord_long": -35.730816666700001 }, "geometry": { "type": "Point", "coordinates": [ -35.730816666700001, -9.039958334283076 ] } },
{ "type": "Feature", "properties": { "id": "aldeias_pontos.fid-53b2ce4f_1954ca18bba_-64cb", "cod_aldeia": 3015, "nome_aldei": "TRES MANOS", "cod_ti": 49701, "cod_munici": 2705606, "data_cadas": "03/09/2018", "flag_ativo": "A", "nome_cr": "COORDENACAO REGIONAL NORDESTE I", "nommunic": "Novo Lino", "nomuf": "Alagoas", "undadm_cod": "30202001969", "coord_lat": -9.0220916666700006, "coord_long": -35.706655555600001 }, "geometry": { "type": "Point", "coordinates": [ -35.706655555600001, -9.022091667616504 ] } },
{ "type": "Feature", "properties": { "id": "aldeias_pontos.fid-53b2ce4f_1954ca18bba_-6434", "cod_aldeia": 4300, "nome_aldei": "Tingui-Botó", "cod_ti": 45402, "cod_munici": 2702603, "data_cadas": "16/04/2021", "flag_ativo": "A", "nome_cr": "COORDENACAO REGIONAL NORDESTE I", "nommunic": "Feira Grande", "nomuf": "Alagoas", "undadm_cod": "30202001969", "coord_lat": -9.8989055555600007, "coord_long": -36.7063 }, "geometry": { "type": "Point", "coordinates": [ -36.7063, -9.89890555686018 ] } }
]
}
