{
"type": "FeatureCollection",
"name": "Area_Acordo_IMA_MPF",
"crs": { "type": "name", "properties": { "name": "urn:ogc:def:crs:OGC:1.3:CRS84" } },
"features": [
{ "type": "Feature", "properties": { "Name": "Macroárea", "area": 1286.81, "perimeter": 41.08 }, "geometry": { "type": "MultiPolygon", "coordinates": [ [ [ [ -35.873824761210102, -9.815473352362128, 0.0 ], [ -35.87658692193628, -9.816431461131659, 0.0 ], [ -35.876491952731421, -9.816353779265818, 0.0 ], [ -35.876490279331222, -9.81635238804316, 0.0 ], [ -35.876488628562726, -9.816350970473271, 0.0 ], [ -35.876487000847604, -9.816349526918255, 0.0 ], [ -35.876485396601637, -9.816348057746838, 0.0 ], [ -35.876483816234575, -9.816346563334296, 0.0 ], [ -35.876482260150148, -9.81634504406235, 0.0 ], [ -35.876480728745804, -9.816343500319098, 0.0 ], [ -35.876479222412733, -9.816341932498856, 0.0 ], [ -35.876477741535687, -9.816340341002089, 0.0 ], [ -35.876476286492966, -9.816338726235339, 0.0 ], [ -35.876210034951868, -9.816038451745907, 0.0 ], [ -35.876208618898211, -9.816036829004297, 0.0 ], [ -35.876207228934753, -9.816035184223077, 0.0 ], [ -35.876205865410142, -9.816033517814812, 0.0 ], [ -35.876204528666428, -9.816031830197515, 0.0 ], [ -35.876203219038921, -9.816030121794521, 0.0 ], [ -35.876201936856134, -9.816028393034369, 0.0 ], [ -35.876200682439695, -9.816026644350726, 0.0 ], [ -35.876038622326043, -9.815796898650953, 0.0 ], [ -35.876037353026518, -9.815795067430436, 0.0 ], [ -35.876036114176117, -9.815793215811279, 0.0 ], [ -35.876034906108046, -9.815791344291448, 0.0 ], [ -35.876033729147203, -9.815789453374311, 0.0 ], [ -35.876032583610133, -9.815787543568421, 0.0 ], [ -35.876031469804936, -9.815785615387401, 0.0 ], [ -35.876030388031161, -9.815783669349868, 0.0 ], [ -35.876029338579748, -9.815781705979177, 0.0 ], [ -35.87602832173296, -9.815779725803392, 0.0 ], [ -35.875826393461573, -9.815378392306798, 0.0 ], [ -35.875825436329798, -9.815376451421319, 0.0 ], [ -35.87582451052171, -9.81537449564655, 0.0 ], [ -35.875823616272719, -9.815372525479724, 0.0 ], [ -35.875822753810176, -9.815370541421764, 0.0 ], [ -35.87582192335335, -9.81536854397709, 0.0 ], [ -35.875821125113383, -9.815366533653551, 0.0 ], [ -35.875820359293215, -9.815364510962247, 0.0 ], [ -35.875819626087562, -9.815362476417432, 0.0 ], [ -35.875701228871783, -9.815025486804419, 0.0 ], [ -35.875700508349894, -9.815023380531009, 0.0 ], [ -35.875699822782558, -9.815021262811671, 0.0 ], [ -35.87569917235448, -9.815019134216975, 0.0 ], [ -35.875698557240916, -9.815016995320414, 0.0 ], [ -35.875697977607594, -9.815014846698327, 0.0 ], [ -35.875697433610675, -9.815012688929572, 0.0 ], [ -35.875696925396738, -9.815010522595555, 0.0 ], [ -35.875696453102719, -9.815008348279951, 0.0 ], [ -35.875696016855855, -9.815006166568564, 0.0 ], [ -35.87569561677369, -9.815003978049255, 0.0 ], [ -35.875695252964022, -9.815001783311656, 0.0 ], [ -35.875635406341289, -9.814621265326158, 0.0 ], [ -35.875635060541136, -9.814618933672021, 0.0 ], [ -35.875634755679911, -9.814616596405655, 0.0 ], [ -35.875634491849823, -9.814614254234122, 0.0 ], [ -35.875634269130678, -9.814611907865897, 0.0 ], [ -35.875595685678086, -9.814163688440612, 0.0 ], [ -35.875595525719106, -9.81416164863419, 0.0 ], [ -35.875595396830789, -9.814159606664919, 0.0 ], [ -35.87559529904253, -9.814157562998293, 0.0 ], [ -35.875568437904505, -9.813489750714087, 0.0 ], [ -35.875509598448183, -9.813083973727602, 0.0 ], [ -35.87541173953521, -9.812779490626937, 0.0 ], [ -35.875309079360498, -9.812525092536848, 0.0 ], [ -35.875149524439458, -9.812256216279323, 0.0 ], [ -35.874899101902436, -9.81188855623232, 0.0 ], [ -35.874561648698673, -9.811467622394227, 0.0 ], [ -35.87456077024774, -9.811466514852635, 0.0 ], [ -35.874124986286567, -9.810911163282993, 0.0 ], [ -35.873420692821178, -9.810067154398256, 0.0 ], [ -35.873419583241741, -9.810065807185522, 0.0 ], [ -35.872654844280092, -9.80912502198257, 0.0 ], [ -35.872017185111716, -9.80835238028374, 0.0 ], [ -35.872016524220236, -9.808351573190965, 0.0 ], [ -35.87131276089093, -9.807485350881811, 0.0 ], [ -35.871311329938536, -9.807483558865195, 0.0 ], [ -35.870667334581405, -9.806662936262365, 0.0 ], [ -35.869919308434007, -9.805725081022068, 0.0 ], [ -35.869250408147501, -9.804907986642535, 0.0 ], [ -35.869249220091717, -9.804906514554458, 0.0 ], [ -35.869248052804011, -9.804905026211603, 0.0 ], [ -35.868800599897597, -9.804326237515534, 0.0 ], [ -35.868318902573947, -9.803720905282526, 0.0 ], [ -35.867830252227847, -9.803138469893767, 0.0 ], [ -35.867829639006942, -9.803137733716843, 0.0 ], [ -35.867298454308475, -9.802495444168509, 0.0 ], [ -35.867297383494005, -9.802494132805416, 0.0 ], [ -35.867296329227656, -9.802492808317492, 0.0 ], [ -35.866947041737916, -9.802048330194649, 0.0 ], [ -35.866653138162299, -9.801683121595449, 0.0 ], [ -35.866651782584405, -9.801681409093675, 0.0 ], [ -35.86665045492277, -9.801679675210018, 0.0 ], [ -35.866649155520157, -9.801677920392105, 0.0 ], [ -35.866647884712037, -9.801676145092994, 0.0 ], [ -35.86664664282651, -9.801674349771021, 0.0 ], [ -35.866442003931752, -9.801373359482778, 0.0 ], [ -35.866440916273334, -9.80137173460759, 0.0 ], [ -35.866439852306847, -9.801370094373373, 0.0 ], [ -35.866438812252724, -9.801368439119972, 0.0 ], [ -35.866296419131771, -9.801138143300115, 0.0 ], [ -35.866295317354002, -9.801136329722839, 0.0 ], [ -35.866294244281391, -9.801134499291484, 0.0 ], [ -35.866293200175967, -9.801132652452985, 0.0 ], [ -35.866292185292671, -9.801130789658286, 0.0 ], [ -35.866291199879278, -9.80112891136223, 0.0 ], [ -35.866290244176426, -9.801127018023434, 0.0 ], [ -35.866289318417451, -9.801125110104172, 0.0 ], [ -35.866096592138852, -9.800719842172674, 0.0 ], [ -35.865892819281378, -9.800302883338933, 0.0 ], [ -35.865891770294205, -9.800300686935843, 0.0 ], [ -35.865664428801225, -9.799813423761622, 0.0 ], [ -35.865271172544396, -9.79897281794857, 0.0 ], [ -35.864878588119019, -9.798153423464541, 0.0 ], [ -35.864877827211657, -9.798151807974863, 0.0 ], [ -35.864877087802164, -9.798150182694057, 0.0 ], [ -35.864498080953226, -9.797302255213031, 0.0 ], [ -35.864261192809373, -9.796805261036862, 0.0 ], [ -35.864260284633367, -9.796803316002205, 0.0 ], [ -35.864259407590126, -9.796801356962099, 0.0 ], [ -35.864083171167387, -9.79639915240316, 0.0 ], [ -35.863882506602152, -9.795961477445928, 0.0 ], [ -35.863731679421548, -9.795657052708801, 0.0 ], [ -35.863595304086317, -9.795476507906029, 0.0 ], [ -35.863441132207448, -9.795272581800642, 0.0 ], [ -35.863280947668386, -9.795079748674521, 0.0 ], [ -35.863021141427225, -9.794787998479258, 0.0 ], [ -35.863020814564642, -9.794787630085091, 0.0 ], [ -35.862672814465796, -9.794393976859247, 0.0 ], [ -35.862672251014729, -9.794393335438645, 0.0 ], [ -35.862173208313635, -9.793821620673294, 0.0 ], [ -35.861667419941327, -9.79324532939949, 0.0 ], [ -35.8610468158193, -9.792540630582545, 0.0 ], [ -35.861044826533444, -9.792538319948706, 0.0 ], [ -35.860191583044383, -9.791524437364451, 0.0 ], [ -35.859460671419058, -9.79069022293973, 0.0 ], [ -35.859460328673173, -9.790689830232854, 0.0 ], [ -35.858790427974213, -9.789919297804127, 0.0 ], [ -35.858790077236804, -9.789918892767014, 0.0 ], [ -35.858147017509857, -9.789173307575215, 0.0 ], [ -35.85765509025957, -9.788611524104315, 0.0 ], [ -35.857202902922019, -9.788102838182583, 0.0 ], [ -35.857201658982675, -9.788101419085921, 0.0 ], [ -35.856313252922476, -9.787073595185687, 0.0 ], [ -35.855367582884625, -9.785979321868925, 0.0 ], [ -35.855367385642545, -9.785979093117142, 0.0 ], [ -35.854352210368774, -9.784799084425881, 0.0 ], [ -35.853429173516695, -9.78375473762685, 0.0 ], [ -35.853428479285668, -9.783753945990549, 0.0 ], [ -35.852435046761322, -9.782612225194095, 0.0 ], [ -35.851622158449423, -9.781689663545013, 0.0 ], [ -35.851621362470183, -9.781688752015436, 0.0 ], [ -35.850880539853648, -9.780832714842111, 0.0 ], [ -35.850879061989637, -9.780830977864396, 0.0 ], [ -35.850877613704789, -9.780829216543635, 0.0 ], [ -35.85087619540657, -9.780827431375442, 0.0 ], [ -35.850874807494002, -9.780825622862046, 0.0 ], [ -35.850873450357568, -9.780823791512235, 0.0 ], [ -35.850601459936399, -9.780450236092557, 0.0 ], [ -35.850600211779316, -9.780448493045954, 0.0 ], [ -35.85059899150238, -9.780446730682916, 0.0 ], [ -35.850597799409329, -9.78044494944214, 0.0 ], [ -35.850596635796961, -9.780443149767073, 0.0 ], [ -35.850595500954924, -9.780441332105724, 0.0 ], [ -35.850594395165736, -9.780439496910548, 0.0 ], [ -35.850593318704661, -9.780437644638443, 0.0 ], [ -35.850592271839695, -9.780435775750508, 0.0 ], [ -35.850591254831421, -9.780433890711967, 0.0 ], [ -35.850590267933022, -9.78043198999206, 0.0 ], [ -35.850589311390173, -9.780430074063997, 0.0 ], [ -35.850588385441, -9.7804281434047, 0.0 ], [ -35.850428510122363, -9.780087899821812, 0.0 ], [ -35.850427612896844, -9.780085950244645, 0.0 ], [ -35.850426746867463, -9.780083986836301, 0.0 ], [ -35.850425912250849, -9.780082010087934, 0.0 ], [ -35.850425109255745, -9.780080020493999, 0.0 ], [ -35.85042433808303, -9.780078018552107, 0.0 ], [ -35.850423598925587, -9.78007600476302, 0.0 ], [ -35.8504228919683, -9.780073979630492, 0.0 ], [ -35.850422217388001, -9.780071943661008, 0.0 ], [ -35.85042157535343, -9.780069897363889, 0.0 ], [ -35.850420966025169, -9.780067841250943, 0.0 ], [ -35.850337284436257, -9.779776985218483, 0.0 ], [ -35.850336686457787, -9.779774840197685, 0.0 ], [ -35.850336124075064, -9.779772685724854, 0.0 ], [ -35.850335597439788, -9.77977052238113, 0.0 ], [ -35.850335106694011, -9.779768350750039, 0.0 ], [ -35.850334651970115, -9.779766171417389, 0.0 ], [ -35.850334233390747, -9.779763984970996, 0.0 ], [ -35.850333851068818, -9.779761792000638, 0.0 ], [ -35.850333505107457, -9.779759593097856, 0.0 ], [ -35.850333195599973, -9.779757388855767, 0.0 ], [ -35.85033292262986, -9.779755179868951, 0.0 ], [ -35.850332686270754, -9.779752966733254, 0.0 ], [ -35.850332486586389, -9.779750750045645, 0.0 ], [ -35.850306605085422, -9.779434129903359, 0.0 ], [ -35.850306441864269, -9.779431906169256, 0.0 ], [ -35.850306315551364, -9.779429680072328, 0.0 ], [ -35.850306226180898, -9.779427452215261, 0.0 ], [ -35.850306173777078, -9.779425223201173, 0.0 ], [ -35.850306158354087, -9.779422993633583, 0.0 ], [ -35.850306179916089, -9.779420764116095, 0.0 ], [ -35.850306238457257, -9.779418535252319, 0.0 ], [ -35.85030633396174, -9.779416307645667, 0.0 ], [ -35.850306466403673, -9.779414081899255, 0.0 ], [ -35.850324335040341, -9.779150656260423, 0.0 ], [ -35.850324493216149, -9.779148565904354, 0.0 ], [ -35.850324683972573, -9.779146478225519, 0.0 ], [ -35.850324907263939, -9.779144393723493, 0.0 ], [ -35.850325163036835, -9.779142312897099, 0.0 ], [ -35.850325451230027, -9.779140236244329, 0.0 ], [ -35.850325771774564, -9.779138164262124, 0.0 ], [ -35.850326124593742, -9.779136097446349, 0.0 ], [ -35.850371595961654, -9.778881696205847, 0.0 ], [ -35.850371989174455, -9.778879592989309, 0.0 ], [ -35.850372415808614, -9.778877496191647, 0.0 ], [ -35.850372875757813, -9.778875406335382, 0.0 ], [ -35.850373368907441, -9.778873323941308, 0.0 ], [ -35.850373895134609, -9.778871249528292, 0.0 ], [ -35.850374454308188, -9.778869183613313, 0.0 ], [ -35.850375046288839, -9.778867126711157, 0.0 ], [ -35.850375670929026, -9.77886507933434, 0.0 ], [ -35.850376328073111, -9.778863041993128, 0.0 ], [ -35.850377017557335, -9.778861015195194, 0.0 ], [ -35.850377739209875, -9.778858999445534, 0.0 ], [ -35.850378492850915, -9.778856995246541, 0.0 ], [ -35.850496875104668, -9.778549606345141, 0.0 ], [ -35.85063845893432, -9.778169145567915, 0.0 ], [ -35.850846795238787, -9.777534155950836, 0.0 ], [ -35.850847492327738, -9.777532087977105, 0.0 ], [ -35.850848222873253, -9.777530031397418, 0.0 ], [ -35.851035972805661, -9.777014755471598, 0.0 ], [ -35.851036726182848, -9.777012738083778, 0.0 ], [ -35.851037511753574, -9.777010732814151, 0.0 ], [ -35.851038329319849, -9.777008740168203, 0.0 ], [ -35.851039178675578, -9.77700676064817, 0.0 ], [ -35.851040059606667, -9.777004794753015, 0.0 ], [ -35.851040971891088, -9.777002842978257, 0.0 ], [ -35.851041915298879, -9.777000905815886, 0.0 ], [ -35.851042889592243, -9.776998983754144, 0.0 ], [ -35.85104389452561, -9.776997077277517, 0.0 ], [ -35.851044929845663, -9.776995186866575, 0.0 ], [ -35.85104599529145, -9.776993312997774, 0.0 ], [ -35.851047090594413, -9.776991456143479, 0.0 ], [ -35.851048215478471, -9.776989616771694, 0.0 ], [ -35.851049369660089, -9.776987795346066, 0.0 ], [ -35.851050552848314, -9.776985992325718, 0.0 ], [ -35.851051764744952, -9.776984208165093, 0.0 ], [ -35.851053005044513, -9.776982443313905, 0.0 ], [ -35.851054273434372, -9.776980698217013, 0.0 ], [ -35.851055569594813, -9.776978973314291, 0.0 ], [ -35.851056893199143, -9.776977269040499, 0.0 ], [ -35.851058243913705, -9.77697558582523, 0.0 ], [ -35.851059621398065, -9.776973924092758, 0.0 ], [ -35.851061025305, -9.776972284261886, 0.0 ], [ -35.851062455280648, -9.776970666746026, 0.0 ], [ -35.851063910964577, -9.776969071952838, 0.0 ], [ -35.851065391989849, -9.776967500284336, 0.0 ], [ -35.851066897983173, -9.776965952136669, 0.0 ], [ -35.851068428564936, -9.776964427899999, 0.0 ], [ -35.851069983349355, -9.776962927958618, 0.0 ], [ -35.851071561944522, -9.776961452690538, 0.0 ], [ -35.851073163952542, -9.776960002467641, 0.0 ], [ -35.851074788969612, -9.776958577655448, 0.0 ], [ -35.851076436586119, -9.776957178613134, 0.0 ], [ -35.851078106386794, -9.7769558056933, 0.0 ], [ -35.85107979795071, -9.776954459242011, 0.0 ], [ -35.851081510851522, -9.776953139598698, 0.0 ], [ -35.85108324465746, -9.776951847095908, 0.0 ], [ -35.851083414896948, -9.77695172433336, 0.0 ], [ -35.851050636231435, -9.776913943484683, 0.0 ], [ -35.850795766380813, -9.776558370926406, 0.0 ], [ -35.850766257305096, -9.776292404635754, 0.0 ], [ -35.85085423173166, -9.775977798593175, 0.0 ], [ -35.850453381893949, -9.77539233834346, 0.0 ], [ -35.849206651333496, -9.773878976604722, 0.0 ], [ -35.848761776801325, -9.773463562837456, 0.0 ], [ -35.848608200856148, -9.77342003023022, 0.0 ], [ -35.848441518502028, -9.773362765987848, 0.0 ], [ -35.848324564655613, -9.773232469498209, 0.0 ], [ -35.84831803957519, -9.773225589304047, 0.0 ], [ -35.84825503400527, -9.773089096416854, 0.0 ], [ -35.848118680477164, -9.7728899862334, 0.0 ], [ -35.847832801937656, -9.772646439717457, 0.0 ], [ -35.847421184364748, -9.77247454010357, 0.0 ], [ -35.847183430341758, -9.772442578515706, 0.0 ], [ -35.846959846847227, -9.772376683672418, 0.0 ], [ -35.846736400485803, -9.772248193420722, 0.0 ], [ -35.8465246426288, -9.772222464334257, 0.0 ], [ -35.846359107810009, -9.772063173738497, 0.0 ], [ -35.845998632962825, -9.771663414701781, 0.0 ], [ -35.84549005318528, -9.771045390287391, 0.0 ], [ -35.844918480183438, -9.77036704927119, 0.0 ], [ -35.844713110793386, -9.770228428156935, 0.0 ], [ -35.844548996377476, -9.770063553674127, 0.0 ], [ -35.844514459307597, -9.770048502112324, 0.0 ], [ -35.844418232645658, -9.769954793674534, 0.0 ], [ -35.844327975271383, -9.769930827663973, 0.0 ], [ -35.844272388371664, -9.769914991084292, 0.0 ], [ -35.844154904788475, -9.769870344058429, 0.0 ], [ -35.843579211710143, -9.770052111593779, 0.0 ], [ -35.843440904316175, -9.770139188859188, 0.0 ], [ -35.843476201350974, -9.770300131977415, 0.0 ], [ -35.843458094056906, -9.770440092340857, 0.0 ], [ -35.843168860020739, -9.770663662653622, 0.0 ], [ -35.842562694476953, -9.770998560862214, 0.0 ], [ -35.841920182507749, -9.771516177626737, 0.0 ], [ -35.841873757797465, -9.771584173747895, 0.0 ], [ -35.842142990678965, -9.771734406397961, 0.0 ], [ -35.842409311378802, -9.771879986770125, 0.0 ], [ -35.842648145463947, -9.772086358573521, 0.0 ], [ -35.842899687551814, -9.772278442885986, 0.0 ], [ -35.843121518422848, -9.772420846748888, 0.0 ], [ -35.843307873002146, -9.772507521482339, 0.0 ], [ -35.843527159402726, -9.772682151018905, 0.0 ], [ -35.843852207427247, -9.773005305816943, 0.0 ], [ -35.84395877733084, -9.773201091429689, 0.0 ], [ -35.844125218741326, -9.77345723083889, 0.0 ], [ -35.844325116380055, -9.773693135463031, 0.0 ], [ -35.844478810882379, -9.773854437768231, 0.0 ], [ -35.844758018611429, -9.77412327565694, 0.0 ], [ -35.844946982822314, -9.774333202602618, 0.0 ], [ -35.845127830630659, -9.774570019071792, 0.0 ], [ -35.845273557858661, -9.774790885129976, 0.0 ], [ -35.845414760251501, -9.775150062735024, 0.0 ], [ -35.845575281257744, -9.775492409270296, 0.0 ], [ -35.845776251292797, -9.775780712189492, 0.0 ], [ -35.846004153202841, -9.776061949107248, 0.0 ], [ -35.846282103425175, -9.776395728968815, 0.0 ], [ -35.846511190506746, -9.776683534305972, 0.0 ], [ -35.846822337838681, -9.777076765886841, 0.0 ], [ -35.846977147087301, -9.777455526711583, 0.0 ], [ -35.847090822835519, -9.777724826396556, 0.0 ], [ -35.847264211999828, -9.778005764391125, 0.0 ], [ -35.847564658249567, -9.778281594049888, 0.0 ], [ -35.847874203628173, -9.778595436913013, 0.0 ], [ -35.848208897980818, -9.778926936117456, 0.0 ], [ -35.848553109059033, -9.77922979059789, 0.0 ], [ -35.848792101039848, -9.779495644457338, 0.0 ], [ -35.848966556238445, -9.779726491650001, 0.0 ], [ -35.84897280259716, -9.779733086706507, 0.0 ], [ -35.849104453566824, -9.77998733348149, 0.0 ], [ -35.849154272275754, -9.780224479952361, 0.0 ], [ -35.849233181682706, -9.780442893526413, 0.0 ], [ -35.849364929884231, -9.780684685819017, 0.0 ], [ -35.849545005178527, -9.780885621549379, 0.0 ], [ -35.850219998624084, -9.781483359925815, 0.0 ], [ -35.850777692183783, -9.782088018495461, 0.0 ], [ -35.851345387366173, -9.782756573841047, 0.0 ], [ -35.851824834077789, -9.783317866589915, 0.0 ], [ -35.852174320957111, -9.783935309667115, 0.0 ], [ -35.852365415335285, -9.784303851939635, 0.0 ], [ -35.852636707240379, -9.784600230659837, 0.0 ], [ -35.852965574122074, -9.785029791131191, 0.0 ], [ -35.853400376016445, -9.785560939381796, 0.0 ], [ -35.853701936628369, -9.785899486930766, 0.0 ], [ -35.853993142882132, -9.786198460866245, 0.0 ], [ -35.8543187523752, -9.786543754669584, 0.0 ], [ -35.854632050306456, -9.786991747348754, 0.0 ], [ -35.854638616217997, -9.786998548008828, 0.0 ], [ -35.855026529501536, -9.78754274753355, 0.0 ], [ -35.855315183499457, -9.787889332855391, 0.0 ], [ -35.855415628764007, -9.788072873313496, 0.0 ], [ -35.855577896708546, -9.788388907241087, 0.0 ], [ -35.855746940391455, -9.78866273072687, 0.0 ], [ -35.8559303058124, -9.788875087980408, 0.0 ], [ -35.856256590682143, -9.789235672128765, 0.0 ], [ -35.856570033445912, -9.789514123582277, 0.0 ], [ -35.856767630781029, -9.789727442817435, 0.0 ], [ -35.857068701863099, -9.790055164014639, 0.0 ], [ -35.857270489735377, -9.790404968140606, 0.0 ], [ -35.857290295482223, -9.790425632601444, 0.0 ], [ -35.857529937290224, -9.79084493754589, 0.0 ], [ -35.857642618012314, -9.791153075834664, 0.0 ], [ -35.857869907731441, -9.791396399001082, 0.0 ], [ -35.857998331500845, -9.791587928622857, 0.0 ], [ -35.858183571754076, -9.791860408091042, 0.0 ], [ -35.858326003485516, -9.792101272799771, 0.0 ], [ -35.858399177689307, -9.792282750552236, 0.0 ], [ -35.858574397568553, -9.792500520447469, 0.0 ], [ -35.858733416645009, -9.792777088621863, 0.0 ], [ -35.859105843954652, -9.793171210574434, 0.0 ], [ -35.859342417542095, -9.793450848111091, 0.0 ], [ -35.859551689291955, -9.79366874225274, 0.0 ], [ -35.859740012382694, -9.793871313167095, 0.0 ], [ -35.859956684498513, -9.794162655798464, 0.0 ], [ -35.860102473081291, -9.794447671634764, 0.0 ], [ -35.860252756099662, -9.794784233030381, 0.0 ], [ -35.860343200811243, -9.795009113523825, 0.0 ], [ -35.860541101355452, -9.795269171759806, 0.0 ], [ -35.860698244832982, -9.795493457112205, 0.0 ], [ -35.860906686963745, -9.795778046950524, 0.0 ], [ -35.861014987796565, -9.795972599215865, 0.0 ], [ -35.861228253622457, -9.796187949866113, 0.0 ], [ -35.861389765359476, -9.796386577111031, 0.0 ], [ -35.861587756145049, -9.796654210462631, 0.0 ], [ -35.861749775698613, -9.796911248943704, 0.0 ], [ -35.861835652647976, -9.797115550152393, 0.0 ], [ -35.861940674181163, -9.797374899685579, 0.0 ], [ -35.862087445814439, -9.797600219079024, 0.0 ], [ -35.862360777791196, -9.797945677864142, 0.0 ], [ -35.862555510681965, -9.798319628331541, 0.0 ], [ -35.862856745199949, -9.79868055415748, 0.0 ], [ -35.863145532826223, -9.799090563028198, 0.0 ], [ -35.863387937542257, -9.799447799020591, 0.0 ], [ -35.863506384131668, -9.799681114402221, 0.0 ], [ -35.863687700578453, -9.799973380108122, 0.0 ], [ -35.863854338177255, -9.800256591741437, 0.0 ], [ -35.864073164038984, -9.800582138632526, 0.0 ], [ -35.864291235395797, -9.800966532256767, 0.0 ], [ -35.864496244470843, -9.801240044881377, 0.0 ], [ -35.864755231314852, -9.801687648576795, 0.0 ], [ -35.865350725778477, -9.802071347067532, 0.0 ], [ -35.873824761210102, -9.815473352362128, 0.0 ] ] ], [ [ [ -35.878228498780153, -9.817000859211399, 0.0 ], [ -35.89294822445828, -9.822106065351363, 0.0 ], [ -35.89291912328229, -9.820879758909724, 0.0 ], [ -35.892779322736928, -9.820385222485774, 0.0 ], [ -35.892642383145983, -9.820003809869942, 0.0 ], [ -35.892100193351965, -9.81962126348213, 0.0 ], [ -35.891852625957107, -9.819084727500691, 0.0 ], [ -35.89174598889749, -9.818723080407675, 0.0 ], [ -35.891845715371531, -9.818109666417355, 0.0 ], [ -35.892344353211804, -9.817902407128809, 0.0 ], [ -35.892596648736337, -9.817697611874504, 0.0 ], [ -35.892567006748152, -9.817187266514294, 0.0 ], [ -35.892530678766811, -9.816611348732435, 0.0 ], [ -35.892491058649128, -9.816479929423073, 0.0 ], [ -35.892356161046727, -9.816397844697018, 0.0 ], [ -35.892198454473842, -9.816352220035727, 0.0 ], [ -35.892036668436106, -9.816359910203147, 0.0 ], [ -35.891825213291952, -9.81631680826775, 0.0 ], [ -35.891657566682426, -9.816262951630907, 0.0 ], [ -35.891441049059225, -9.81608539817562, 0.0 ], [ -35.891242642955646, -9.815819604441657, 0.0 ], [ -35.891062286610691, -9.815544586148608, 0.0 ], [ -35.890920531675967, -9.815116034657608, 0.0 ], [ -35.890919586753938, -9.814816351302824, 0.0 ], [ -35.890965009703969, -9.814494986928409, 0.0 ], [ -35.8909680691199, -9.814210566788445, 0.0 ], [ -35.890927126701364, -9.814002893535164, 0.0 ], [ -35.89076678048967, -9.813840179187226, 0.0 ], [ -35.890348456424881, -9.813557924741328, 0.0 ], [ -35.889997005321796, -9.813408326780404, 0.0 ], [ -35.889619590059439, -9.813408634533721, 0.0 ], [ -35.889385096187084, -9.813411242925186, 0.0 ], [ -35.889043172288588, -9.813349966160786, 0.0 ], [ -35.88879394386646, -9.813283517442809, 0.0 ], [ -35.888571168185692, -9.813189101348101, 0.0 ], [ -35.888351789699925, -9.813044139706658, 0.0 ], [ -35.888146274580279, -9.812932692639681, 0.0 ], [ -35.887947282007723, -9.8128703641984, 0.0 ], [ -35.887719085497551, -9.812894301264061, 0.0 ], [ -35.887398693266739, -9.812904665199643, 0.0 ], [ -35.887171654707345, -9.812860041818862, 0.0 ], [ -35.886983103854028, -9.812708875757721, 0.0 ], [ -35.886900540101756, -9.812519699439232, 0.0 ], [ -35.886794627689589, -9.812227473389088, 0.0 ], [ -35.886631856311027, -9.811863540095437, 0.0 ], [ -35.886521414208929, -9.811467320125537, 0.0 ], [ -35.886472437327498, -9.811210768330143, 0.0 ], [ -35.886404830390973, -9.810766083529149, 0.0 ], [ -35.886445151137615, -9.810498586045394, 0.0 ], [ -35.886518622152948, -9.810310667298291, 0.0 ], [ -35.886612975227095, -9.810053503588467, 0.0 ], [ -35.886766385896905, -9.809681598995857, 0.0 ], [ -35.886802855489307, -9.809465164393915, 0.0 ], [ -35.886801044910769, -9.809418228138048, 0.0 ], [ -35.886705319030632, -9.809101714382486, 0.0 ], [ -35.88654949921191, -9.808692012340758, 0.0 ], [ -35.886423449065511, -9.808393795363772, 0.0 ], [ -35.886400789039754, -9.808123381118095, 0.0 ], [ -35.886327740903212, -9.807939035227337, 0.0 ], [ -35.886221565517822, -9.807820081545261, 0.0 ], [ -35.886023591837194, -9.80768707664218, 0.0 ], [ -35.885716699778079, -9.807567068695953, 0.0 ], [ -35.885489613756278, -9.807408338609632, 0.0 ], [ -35.885232827668382, -9.807221661095188, 0.0 ], [ -35.885034675762753, -9.807112906853918, 0.0 ], [ -35.884625501618395, -9.807035725594526, 0.0 ], [ -35.884323429536607, -9.806930034787076, 0.0 ], [ -35.884011102452497, -9.806746202871674, 0.0 ], [ -35.883703288979206, -9.806483868817999, 0.0 ], [ -35.883408957117695, -9.806056982231237, 0.0 ], [ -35.883300813766425, -9.805750337491402, 0.0 ], [ -35.883162001508389, -9.805424764791667, 0.0 ], [ -35.88314600374116, -9.805118501754551, 0.0 ], [ -35.883227489852089, -9.80486127362855, 0.0 ], [ -35.883377601520245, -9.804654673839227, 0.0 ], [ -35.883531228048867, -9.804541067304488, 0.0 ], [ -35.883801373581107, -9.804457568807399, 0.0 ], [ -35.884081953717555, -9.804428794115863, 0.0 ], [ -35.884353554232391, -9.804411419594356, 0.0 ], [ -35.88459713203784, -9.804290919675793, 0.0 ], [ -35.884674509891333, -9.804110345951967, 0.0 ], [ -35.884746373061617, -9.803851157577272, 0.0 ], [ -35.884748346399128, -9.803623400181623, 0.0 ], [ -35.88471977452798, -9.803340854129502, 0.0 ], [ -35.884695199812128, -9.803095701205972, 0.0 ], [ -35.884610422537826, -9.802870245230784, 0.0 ], [ -35.884361838622745, -9.802503143301511, 0.0 ], [ -35.884251801395138, -9.802274151756942, 0.0 ], [ -35.884119236767155, -9.801983290314913, 0.0 ], [ -35.884005282640217, -9.801714364569371, 0.0 ], [ -35.883883274578935, -9.80142961721223, 0.0 ], [ -35.883897673566615, -9.801289967083598, 0.0 ], [ -35.883942994253808, -9.801187147202908, 0.0 ], [ -35.884149098334355, -9.801108022147128, 0.0 ], [ -35.884569333742746, -9.80102516357473, 0.0 ], [ -35.884828432938519, -9.800987012421094, 0.0 ], [ -35.885235377827009, -9.800809056887756, 0.0 ], [ -35.885575246673419, -9.800524516309242, 0.0 ], [ -35.885772318409607, -9.800030003452958, 0.0 ], [ -35.8857919183802, -9.799673094235013, 0.0 ], [ -35.885750096453499, -9.799464644353744, 0.0 ], [ -35.885584707763485, -9.799310288590155, 0.0 ], [ -35.885455870470992, -9.799102214518255, 0.0 ], [ -35.885368781757975, -9.798774495478035, 0.0 ], [ -35.885345117950337, -9.798399926365363, 0.0 ], [ -35.885264905438177, -9.797967914406151, 0.0 ], [ -35.88517792124992, -9.797714856669248, 0.0 ], [ -35.884875351105023, -9.79738283267325, 0.0 ], [ -35.884565947733265, -9.797134543068282, 0.0 ], [ -35.884192982620199, -9.796876709816267, 0.0 ], [ -35.883735387898327, -9.796805962475855, 0.0 ], [ -35.88348826289387, -9.796844591466613, 0.0 ], [ -35.883281467144329, -9.796879828873529, 0.0 ], [ -35.883115336151391, -9.7969515900714, 0.0 ], [ -35.882975858764333, -9.797034808111682, 0.0 ], [ -35.882823422425233, -9.797104916376586, 0.0 ], [ -35.882680589172224, -9.797111165125612, 0.0 ], [ -35.882498028482971, -9.797050701671276, 0.0 ], [ -35.882336764927715, -9.796912597435933, 0.0 ], [ -35.882202834712835, -9.79706706703495, 0.0 ], [ -35.882071629744864, -9.797271663489946, 0.0 ], [ -35.881561983852535, -9.797261538798034, 0.0 ], [ -35.881292735615844, -9.797091632788046, 0.0 ], [ -35.881052251564512, -9.796792649571833, 0.0 ], [ -35.880897958856892, -9.796378846559266, 0.0 ], [ -35.880745545761002, -9.796016879592319, 0.0 ], [ -35.880847270569902, -9.795795307565795, 0.0 ], [ -35.881025015989607, -9.795575311416618, 0.0 ], [ -35.881314778475563, -9.795356605650399, 0.0 ], [ -35.88134110949931, -9.795140373215945, 0.0 ], [ -35.881286692350209, -9.794813034009872, 0.0 ], [ -35.881175339396165, -9.794481634218652, 0.0 ], [ -35.881033359621554, -9.794296771180347, 0.0 ], [ -35.8809205577206, -9.794043496438791, 0.0 ], [ -35.881059059074254, -9.793874685487769, 0.0 ], [ -35.881244292109592, -9.793660403249326, 0.0 ], [ -35.881387734251454, -9.79358132053112, 0.0 ], [ -35.88153357533232, -9.793554193029044, 0.0 ], [ -35.881702090463179, -9.793487804448441, 0.0 ], [ -35.881833094092229, -9.793395177500603, 0.0 ], [ -35.881977060242427, -9.793314952684193, 0.0 ], [ -35.882084117827056, -9.793222488650477, 0.0 ], [ -35.882243802944181, -9.79324492532802, 0.0 ], [ -35.882367498295793, -9.793306581950551, 0.0 ], [ -35.8825518561178, -9.793378537012631, 0.0 ], [ -35.882697388637069, -9.793347514143013, 0.0 ], [ -35.882829078389548, -9.793200646968714, 0.0 ], [ -35.882825768354664, -9.793048125252859, 0.0 ], [ -35.882844774814444, -9.792791225173179, 0.0 ], [ -35.882900215597637, -9.792463725507943, 0.0 ], [ -35.883017464767363, -9.792105797535502, 0.0 ], [ -35.88318887917967, -9.791955935001523, 0.0 ], [ -35.883449687036133, -9.791784398179145, 0.0 ], [ -35.883600242962551, -9.791613124953361, 0.0 ], [ -35.8836749228307, -9.791502470167357, 0.0 ], [ -35.883635630331682, -9.791371121146113, 0.0 ], [ -35.8835591456494, -9.791307608615964, 0.0 ], [ -35.883457803912705, -9.79128511544349, 0.0 ], [ -35.883345243795709, -9.791356599705894, 0.0 ], [ -35.883219549751331, -9.791402735708559, 0.0 ], [ -35.883106045490159, -9.791421812037955, 0.0 ], [ -35.883004677171378, -9.791413521477489, 0.0 ], [ -35.882903564284426, -9.79141859697137, 0.0 ], [ -35.882790779194757, -9.791464372744354, 0.0 ], [ -35.882626372943434, -9.791473761011918, 0.0 ], [ -35.88239021032107, -9.791605058136476, 0.0 ], [ -35.882155419979028, -9.791731789615316, 0.0 ], [ -35.88195024652186, -9.791944741464405, 0.0 ], [ -35.881717820637554, -9.792097093278555, 0.0 ], [ -35.881422347355532, -9.792225166469299, 0.0 ], [ -35.881038511672713, -9.792330629828355, 0.0 ], [ -35.880792061213128, -9.79241655386981, 0.0 ], [ -35.880511674923625, -9.792581928333655, 0.0 ], [ -35.880362897262458, -9.792631980829407, 0.0 ], [ -35.880208741936862, -9.792595406423864, 0.0 ], [ -35.880128942073526, -9.792533818269975, 0.0 ], [ -35.879916736046766, -9.792617627311053, 0.0 ], [ -35.879625597109445, -9.792739266001103, 0.0 ], [ -35.879395966764058, -9.792839642891085, 0.0 ], [ -35.879084228761805, -9.792893187134185, 0.0 ], [ -35.878885316712577, -9.792865829154946, 0.0 ], [ -35.878539359514569, -9.792523583758753, 0.0 ], [ -35.878386694268237, -9.79228726865599, 0.0 ], [ -35.878295796937664, -9.792019936565152, 0.0 ], [ -35.878203786675918, -9.791738509978236, 0.0 ], [ -35.878307807478045, -9.791517253198853, 0.0 ], [ -35.878479838069374, -9.791469791648126, 0.0 ], [ -35.878735161090283, -9.791389300449589, 0.0 ], [ -35.879000083993908, -9.791264308807165, 0.0 ], [ -35.87911814085534, -9.791180831021945, 0.0 ], [ -35.879204045756488, -9.791009717514093, 0.0 ], [ -35.878949823790045, -9.790509419440154, 0.0 ], [ -35.878722976259212, -9.790044819571884, 0.0 ], [ -35.878551500906696, -9.789682470806921, 0.0 ], [ -35.87849833183143, -9.789389150610031, 0.0 ], [ -35.878527195024525, -9.789167421209168, 0.0 ], [ -35.878710954769247, -9.788935440437294, 0.0 ], [ -35.878845857055055, -9.788737541318998, 0.0 ], [ -35.878960316143477, -9.788601605535513, 0.0 ], [ -35.879078811926988, -9.788496797020729, 0.0 ], [ -35.879037828023009, -9.788323178278043, 0.0 ], [ -35.878875352435237, -9.788218144580934, 0.0 ], [ -35.878587889006013, -9.788274835948352, 0.0 ], [ -35.878373368790584, -9.788215990977045, 0.0 ], [ -35.878046645957482, -9.788137345271741, 0.0 ], [ -35.877736351156464, -9.788019625837519, 0.0 ], [ -35.877577163379769, -9.787924178981726, 0.0 ], [ -35.877446654512688, -9.787832007798665, 0.0 ], [ -35.87736222657869, -9.787486663687901, 0.0 ], [ -35.877438840865707, -9.786996516428982, 0.0 ], [ -35.877404975703641, -9.786700724845726, 0.0 ], [ -35.87745231027403, -9.78641469865231, 0.0 ], [ -35.877625516279814, -9.786201324242651, 0.0 ], [ -35.877825424384469, -9.786210951385266, 0.0 ], [ -35.877981954357637, -9.786284019813952, 0.0 ], [ -35.878246255320711, -9.786442341327927, 0.0 ], [ -35.878464128684058, -9.786479157173201, 0.0 ], [ -35.878685795617116, -9.786434933838184, 0.0 ], [ -35.878867029920897, -9.786369212904738, 0.0 ], [ -35.879094771881007, -9.786389773968938, 0.0 ], [ -35.879253752123738, -9.786403435511321, 0.0 ], [ -35.879385295106353, -9.786554222679349, 0.0 ], [ -35.879426862261738, -9.786713600851101, 0.0 ], [ -35.879486156782733, -9.786810122854041, 0.0 ], [ -35.879598983088208, -9.786798882720515, 0.0 ], [ -35.879720676905336, -9.786604513530849, 0.0 ], [ -35.879850113090555, -9.786345342418617, 0.0 ], [ -35.880072860900903, -9.786084758918415, 0.0 ], [ -35.880256193937541, -9.785934268631054, 0.0 ], [ -35.880408336273476, -9.785857539785667, 0.0 ], [ -35.880498207953337, -9.785745090082573, 0.0 ], [ -35.880610386479034, -9.785588530073833, 0.0 ], [ -35.880613800730359, -9.785429866225497, 0.0 ], [ -35.880516308114863, -9.785206595705214, 0.0 ], [ -35.880372101963545, -9.785042030763371, 0.0 ], [ -35.880285741574461, -9.784626013458082, 0.0 ], [ -35.880299607015232, -9.784438277359053, 0.0 ], [ -35.880362034445106, -9.784226119059415, 0.0 ], [ -35.880513092013999, -9.784038602362253, 0.0 ], [ -35.880631799125979, -9.783938688883209, 0.0 ], [ -35.880612552722532, -9.783809543586202, 0.0 ], [ -35.880516836301069, -9.783651758703048, 0.0 ], [ -35.880435863357455, -9.783545399164341, 0.0 ], [ -35.880271416001811, -9.783527571010596, 0.0 ], [ -35.880122835657254, -9.783575607698618, 0.0 ], [ -35.879969178041911, -9.783555189064099, 0.0 ], [ -35.879827022323113, -9.7835508905172, 0.0 ], [ -35.879568137636042, -9.78358378204185, 0.0 ], [ -35.879450192976655, -9.783595407540492, 0.0 ], [ -35.879129037159572, -9.783553186632467, 0.0 ], [ -35.87891825029552, -9.783407744434873, 0.0 ], [ -35.878590269921204, -9.783163649496286, 0.0 ], [ -35.878361121857303, -9.782951474084266, 0.0 ], [ -35.878239759554823, -9.782785393472095, 0.0 ], [ -35.878178209055562, -9.782342109197129, 0.0 ], [ -35.878203306219227, -9.781747141339874, 0.0 ], [ -35.878218914149137, -9.781489231159309, 0.0 ], [ -35.878155839064739, -9.781217618814086, 0.0 ], [ -35.878215493071963, -9.780997368665998, 0.0 ], [ -35.878290134412552, -9.7807686047017, 0.0 ], [ -35.878260166386781, -9.780549650479358, 0.0 ], [ -35.878230523451329, -9.780509958477451, 0.0 ], [ -35.878043456133405, -9.780166280841502, 0.0 ], [ -35.877797409178193, -9.779937103321913, 0.0 ], [ -35.877589947317048, -9.779603807303857, 0.0 ], [ -35.877408139573596, -9.779269052244391, 0.0 ], [ -35.877216243799552, -9.778941387975488, 0.0 ], [ -35.87714931182105, -9.778792653376764, 0.0 ], [ -35.877234965758795, -9.778577014155168, 0.0 ], [ -35.877431315606039, -9.778359213114712, 0.0 ], [ -35.877502176772758, -9.778164463879792, 0.0 ], [ -35.877645380148223, -9.778005289414239, 0.0 ], [ -35.877702776238067, -9.777900640818999, 0.0 ], [ -35.877784640170248, -9.777688308545697, 0.0 ], [ -35.877761788219942, -9.777431339379413, 0.0 ], [ -35.87765360213384, -9.77703699075715, 0.0 ], [ -35.877390451507537, -9.776648991646994, 0.0 ], [ -35.877221332160644, -9.776428401374618, 0.0 ], [ -35.87710070309469, -9.776277397558728, 0.0 ], [ -35.876963406393386, -9.776262982983278, 0.0 ], [ -35.876809503818031, -9.776271198869622, 0.0 ], [ -35.87660357986335, -9.77627197427843, 0.0 ], [ -35.876396725830269, -9.776385882844096, 0.0 ], [ -35.876320025191283, -9.776486281268994, 0.0 ], [ -35.876172827957404, -9.776679685235424, 0.0 ], [ -35.876044437998203, -9.776762915328083, 0.0 ], [ -35.875883340355088, -9.776784404165273, 0.0 ], [ -35.875699916121157, -9.776646103043648, 0.0 ], [ -35.875469961970367, -9.776452141224366, 0.0 ], [ -35.875138310529891, -9.776140884422936, 0.0 ], [ -35.874820267140635, -9.775885659597868, 0.0 ], [ -35.874430482869954, -9.775584827091668, 0.0 ], [ -35.874084084085879, -9.775276981386996, 0.0 ], [ -35.872490621582067, -9.773956521527493, 0.0 ], [ -35.870974144300959, -9.772664737923417, 0.0 ], [ -35.869670517299213, -9.771578108960959, 0.0 ], [ -35.869166885361302, -9.771145134758326, 0.0 ], [ -35.869206428688152, -9.771009510585328, 0.0 ], [ -35.869407433188059, -9.770886252394329, 0.0 ], [ -35.869520705589075, -9.77087249264261, 0.0 ], [ -35.870037834873258, -9.770554870750654, 0.0 ], [ -35.870061333264267, -9.770309634803128, 0.0 ], [ -35.870062691757376, -9.770103340301754, 0.0 ], [ -35.868806739648335, -9.768718950319455, 0.0 ], [ -35.867186711552236, -9.766675089726562, 0.0 ], [ -35.867386194914481, -9.76654428904412, 0.0 ], [ -35.867614506459375, -9.766381813935512, 0.0 ], [ -35.868458652205696, -9.767341698674693, 0.0 ], [ -35.86892873766724, -9.767796605169757, 0.0 ], [ -35.869047250019058, -9.767791673077992, 0.0 ], [ -35.869193697411518, -9.767701226961856, 0.0 ], [ -35.869315517048079, -9.767438740538189, 0.0 ], [ -35.869440173319092, -9.767190439109049, 0.0 ], [ -35.869577841182405, -9.766799197644579, 0.0 ], [ -35.869610953775528, -9.766385296233913, 0.0 ], [ -35.869732752107026, -9.765689209064512, 0.0 ], [ -35.869769999843356, -9.765346184757009, 0.0 ], [ -35.869805128961367, -9.764982545059443, 0.0 ], [ -35.869788498082173, -9.764694832876341, 0.0 ], [ -35.869799630786687, -9.76442993876908, 0.0 ], [ -35.869780271270947, -9.7641016642135, 0.0 ], [ -35.869752581786791, -9.763870718468841, 0.0 ], [ -35.869556039876592, -9.76358467115811, 0.0 ], [ -35.869306180178413, -9.763355404550751, 0.0 ], [ -35.8689856532352, -9.763229027136274, 0.0 ], [ -35.86877633931708, -9.763247191683146, 0.0 ], [ -35.868624503300225, -9.763273408896746, 0.0 ], [ -35.86822216264185, -9.762939773795676, 0.0 ], [ -35.867851102788194, -9.762533753252594, 0.0 ], [ -35.867596291014699, -9.762208230761425, 0.0 ], [ -35.86753239098968, -9.762077661491237, 0.0 ], [ -35.867326862084155, -9.761762526362336, 0.0 ], [ -35.86724044037129, -9.761605124586167, 0.0 ], [ -35.866913356448045, -9.761516156848634, 0.0 ], [ -35.866737277695371, -9.761387882394162, 0.0 ], [ -35.866529311337487, -9.761222595114054, 0.0 ], [ -35.866361588220592, -9.761057265287095, 0.0 ], [ -35.866203891025485, -9.76106040639419, 0.0 ], [ -35.865651261105427, -9.761424944951129, 0.0 ], [ -35.865576076588688, -9.761607277988254, 0.0 ], [ -35.865707443668441, -9.761975496795616, 0.0 ], [ -35.865765773184982, -9.762212902230679, 0.0 ], [ -35.865781884949811, -9.76248742345507, 0.0 ], [ -35.865688730857144, -9.762600971308716, 0.0 ], [ -35.865606602826993, -9.762728303159864, 0.0 ], [ -35.865518962001389, -9.762969842498945, 0.0 ], [ -35.865661395150966, -9.763162268559171, 0.0 ], [ -35.86586014675278, -9.763400705631378, 0.0 ], [ -35.866053812549701, -9.763619786927201, 0.0 ], [ -35.865926894845295, -9.763892678773551, 0.0 ], [ -35.865739066106329, -9.763950962605771, 0.0 ], [ -35.865558627144324, -9.76409157918865, 0.0 ], [ -35.866236310802471, -9.764898216126468, 0.0 ], [ -35.866439711310946, -9.765142304381721, 0.0 ], [ -35.866369722497176, -9.765336899332093, 0.0 ], [ -35.866240438318989, -9.765595264806809, 0.0 ], [ -35.866129737283835, -9.765901959465607, 0.0 ], [ -35.865958673190455, -9.766085632895843, 0.0 ], [ -35.865803486231215, -9.766181680489542, 0.0 ], [ -35.86563865983706, -9.766225955299607, 0.0 ], [ -35.865290671300471, -9.766264069953957, 0.0 ], [ -35.865064308659377, -9.766242512011658, 0.0 ], [ -35.865010424260944, -9.766175090260884, 0.0 ], [ -35.864148333799932, -9.764517942086517, 0.0 ], [ -35.864019944354098, -9.764458108985346, 0.0 ], [ -35.863897603843682, -9.76431412151482, 0.0 ], [ -35.863802068791259, -9.76418113356951, 0.0 ], [ -35.863790532953196, -9.764166469045701, 0.0 ], [ -35.863666006221173, -9.764129810819734, 0.0 ], [ -35.863510186144282, -9.764140382448003, 0.0 ], [ -35.86336705775571, -9.764173099549566, 0.0 ], [ -35.86315141425262, -9.764326636556502, 0.0 ], [ -35.862961477895603, -9.764368497883119, 0.0 ], [ -35.862842348343854, -9.764322760407181, 0.0 ], [ -35.86241662364904, -9.76395627369525, 0.0 ], [ -35.861169788547329, -9.762912398041337, 0.0 ], [ -35.854753524210075, -9.765609373787942, 0.0 ], [ -35.857501599355494, -9.768116854600917, 0.0 ], [ -35.85772478971802, -9.768348365380017, 0.0 ], [ -35.85778370635618, -9.768519154562163, 0.0 ], [ -35.857806777603543, -9.768720217012756, 0.0 ], [ -35.857752609367417, -9.768907479411617, 0.0 ], [ -35.857643914178666, -9.769104845759125, 0.0 ], [ -35.857579751031345, -9.769233810829085, 0.0 ], [ -35.857497214071934, -9.769431142259466, 0.0 ], [ -35.857566220166923, -9.77030357470395, 0.0 ], [ -35.857454353444218, -9.770464741910409, 0.0 ], [ -35.857300888872153, -9.770538717071444, 0.0 ], [ -35.857112811204871, -9.770419076081872, 0.0 ], [ -35.853037639194511, -9.766306228489027, 0.0 ], [ -35.851721514498607, -9.766872760193726, 0.0 ], [ -35.851625061942372, -9.767084222555958, 0.0 ], [ -35.851720710953494, -9.767326063371874, 0.0 ], [ -35.852845218850725, -9.768558240341383, 0.0 ], [ -35.853360356824808, -9.769161988171694, 0.0 ], [ -35.853600519459363, -9.769761276390163, 0.0 ], [ -35.855111495195054, -9.770904256721371, 0.0 ], [ -35.857072539230067, -9.773300526775033, 0.0 ], [ -35.857523244813521, -9.774089506755089, 0.0 ], [ -35.857731559482652, -9.77449070745981, 0.0 ], [ -35.858041015531725, -9.77521147764767, 0.0 ], [ -35.858030566744553, -9.775478353272327, 0.0 ], [ -35.857943554164407, -9.775665077991269, 0.0 ], [ -35.857913023238716, -9.77588006427092, 0.0 ], [ -35.857959485964216, -9.7760926880947, 0.0 ], [ -35.858199371270906, -9.776321635263963, 0.0 ], [ -35.858542674876752, -9.776492004937266, 0.0 ], [ -35.858798631278482, -9.776600296784601, 0.0 ], [ -35.858979913124635, -9.776831271550266, 0.0 ], [ -35.859558845435153, -9.777031131832421, 0.0 ], [ -35.859881026814037, -9.777157352395404, 0.0 ], [ -35.859984269108551, -9.77731668260907, 0.0 ], [ -35.860003862112862, -9.777353277656347, 0.0 ], [ -35.860233223530948, -9.777566390996968, 0.0 ], [ -35.860372700288437, -9.777736888803332, 0.0 ], [ -35.860390985768916, -9.778020665962536, 0.0 ], [ -35.860400927871197, -9.778241929543793, 0.0 ], [ -35.860398621991052, -9.778421894663424, 0.0 ], [ -35.860271761458492, -9.778517149741676, 0.0 ], [ -35.860113429460114, -9.778601757458302, 0.0 ], [ -35.859987015101154, -9.778632136848008, 0.0 ], [ -35.859791292015231, -9.778714050318989, 0.0 ], [ -35.859636487781415, -9.778756583731226, 0.0 ], [ -35.859441140853683, -9.778884497928592, 0.0 ], [ -35.859180835530935, -9.778985268567236, 0.0 ], [ -35.85892881066421, -9.779135301413074, 0.0 ], [ -35.858771014802912, -9.779243667081857, 0.0 ], [ -35.858612250602199, -9.779384776816647, 0.0 ], [ -35.858429893434298, -9.779453398576733, 0.0 ], [ -35.85811822459528, -9.779449696656886, 0.0 ], [ -35.857698169584765, -9.779298461883272, 0.0 ], [ -35.857152096803716, -9.779120542840051, 0.0 ], [ -35.856677379168495, -9.77887007258049, 0.0 ], [ -35.855612638546795, -9.778555990687083, 0.0 ], [ -35.855061140134765, -9.77834408757125, 0.0 ], [ -35.854674123307838, -9.778216693696827, 0.0 ], [ -35.854558661236723, -9.778349068559288, 0.0 ], [ -35.854593682609675, -9.778526188343447, 0.0 ], [ -35.854606999192328, -9.77867814658441, 0.0 ], [ -35.854476626943018, -9.77875122174466, 0.0 ], [ -35.85427027219739, -9.778922059555327, 0.0 ], [ -35.854120129944761, -9.778988654003111, 0.0 ], [ -35.85387298587947, -9.77915214925747, 0.0 ], [ -35.853636907122812, -9.779328050371006, 0.0 ], [ -35.853510904091756, -9.779372021395012, 0.0 ], [ -35.853386561929561, -9.779345799194267, 0.0 ], [ -35.853245878903031, -9.779254771629024, 0.0 ], [ -35.853080114173395, -9.779244800000725, 0.0 ], [ -35.852949866373294, -9.779247355781594, 0.0 ], [ -35.852838048132085, -9.779221154780334, 0.0 ], [ -35.852721097014978, -9.77915977619217, 0.0 ], [ -35.852614815564316, -9.779157114166271, 0.0 ], [ -35.852478704436201, -9.779188670092555, 0.0 ], [ -35.852372801590349, -9.779197576975537, 0.0 ], [ -35.852250661265934, -9.779165132366593, 0.0 ], [ -35.8522391290184, -9.779158986605994, 0.0 ], [ -35.852059291695717, -9.779107580420735, 0.0 ], [ -35.851964124321967, -9.778971001621036, 0.0 ], [ -35.851923320017711, -9.778777759479381, 0.0 ], [ -35.851928253380002, -9.778609105871853, 0.0 ], [ -35.852039672794213, -9.778506704284766, 0.0 ], [ -35.852151737496499, -9.778386492567144, 0.0 ], [ -35.85226324913819, -9.778312715410181, 0.0 ], [ -35.852358684286166, -9.778221050148325, 0.0 ], [ -35.852489714747911, -9.778124109647059, 0.0 ], [ -35.852321677053496, -9.777816820697517, 0.0 ], [ -35.852069878715859, -9.777566792467224, 0.0 ], [ -35.851856753602164, -9.777464231833482, 0.0 ], [ -35.851609152904061, -9.777384867129628, 0.0 ], [ -35.851459387272655, -9.77736536861709, 0.0 ], [ -35.851445272200642, -9.777365182357871, 0.0 ], [ -35.851338323719254, -9.777610679300215, 0.0 ], [ -35.851047718436298, -9.778432080395209, 0.0 ], [ -35.850908518586969, -9.778846653196839, 0.0 ], [ -35.850811485165373, -9.779187913703604, 0.0 ], [ -35.850786407008414, -9.779392512745973, 0.0 ], [ -35.850790785498027, -9.779590634110658, 0.0 ], [ -35.850849202598013, -9.779851367421479, 0.0 ], [ -35.850911418638091, -9.780034302155482, 0.0 ], [ -35.851025736596796, -9.780240768608365, 0.0 ], [ -35.851175847816009, -9.780439978573554, 0.0 ], [ -35.851475929168643, -9.780782937829246, 0.0 ], [ -35.852627954563545, -9.782083814388127, 0.0 ], [ -35.852629551439037, -9.782085650457125, 0.0 ], [ -35.85377812282335, -9.783430397632344, 0.0 ], [ -35.853778330194018, -9.783430640999851, 0.0 ], [ -35.855059824464085, -9.784938166473067, 0.0 ], [ -35.855941639886076, -9.785935089269364, 0.0 ], [ -35.855942767981034, -9.785936380953039, 0.0 ], [ -35.857159135235811, -9.787347004385207, 0.0 ], [ -35.858384057525626, -9.788745091953293, 0.0 ], [ -35.858384257731039, -9.788745320976707, 0.0 ], [ -35.859090541012499, -9.789555093048095, 0.0 ], [ -35.859090630478065, -9.789555195726127, 0.0 ], [ -35.859890071023159, -9.790473624452355, 0.0 ], [ -35.859890676492284, -9.790474324842062, 0.0 ], [ -35.860627725009877, -9.791332815518329, 0.0 ], [ -35.86113469468075, -9.791887592458876, 0.0 ], [ -35.861435739717081, -9.79215289303405, 0.0 ], [ -35.862094689876805, -9.792667625273456, 0.0 ], [ -35.862096364343721, -9.792668954516735, 0.0 ], [ -35.862098017566296, -9.792670309669381, 0.0 ], [ -35.862099649137079, -9.792671690397391, 0.0 ], [ -35.862101258653965, -9.792673096360506, 0.0 ], [ -35.862102845720244, -9.792674527212181, 0.0 ], [ -35.862104409944806, -9.792675982599789, 0.0 ], [ -35.862105950942116, -9.792677462164631, 0.0 ], [ -35.862107468332383, -9.792678965542054, 0.0 ], [ -35.862108961741647, -9.792680492361548, 0.0 ], [ -35.862110430801813, -9.792682042246815, 0.0 ], [ -35.862111875150852, -9.79268361481583, 0.0 ], [ -35.862564629104241, -9.793184400271665, 0.0 ], [ -35.862891301277507, -9.793542947513007, 0.0 ], [ -35.862892954937074, -9.793544796138519, 0.0 ], [ -35.862894574330952, -9.793546674370377, 0.0 ], [ -35.863311086451901, -9.794038774296805, 0.0 ], [ -35.863312475686705, -9.794040442510317, 0.0 ], [ -35.863313837889294, -9.79404213251326, 0.0 ], [ -35.86331517271234, -9.794043843874773, 0.0 ], [ -35.863316479815502, -9.794045576158473, 0.0 ], [ -35.86331775886552, -9.794047328922671, 0.0 ], [ -35.863319009536262, -9.7940491017205, 0.0 ], [ -35.863805701549609, -9.794750835613099, 0.0 ], [ -35.86380691415242, -9.794752613999803, 0.0 ], [ -35.863808098196529, -9.794754411218854, 0.0 ], [ -35.863809253384701, -9.794756226819132, 0.0 ], [ -35.863810379426951, -9.794758060344837, 0.0 ], [ -35.86381147604061, -9.794759911335721, 0.0 ], [ -35.863812542950406, -9.79476177932713, 0.0 ], [ -35.863813579888486, -9.79476366385015, 0.0 ], [ -35.863964166388421, -9.795042570002641, 0.0 ], [ -35.863965276344416, -9.795044669718441, 0.0 ], [ -35.864223665481461, -9.795544040430249, 0.0 ], [ -35.864224646600327, -9.795545974446503, 0.0 ], [ -35.864225596440654, -9.795547923763911, 0.0 ], [ -35.86422651475992, -9.795549887884865, 0.0 ], [ -35.864227401323738, -9.795551866307958, 0.0 ], [ -35.864621108377264, -9.796449702624999, 0.0 ], [ -35.865077801785702, -9.7974543961767, 0.0 ], [ -35.865641380419774, -9.798655148336008, 0.0 ], [ -35.866041592378124, -9.799498435602111, 0.0 ], [ -35.866042044032369, -9.799499397026946, 0.0 ], [ -35.86639651209196, -9.800261720791488, 0.0 ], [ -35.866397143241699, -9.800263098317547, 0.0 ], [ -35.866673706202235, -9.80087577246996, 0.0 ], [ -35.866813390475961, -9.801090964968692, 0.0 ], [ -35.867256359238482, -9.80166333898782, 0.0 ], [ -35.867731141260428, -9.802257831088014, 0.0 ], [ -35.868409240029273, -9.803075411909175, 0.0 ], [ -35.868410413811787, -9.803076846961726, 0.0 ], [ -35.868411567754528, -9.803078297757164, 0.0 ], [ -35.869001593794309, -9.80383059867717, 0.0 ], [ -35.869001821324929, -9.803830889599185, 0.0 ], [ -35.869850590248618, -9.804919174691403, 0.0 ], [ -35.87058718909325, -9.805834179513148, 0.0 ], [ -35.87058812028107, -9.805835349369543, 0.0 ], [ -35.871291390732218, -9.80672892950275, 0.0 ], [ -35.871291775526004, -9.806729420742766, 0.0 ], [ -35.872144531819892, -9.807823244042426, 0.0 ], [ -35.873021021378612, -9.808870138575847, 0.0 ], [ -35.873588680132862, -9.809529484614323, 0.0 ], [ -35.873589680802077, -9.80953066035851, 0.0 ], [ -35.874148683664103, -9.810195079665021, 0.0 ], [ -35.874150216880025, -9.810196935154313, 0.0 ], [ -35.874151716735646, -9.810198817274706, 0.0 ], [ -35.874153182760836, -9.810200725436294, 0.0 ], [ -35.874611016692619, -9.810807706544342, 0.0 ], [ -35.87489962790805, -9.811132619278641, 0.0 ], [ -35.874901295274974, -9.811134532051973, 0.0 ], [ -35.874902926365827, -9.811136475350235, 0.0 ], [ -35.875235626144168, -9.811540463350532, 0.0 ], [ -35.875237187577554, -9.811542395108017, 0.0 ], [ -35.875238713163981, -9.811544354838768, 0.0 ], [ -35.875562925668071, -9.811968789611262, 0.0 ], [ -35.875564153708673, -9.811970422626608, 0.0 ], [ -35.87556535685723, -9.811972073768752, 0.0 ], [ -35.875566534841766, -9.811973742664515, 0.0 ], [ -35.875567687396028, -9.811975428936661, 0.0 ], [ -35.875568814259502, -9.811977132204015, 0.0 ], [ -35.875569915177465, -9.811978852081602, 0.0 ], [ -35.875570989901085, -9.811980588180653, 0.0 ], [ -35.875572038187421, -9.81198234010877, 0.0 ], [ -35.87573758641912, -9.812263808684644, 0.0 ], [ -35.875738639492916, -9.81226563146015, 0.0 ], [ -35.875739663948025, -9.812267470209157, 0.0 ], [ -35.875740659538202, -9.8122693244897, 0.0 ], [ -35.875741626024144, -9.812271193856045, 0.0 ], [ -35.875742563173539, -9.81227307785888, 0.0 ], [ -35.875743470761115, -9.812274976045343, 0.0 ], [ -35.875861615626732, -9.812527101332378, 0.0 ], [ -35.875862516796083, -9.812529065218081, 0.0 ], [ -35.875863386321903, -9.812531043086894, 0.0 ], [ -35.875864223983712, -9.812533034437308, 0.0 ], [ -35.875865029569113, -9.812535038764368, 0.0 ], [ -35.875865802873832, -9.812537055559858, 0.0 ], [ -35.875866543701783, -9.812539084312402, 0.0 ], [ -35.875867251865124, -9.81254112450757, 0.0 ], [ -35.875867927184288, -9.812543175628042, 0.0 ], [ -35.875868569488048, -9.812545237153724, 0.0 ], [ -35.87586917861352, -9.812547308561898, 0.0 ], [ -35.87586975440626, -9.812549389327323, 0.0 ], [ -35.875870296720272, -9.812551478922382, 0.0 ], [ -35.875870805418046, -9.812553576817242, 0.0 ], [ -35.875919313291753, -9.812760871447928, 0.0 ], [ -35.875970878893419, -9.812965019086764, 0.0 ], [ -35.875971403395504, -9.812967169935874, 0.0 ], [ -35.875971892414128, -9.812969328993304, 0.0 ], [ -35.875972345818859, -9.812971495683239, 0.0 ], [ -35.875972763488775, -9.812973669427858, 0.0 ], [ -35.876019623226981, -9.813228862617708, 0.0 ], [ -35.876146000727012, -9.813872964537588, 0.0 ], [ -35.876320634363566, -9.814603710080229, 0.0 ], [ -35.876436058101596, -9.815030515892479, 0.0 ], [ -35.87655821519612, -9.815277296378746, 0.0 ], [ -35.876677938333088, -9.815474698979042, 0.0 ], [ -35.876844916337198, -9.815680484633988, 0.0 ], [ -35.877034006366031, -9.815875304569268, 0.0 ], [ -35.877256417412688, -9.816057272925159, 0.0 ], [ -35.87725679863042, -9.816057585975418, 0.0 ], [ -35.877474190871837, -9.816236764267343, 0.0 ], [ -35.87747584902997, -9.81623815317881, 0.0 ], [ -35.877769731206378, -9.816488308698782, 0.0 ], [ -35.87777070214932, -9.816489143068656, 0.0 ], [ -35.878189948349352, -9.816852853899258, 0.0 ], [ -35.878191568052287, -9.816854281690608, 0.0 ], [ -35.87819316471866, -9.816855734781438, 0.0 ], [ -35.878194737946792, -9.816857212806141, 0.0 ], [ -35.878196287340892, -9.816858715392913, 0.0 ], [ -35.878197812511154, -9.816860242163706, 0.0 ], [ -35.8781993130739, -9.816861792734466, 0.0 ], [ -35.878200788651625, -9.816863366715065, 0.0 ], [ -35.878202238873094, -9.816864963709552, 0.0 ], [ -35.878203663373469, -9.816866583316155, 0.0 ], [ -35.878205061794382, -9.816868225127392, 0.0 ], [ -35.87820643378403, -9.816869888730265, 0.0 ], [ -35.878207778997229, -9.816871573706214, 0.0 ], [ -35.878209097095585, -9.816873279631366, 0.0 ], [ -35.878210387747473, -9.816875006076533, 0.0 ], [ -35.878211650628202, -9.816876752607392, 0.0 ], [ -35.878212885420062, -9.816878518784542, 0.0 ], [ -35.878214091812403, -9.816880304163663, 0.0 ], [ -35.87821526950173, -9.816882108295609, 0.0 ], [ -35.878216418191762, -9.816883930726481, 0.0 ], [ -35.878217537593507, -9.816885770997816, 0.0 ], [ -35.878218627425369, -9.816887628646631, 0.0 ], [ -35.87821968741315, -9.816889503205582, 0.0 ], [ -35.878220717290191, -9.816891394203083, 0.0 ], [ -35.878221716797405, -9.816893301163407, 0.0 ], [ -35.878222685683326, -9.816895223606803, 0.0 ], [ -35.878223623704216, -9.816897161049626, 0.0 ], [ -35.878224530624081, -9.816899113004458, 0.0 ], [ -35.878225406214767, -9.81690107898025, 0.0 ], [ -35.878226250255985, -9.816903058482376, 0.0 ], [ -35.878227062535409, -9.816905051012872, 0.0 ], [ -35.878227842848688, -9.816907056070452, 0.0 ], [ -35.878228590999498, -9.816909073150697, 0.0 ], [ -35.878229306799625, -9.816911101746134, 0.0 ], [ -35.878229990069002, -9.816913141346449, 0.0 ], [ -35.878230640635728, -9.816915191438493, 0.0 ], [ -35.878231258336122, -9.816917251506547, 0.0 ], [ -35.878231843014802, -9.816919321032305, 0.0 ], [ -35.878232394524666, -9.816921399495149, 0.0 ], [ -35.878232912726972, -9.816923486372184, 0.0 ], [ -35.87823339749135, -9.816925581138397, 0.0 ], [ -35.878233848695835, -9.816927683266796, 0.0 ], [ -35.878234266226933, -9.816929792228532, 0.0 ], [ -35.878234649979589, -9.816931907493029, 0.0 ], [ -35.878234999857263, -9.816934028528163, 0.0 ], [ -35.878235315771924, -9.816936154800295, 0.0 ], [ -35.878235597644114, -9.816938285774542, 0.0 ], [ -35.878235845402905, -9.816940420914772, 0.0 ], [ -35.878236058985969, -9.81694255968385, 0.0 ], [ -35.878236238339561, -9.816944701543706, 0.0 ], [ -35.878236383418589, -9.81694684595549, 0.0 ], [ -35.878236494186531, -9.816948992379741, 0.0 ], [ -35.87823657061552, -9.816951140276441, 0.0 ], [ -35.878236612686337, -9.816953289105243, 0.0 ], [ -35.8782366203884, -9.816955438325554, 0.0 ], [ -35.878236593719755, -9.816957587396672, 0.0 ], [ -35.878236532687119, -9.816959735777958, 0.0 ], [ -35.878236437305851, -9.81696188292891, 0.0 ], [ -35.878236307599941, -9.816964028309355, 0.0 ], [ -35.878236143602017, -9.816966171379574, 0.0 ], [ -35.878235945353339, -9.816968311600418, 0.0 ], [ -35.878235712903773, -9.816970448433453, 0.0 ], [ -35.87823544631182, -9.816972581341108, 0.0 ], [ -35.878235145644517, -9.816974709786789, 0.0 ], [ -35.878234810977538, -9.816976833235046, 0.0 ], [ -35.878234442395055, -9.816978951151636, 0.0 ], [ -35.878234039989785, -9.816981063003769, 0.0 ], [ -35.878233603862981, -9.816983168260119, 0.0 ], [ -35.878233134124358, -9.816985266391104, 0.0 ], [ -35.878232630892093, -9.816987356868838, 0.0 ], [ -35.878232094292777, -9.816989439167413, 0.0 ], [ -35.87823152446142, -9.816991512762984, 0.0 ], [ -35.878230921541359, -9.816993577133884, 0.0 ], [ -35.878230285684282, -9.81699563176074, 0.0 ], [ -35.878229617050167, -9.816997676126681, 0.0 ], [ -35.878228915807213, -9.816999709717395, 0.0 ], [ -35.878228498780153, -9.817000859211399, 0.0 ] ], [ [ -35.865019598023025, -9.78348747061958, 0.0 ], [ -35.865410231108605, -9.783475732142229, 0.0 ], [ -35.8662062016097, -9.782483258318962, 0.0 ], [ -35.865569336960554, -9.782041753297387, 0.0 ], [ -35.86489117157624, -9.781711016734764, 0.0 ], [ -35.865332346068804, -9.780809468774279, 0.0 ], [ -35.86598877464413, -9.781509475802528, 0.0 ], [ -35.86603319988771, -9.781234222066734, 0.0 ], [ -35.866327565087971, -9.78132509431331, 0.0 ], [ -35.86631128889109, -9.782183446120797, 0.0 ], [ -35.866737429439667, -9.78226390974341, 0.0 ], [ -35.867043100038444, -9.780436786225792, 0.0 ], [ -35.868077196104053, -9.781396256726877, 0.0 ], [ -35.868344446671209, -9.781858567579784, 0.0 ], [ -35.868432431877757, -9.782917243841984, 0.0 ], [ -35.870320674649626, -9.783575343891719, 0.0 ], [ -35.87062356531748, -9.783737803600554, 0.0 ], [ -35.870126302982804, -9.785467187710234, 0.0 ], [ -35.867396766666985, -9.78471004264126, 0.0 ], [ -35.866153043639414, -9.784306901534643, 0.0 ], [ -35.865897865270007, -9.784669726868135, 0.0 ], [ -35.865112428146595, -9.784056797298687, 0.0 ], [ -35.865083235805692, -9.78372266387624, 0.0 ], [ -35.865019598023025, -9.78348747061958, 0.0 ] ] ] ] } }
]
}
