{
"type": "FeatureCollection",
"name": "Areas_Quilombolas",
"crs": { "type": "name", "properties": { "name": "urn:ogc:def:crs:OGC:1.3:CRS84" } },
"features": [
{ "type": "Feature", "properties": { "cd_quilomb": null, "cd_sr": "SR-22", "nr_process": "54.360.000119/2011-83", "nm_comunid": "ABOBREIRAS", "nm_municip": "TEOTÔNIO VILELA", "cd_uf": "AL", "dt_publica": "27/07/2017", "dt_public1": null, "nr_familia": 38, "dt_titulac": null, "nr_area_ha": 487.799, "nr_perimet": 14491.82, "cd_sipra": null, "ob_descric": null, "st_titulad": null, "dt_decreto": null, "tp_levanta": null, "nr_escalao": null, "area_calc_": 495.6308, "perimetro_": 131395.4181, "esfera": "FEDERAL", "fase": "RTID", "responsave": "INCRA" }, "geometry": { "type": "MultiPolygon", "coordinates": [ [ [ [ -36.369982787867663, -10.008887398573773 ], [ -36.370175381403371, -10.00883207635831 ], [ -36.370770517222162, -10.008822481758301 ], [ -36.370881503176662, -10.008802830954821 ], [ -36.371007726993675, -10.00876096473047 ], [ -36.372045991084875, -10.00813414702948 ], [ -36.373565592408305, -10.007272643591467 ], [ -36.374864792945672, -10.006796412287121 ], [ -36.375345470421912, -10.006663318668579 ], [ -36.376292425477587, -10.006165207014957 ], [ -36.377118728049176, -10.005774477000411 ], [ -36.377612887702412, -10.005441301877319 ], [ -36.378549864877257, -10.004897699330087 ], [ -36.380542451827687, -10.003429391980905 ], [ -36.380615639905052, -10.003362381979624 ], [ -36.381755543946007, -10.002360632549447 ], [ -36.381915543748377, -10.002232682516231 ], [ -36.382536574018623, -10.001938039312686 ], [ -36.383780563953351, -10.001164346019255 ], [ -36.384299474478034, -10.000895369787951 ], [ -36.385204892343566, -10.000522448961579 ], [ -36.386231533608218, -10.00025348440532 ], [ -36.388329495402139, -9.999907451858745 ], [ -36.387985241192673, -9.998111797764055 ], [ -36.386632555026964, -9.992494808001947 ], [ -36.386547903714551, -9.99229716560928 ], [ -36.381333348077398, -9.984732492939562 ], [ -36.381376841953248, -9.984699501387423 ], [ -36.382560526753707, -9.983944180874301 ], [ -36.382970659166361, -9.983721511499217 ], [ -36.383027409149719, -9.983691868545341 ], [ -36.382761046883957, -9.982845159099066 ], [ -36.382412587622191, -9.982210458951432 ], [ -36.38193699979567, -9.981934180088311 ], [ -36.381768330089315, -9.982145083603497 ], [ -36.381561436288848, -9.982404968086051 ], [ -36.380252590823261, -9.983980615218254 ], [ -36.380171185874858, -9.984141080493556 ], [ -36.379966937904818, -9.984913105425683 ], [ -36.379676382020008, -9.986184483010216 ], [ -36.379374488892012, -9.98693613131973 ], [ -36.37912639131477, -9.987093657913769 ], [ -36.378270547306201, -9.987575297249958 ], [ -36.378172731905281, -9.987599375156401 ], [ -36.376409371430462, -9.988515071698004 ], [ -36.37622823155742, -9.988608879823008 ], [ -36.375444087921338, -9.989016802104047 ], [ -36.374010184069711, -9.989765119373883 ], [ -36.373291406670567, -9.989907723701039 ], [ -36.372904925538066, -9.989074548041177 ], [ -36.37286541793366, -9.989082847250161 ], [ -36.372031003487436, -9.987893640839555 ], [ -36.371071491542054, -9.989377434250276 ], [ -36.370908442946821, -9.989805969064449 ], [ -36.370834211223844, -9.990295547413778 ], [ -36.370680765639293, -9.990741616833008 ], [ -36.370641722987564, -9.990953968277436 ], [ -36.370713878046487, -9.991231495381736 ], [ -36.370695297777033, -9.991432778617494 ], [ -36.370480521415651, -9.991785681702146 ], [ -36.370372605946599, -9.992455276773127 ], [ -36.370412514314339, -9.993100272737029 ], [ -36.370520429777805, -9.993583377190538 ], [ -36.370257360369941, -9.994640007055766 ], [ -36.370119065599503, -9.996738925527731 ], [ -36.369831553893064, -9.998246028685807 ], [ -36.369729375346878, -9.998781631002409 ], [ -36.368356256321533, -10.000431570982283 ], [ -36.367411047358885, -10.002339933607889 ], [ -36.367945028169245, -10.002692436091845 ], [ -36.368052342272698, -10.002520006416773 ], [ -36.36821829760963, -10.002671671354801 ], [ -36.367953457233781, -10.00315153134145 ], [ -36.367058885963324, -10.003601738081645 ], [ -36.367002120624107, -10.003779740505042 ], [ -36.367005245472335, -10.003867048564269 ], [ -36.366216408652022, -10.003616480254315 ], [ -36.36512390672609, -10.004633541548884 ], [ -36.363852368760654, -10.006389627682887 ], [ -36.361574661132757, -10.009803876796482 ], [ -36.361472127654736, -10.010653845310332 ], [ -36.361313294213822, -10.011042194722545 ], [ -36.36142355753239, -10.011582207096293 ], [ -36.361179997712874, -10.011778432677506 ], [ -36.360928048725967, -10.012476592023534 ], [ -36.360909833128432, -10.013763127543227 ], [ -36.360469225147469, -10.015535074807083 ], [ -36.359952935406966, -10.016354375202603 ], [ -36.359639680252883, -10.016978586021279 ], [ -36.359237583640692, -10.017834482287503 ], [ -36.35860235690901, -10.018525974772746 ], [ -36.358234827622866, -10.01905252956052 ], [ -36.357890836401921, -10.019947918143162 ], [ -36.357669769986892, -10.02031112843544 ], [ -36.357692862364445, -10.020530304890002 ], [ -36.357163295628084, -10.021141043186534 ], [ -36.356373363253219, -10.021731003198029 ], [ -36.356025600184203, -10.022224731675006 ], [ -36.355490599100534, -10.022965261947252 ], [ -36.355365476450103, -10.023218974341599 ], [ -36.355112405327915, -10.023389173332019 ], [ -36.354974142623739, -10.023633203163604 ], [ -36.354553391142758, -10.024122642735296 ], [ -36.354410778117177, -10.024475785630766 ], [ -36.354242865909342, -10.024475350487267 ], [ -36.354038328548334, -10.024775593799518 ], [ -36.353782930613512, -10.025423115018805 ], [ -36.353583791515639, -10.025727971800062 ], [ -36.355130271919123, -10.026759745896666 ], [ -36.357335312995879, -10.028151753738801 ], [ -36.357405264543971, -10.027985798243007 ], [ -36.357536425393349, -10.027628406156991 ], [ -36.358173624056967, -10.026280509828508 ], [ -36.358695893338009, -10.025435243039201 ], [ -36.359113116564849, -10.024987151506748 ], [ -36.359647498240918, -10.024547942572973 ], [ -36.359977680794366, -10.024131232763899 ], [ -36.36098610064699, -10.022192737782602 ], [ -36.361608046772432, -10.021318076666299 ], [ -36.36195988561348, -10.020341967109747 ], [ -36.362425464305055, -10.018313491739669 ], [ -36.363299802855749, -10.01632686831136 ], [ -36.363315935461848, -10.016250447558345 ], [ -36.363491144115649, -10.015665632671046 ], [ -36.363858695486144, -10.015254434519095 ], [ -36.366450514166921, -10.013785117282803 ], [ -36.366509228664533, -10.013730881645342 ], [ -36.366980074040839, -10.01269247338842 ], [ -36.367092391868113, -10.011480541487897 ], [ -36.367605541854097, -10.01060422945203 ], [ -36.36763282179065, -10.010540184791838 ], [ -36.368470592628171, -10.009215034949474 ], [ -36.368864555025539, -10.009023704185992 ], [ -36.369387007064176, -10.009035065812444 ], [ -36.369874635456966, -10.008915127654916 ], [ -36.369982787867663, -10.008887398573773 ] ] ] ] } },
{ "type": "Feature", "properties": { "cd_quilomb": null, "cd_sr": "SR-22", "nr_process": "54360.000053/2013-93", "nm_comunid": "CAJÁ DOS NEGROS", "nm_municip": "BATALHA", "cd_uf": "AL", "dt_publica": "29/08/2017", "dt_public1": null, "nr_familia": 55, "dt_titulac": null, "nr_area_ha": 547.3373, "nr_perimet": 12352.71, "cd_sipra": null, "ob_descric": null, "st_titulad": null, "dt_decreto": null, "tp_levanta": "GPS", "nr_escalao": null, "area_calc_": 561.8116, "perimetro_": 115323.8688, "esfera": "FEDERAL", "fase": "RTID", "responsave": "INCRA" }, "geometry": { "type": "MultiPolygon", "coordinates": [ [ [ [ -37.095654948888999, -9.737635046944002 ], [ -37.093985715278002, -9.737685574722001 ], [ -37.093553189444002, -9.73772628 ], [ -37.091765764443998, -9.737986044167 ], [ -37.088890073056, -9.738447987500001 ], [ -37.088726019444003, -9.738517218610999 ], [ -37.088646655, -9.738484320833001 ], [ -37.085670235833, -9.7389358175 ], [ -37.077664979166997, -9.738599376667 ], [ -37.075823981944005, -9.745059110555999 ], [ -37.074763208333003, -9.748756847499999 ], [ -37.074275935833001, -9.750443013056 ], [ -37.074110533610998, -9.750999747778 ], [ -37.073837916944001, -9.752437623889 ], [ -37.073570177500002, -9.753914217778 ], [ -37.077001394166999, -9.753394548889 ], [ -37.077008305, -9.753667320832999 ], [ -37.077035457222003, -9.753969948056 ], [ -37.077576122777998, -9.755463764167001 ], [ -37.078397464166997, -9.755320775833001 ], [ -37.079323264167002, -9.755157401944 ], [ -37.080510159444003, -9.754848597778 ], [ -37.081331902221997, -9.754587362222001 ], [ -37.082489589444002, -9.754286341110999 ], [ -37.083381548611001, -9.753984544444 ], [ -37.083877712221998, -9.753862403056001 ], [ -37.084343820832999, -9.753737108611 ], [ -37.084838063611002, -9.755179853889 ], [ -37.085236936111002, -9.756296626389 ], [ -37.087787844444001, -9.755846029443999 ], [ -37.087795527499999, -9.755889011944001 ], [ -37.088240676110999, -9.7575222225 ], [ -37.089041147777998, -9.757380357222001 ], [ -37.089766476111002, -9.757247650832999 ], [ -37.091328850833001, -9.756967310278 ], [ -37.092161346388998, -9.756850656944 ], [ -37.092630745832999, -9.756756286667001 ], [ -37.092926848611, -9.756704246667001 ], [ -37.094584743055997, -9.7564046275 ], [ -37.095122479722001, -9.756311901110999 ], [ -37.095078775833002, -9.755759766943999 ], [ -37.095069612777998, -9.755399654167 ], [ -37.095048406667004, -9.755154281389 ], [ -37.094959236389002, -9.754841542499999 ], [ -37.094914959721997, -9.754807304722 ], [ -37.094584606388999, -9.753830678889001 ], [ -37.094526119443998, -9.753570905 ], [ -37.094871283056001, -9.752790606667 ], [ -37.095363895833003, -9.752859893888999 ], [ -37.095316893610999, -9.752487275278 ], [ -37.095305045, -9.752455478610999 ], [ -37.095749009443999, -9.752345683055999 ], [ -37.096107972778, -9.752264068611 ], [ -37.097352197500001, -9.752111550833 ], [ -37.099753095833002, -9.751963038055999 ], [ -37.102016587778003, -9.751844117221999 ], [ -37.102478194166999, -9.751788921667 ], [ -37.102960575, -9.751718111389 ], [ -37.103386409443999, -9.751607209722 ], [ -37.103396981666997, -9.751639179722 ], [ -37.103558246388999, -9.752483238332999 ], [ -37.104247577777997, -9.752348760833 ], [ -37.105177277499998, -9.752187323056001 ], [ -37.105837034167003, -9.752142083611 ], [ -37.108998274721998, -9.751840342222 ], [ -37.110108478610996, -9.751666512222 ], [ -37.111762834167003, -9.751489184167001 ], [ -37.111872039444002, -9.751078647778 ], [ -37.111967593610999, -9.750470510555999 ], [ -37.112260122221997, -9.748898619444001 ], [ -37.109223935556003, -9.748990095832999 ], [ -37.108709636943999, -9.749049438888999 ], [ -37.108127659167003, -9.749087432500001 ], [ -37.104544891666997, -9.749243091111 ], [ -37.102191713888999, -9.749351408333 ], [ -37.102178324721997, -9.749060245833002 ], [ -37.102191400278002, -9.748875179443999 ], [ -37.102999133333, -9.744720277221999 ], [ -37.103457329721998, -9.742573020278002 ], [ -37.101067152222001, -9.742819263889 ], [ -37.101181082221999, -9.741703458056 ], [ -37.101561761667, -9.738003605 ], [ -37.101280222222002, -9.737964794167 ], [ -37.099585971944002, -9.737829528889 ], [ -37.098934943610999, -9.7378030325 ], [ -37.096382124721998, -9.737667036389 ], [ -37.095654948888999, -9.737635046944002 ] ] ] ] } },
{ "type": "Feature", "properties": { "cd_quilomb": 52, "cd_sr": "SR-22", "nr_process": "54360.000140/2007-01", "nm_comunid": "TABACARIA", "nm_municip": "PALMEIRA DOS ÍNDIOS", "cd_uf": "AL", "dt_publica": "02/10/2007", "dt_public1": "02/10/2008", "nr_familia": 89, "dt_titulac": "20/11/2016", "nr_area_ha": 410.9756, "nr_perimet": null, "cd_sipra": null, "ob_descric": "ÁREA CERTIFICADA", "st_titulad": null, "dt_decreto": "23/11/2009", "tp_levanta": null, "nr_escalao": null, "area_calc_": 399.9648, "perimetro_": 92045.2629, "esfera": null, "fase": "TITULO PARCIAL", "responsave": "INCRA" }, "geometry": { "type": "MultiPolygon", "coordinates": [ [ [ [ -36.515194948786529, -9.444878910151244 ], [ -36.514795878888357, -9.44543428913928 ], [ -36.514239128252513, -9.446401802944157 ], [ -36.51399164377613, -9.446924545472424 ], [ -36.513693797060164, -9.447337496107728 ], [ -36.513507405233, -9.447527214004083 ], [ -36.512926871254415, -9.447737185462255 ], [ -36.512662089453904, -9.447791248385025 ], [ -36.512378976880385, -9.447875815862648 ], [ -36.510939277016213, -9.448453006491773 ], [ -36.510917232997919, -9.448392304158189 ], [ -36.510890505892469, -9.448324700722679 ], [ -36.510831800820256, -9.448236266945658 ], [ -36.509090771995474, -9.447115120168624 ], [ -36.508258027090555, -9.446125116337734 ], [ -36.50715126996964, -9.447105159695376 ], [ -36.505991443906169, -9.447971772009346 ], [ -36.50591367295965, -9.448041344721684 ], [ -36.504717030021951, -9.44897691090827 ], [ -36.503308334650178, -9.44878698090943 ], [ -36.50299902735555, -9.448755413168531 ], [ -36.502724184266533, -9.448614384835464 ], [ -36.502234034176546, -9.448381006879167 ], [ -36.501729316686593, -9.448135867491047 ], [ -36.501522736246578, -9.448045025616397 ], [ -36.501081739728875, -9.447180242163276 ], [ -36.50076765366984, -9.44725626563072 ], [ -36.500531166528809, -9.447362300394945 ], [ -36.500602224980632, -9.447466275796023 ], [ -36.50047924835664, -9.447544562123332 ], [ -36.500754436785471, -9.447700504746702 ], [ -36.500240003492571, -9.448032647317545 ], [ -36.499860618103916, -9.448228031255166 ], [ -36.501158600472117, -9.450264101861352 ], [ -36.501488217927403, -9.450016311640619 ], [ -36.502169432945188, -9.451040765345402 ], [ -36.501427075458203, -9.451653322111769 ], [ -36.500873823891766, -9.452104472090793 ], [ -36.501203786281827, -9.452843128261083 ], [ -36.501332060915018, -9.453304640304378 ], [ -36.501341049248566, -9.453547248566849 ], [ -36.501102633167136, -9.454903040510628 ], [ -36.500971615207575, -9.455539916026481 ], [ -36.500815008721467, -9.456392766270282 ], [ -36.500767366288699, -9.456549755437381 ], [ -36.500424828331958, -9.457262116531588 ], [ -36.500308877769193, -9.457438138260374 ], [ -36.500037808775424, -9.457907830953305 ], [ -36.499939390685846, -9.45815139083872 ], [ -36.499497918300918, -9.459089955784826 ], [ -36.499450133532903, -9.459266462676824 ], [ -36.499409488039007, -9.459827710938347 ], [ -36.499458639001539, -9.460532378310807 ], [ -36.499214004544648, -9.461436469108286 ], [ -36.499159904814348, -9.461768722742022 ], [ -36.499196432716026, -9.462381216523093 ], [ -36.498854769816283, -9.462908057389088 ], [ -36.498805132777733, -9.463038463813353 ], [ -36.498762478292718, -9.463134671101161 ], [ -36.498752808806728, -9.463351572159098 ], [ -36.498691238685396, -9.464112380593242 ], [ -36.498722099712772, -9.464589555129322 ], [ -36.498629645510171, -9.465115280617406 ], [ -36.498714952109388, -9.46542647874937 ], [ -36.498839419239928, -9.465885434356503 ], [ -36.498864420616215, -9.466505707690455 ], [ -36.498896651832958, -9.466667693651244 ], [ -36.498964400117245, -9.466814299549295 ], [ -36.499104124985394, -9.467139531255242 ], [ -36.499134559853204, -9.467260478016494 ], [ -36.499001274577644, -9.468233859073001 ], [ -36.49897326091947, -9.468457497075624 ], [ -36.498937594661804, -9.468732408644716 ], [ -36.498906788992002, -9.46888906511712 ], [ -36.498848525457269, -9.469381146850585 ], [ -36.499386452590876, -9.469606111495931 ], [ -36.499565371693308, -9.469646968352423 ], [ -36.503555791967493, -9.469458620232203 ], [ -36.504429503065758, -9.468472071050876 ], [ -36.506653301918142, -9.467621184017355 ], [ -36.507212964285294, -9.467029192888248 ], [ -36.50793213078304, -9.466254527306448 ], [ -36.508004897350752, -9.466109643759157 ], [ -36.507892817479295, -9.465622401111098 ], [ -36.507819077599493, -9.465308935794114 ], [ -36.507790921808315, -9.465022904561192 ], [ -36.507828943456957, -9.464773671177944 ], [ -36.508006215866146, -9.46418429136051 ], [ -36.507998098561472, -9.464060340364821 ], [ -36.507879951491965, -9.463897111197889 ], [ -36.507768839052396, -9.463313544220588 ], [ -36.507791743932685, -9.463242136213045 ], [ -36.507953668628573, -9.46314035851529 ], [ -36.508024512179979, -9.462971694560864 ], [ -36.508022262010023, -9.462728229536626 ], [ -36.507926827065468, -9.462532991136216 ], [ -36.50844048930886, -9.462323373429404 ], [ -36.508830578269261, -9.462021425711235 ], [ -36.508946941233191, -9.4620153841073 ], [ -36.509466465931254, -9.461838338370523 ], [ -36.50968928958973, -9.461937426442327 ], [ -36.509949564294871, -9.461929423935397 ], [ -36.510257992494459, -9.461882724321754 ], [ -36.510416809655631, -9.461833155374304 ], [ -36.510836819224536, -9.461458400377035 ], [ -36.511708893390718, -9.46040249899673 ], [ -36.511977463522044, -9.460240748203026 ], [ -36.512408122236081, -9.460055295283279 ], [ -36.512534488039073, -9.459961847545369 ], [ -36.513117636029122, -9.459948449816215 ], [ -36.513378977009822, -9.460019884942156 ], [ -36.513717489395617, -9.460029513155437 ], [ -36.514119169681727, -9.4595575681354 ], [ -36.514447191429525, -9.459494465697187 ], [ -36.514691602752038, -9.459388659457684 ], [ -36.515274916458381, -9.459035386443833 ], [ -36.515467441480972, -9.458981173511186 ], [ -36.515626784142448, -9.458972270830632 ], [ -36.515987385469664, -9.459087150580082 ], [ -36.516167748192863, -9.459040893871435 ], [ -36.516236919253679, -9.459003067572434 ], [ -36.516697066701383, -9.458589096448424 ], [ -36.517244562045548, -9.457912501136461 ], [ -36.517522737695863, -9.457667313072205 ], [ -36.517724270532248, -9.457372332193001 ], [ -36.518176130852282, -9.456603153990608 ], [ -36.518431240282638, -9.456375875238473 ], [ -36.518660107538544, -9.455759196385033 ], [ -36.518988772574517, -9.455275792146409 ], [ -36.519903641383934, -9.454376950725509 ], [ -36.520762182313071, -9.455864597711294 ], [ -36.521456163415685, -9.455726988062144 ], [ -36.521542112744832, -9.45567192820139 ], [ -36.521699086769239, -9.455561522293957 ], [ -36.521988426151914, -9.455294629503875 ], [ -36.522026755078151, -9.455204080148784 ], [ -36.522032416581702, -9.454896416826031 ], [ -36.521956194175104, -9.453554816639125 ], [ -36.521361690195249, -9.450312010438292 ], [ -36.520775692043202, -9.447775943471347 ], [ -36.520735390882827, -9.446667204929641 ], [ -36.519136355455096, -9.446530216371286 ], [ -36.51882411708965, -9.446475417500663 ], [ -36.518102509765306, -9.446203464839996 ], [ -36.516633094610597, -9.445645905938425 ], [ -36.515923094196687, -9.445190133364038 ], [ -36.515194948786529, -9.444878910151244 ] ] ] ] } }
]
}
