{
"type": "FeatureCollection",
"name": "Dunas_do_Cavalo_Russo",
"crs": { "type": "name", "properties": { "name": "urn:ogc:def:crs:OGC:1.3:CRS84" } },
"features": [
{ "type": "Feature", "properties": { "id": 1, "Area": 137.96, "DUNAS_CR": "Dunas do Cavalo Russo" }, "geometry": { "type": "MultiPolygon", "coordinates": [ [ [ [ -35.873253455492005, -9.781806955822065 ], [ -35.873387880020324, -9.78305038270908 ], [ -35.873287061624083, -9.783268822567603 ], [ -35.872766166576824, -9.783756111482786 ], [ -35.872682151246622, -9.784008157473401 ], [ -35.872665348180576, -9.784176188133815 ], [ -35.872866984973065, -9.784797901577315 ], [ -35.873421486152409, -9.785453221152896 ], [ -35.873505501482612, -9.785822888605795 ], [ -35.873421486152409, -9.786175752992648 ], [ -35.873287061624083, -9.786394192851173 ], [ -35.872833378840987, -9.786495011247423 ], [ -35.872497317520171, -9.786242965256818 ], [ -35.871757982614383, -9.785100356766055 ], [ -35.871203481435039, -9.784108975869636 ], [ -35.870817010916106, -9.783924142143194 ], [ -35.870464146529251, -9.783890536011109 ], [ -35.870212100538637, -9.783991354407366 ], [ -35.869892842283868, -9.784125778935685 ], [ -35.869657599359293, -9.784243400397969 ], [ -35.869455962566811, -9.784277006530045 ], [ -35.869119901245995, -9.784277006530052 ], [ -35.868548597000611, -9.784226597331934 ], [ -35.868229338745834, -9.784226597331932 ], [ -35.867960489689189, -9.784327415728166 ], [ -35.867826065160862, -9.784562658652739 ], [ -35.867842868226901, -9.784949129171675 ], [ -35.868078111151469, -9.785386008888745 ], [ -35.868111717283554, -9.785680062544442 ], [ -35.867994095821267, -9.786217760657753 ], [ -35.867490003840047, -9.787057913959787 ], [ -35.867204351717355, -9.78781405193161 ], [ -35.867019517990904, -9.788309742379816 ], [ -35.8668514873305, -9.789998450516912 ], [ -35.866885093462585, -9.791250278936928 ], [ -35.866801078132376, -9.791586340257753 ], [ -35.866817881198422, -9.791737567852113 ], [ -35.866834684264461, -9.792006416908761 ], [ -35.866985911858826, -9.792258462899371 ], [ -35.867300969347092, -9.792577721154146 ], [ -35.8676370306679, -9.793300252993909 ], [ -35.868057107318918, -9.794190815494062 ], [ -35.868611608498263, -9.795131787192336 ], [ -35.868930866753033, -9.795661083772615 ], [ -35.869216518875724, -9.796467630942573 ], [ -35.869720610856945, -9.797475814905004 ], [ -35.869989459913597, -9.798315968207039 ], [ -35.870174293640048, -9.798870469386385 ], [ -35.870678385621268, -9.799450175164795 ], [ -35.870997643876038, -9.799920661013926 ], [ -35.871283295998737, -9.800122297806423 ], [ -35.871636160385584, -9.800206313136611 ], [ -35.871989024772439, -9.800122297806427 ], [ -35.87217385849889, -9.799853448749772 ], [ -35.87217385849889, -9.79963500889124 ], [ -35.871938615574315, -9.798996492381686 ], [ -35.871048053074162, -9.797769868560728 ], [ -35.870779204017509, -9.797332988843669 ], [ -35.870745597885431, -9.797080942853054 ], [ -35.870728794819385, -9.796711275400169 ], [ -35.870947234677914, -9.79617357728686 ], [ -35.871316902130815, -9.7959047282302 ], [ -35.87166976651767, -9.795904728230202 ], [ -35.871955418640361, -9.796072758890615 ], [ -35.872879587272593, -9.797148155117224 ], [ -35.873366876187774, -9.79728257964555 ], [ -35.873736543640668, -9.797332988843658 ], [ -35.874240635621888, -9.797332988843669 ], [ -35.874643909206867, -9.797148155117219 ], [ -35.874963167461637, -9.796879306060571 ], [ -35.875080788923924, -9.796173577286851 ], [ -35.874979970527676, -9.795501454645221 ], [ -35.874643909206867, -9.79434204308842 ], [ -35.874358257084175, -9.793165828465572 ], [ -35.873988589631281, -9.792594524220183 ], [ -35.873434088451937, -9.792090432238959 ], [ -35.873182042461323, -9.791603143323794 ], [ -35.87299720873488, -9.790729383889678 ], [ -35.872913193404671, -9.790225291908449 ], [ -35.873014011800919, -9.790057261248045 ], [ -35.87311483019716, -9.790040458182006 ], [ -35.873282860857572, -9.790040458182006 ], [ -35.873534906848178, -9.790359716436782 ], [ -35.874106211093562, -9.791199869738811 ], [ -35.874643909206867, -9.791888795446487 ], [ -35.875080788923924, -9.792056826106883 ], [ -35.87534963798057, -9.79205682610689 ], [ -35.875652093169307, -9.791838386248356 ], [ -35.875887336093875, -9.791519127993578 ], [ -35.876004957556162, -9.790998232946331 ], [ -35.875988154490116, -9.790678974691552 ], [ -35.87603856368824, -9.79042692870094 ], [ -35.876156185150535, -9.790326110304704 ], [ -35.876576261801546, -9.789973245917846 ], [ -35.876861913924238, -9.789738002993275 ], [ -35.876962732320479, -9.789536366200785 ], [ -35.877029944584642, -9.789267517144127 ], [ -35.877029944584642, -9.788729819030829 ], [ -35.876761095527989, -9.78817531785149 ], [ -35.876122579018443, -9.787200740021127 ], [ -35.875853729961797, -9.786763860304076 ], [ -35.875853729961797, -9.786612632709716 ], [ -35.875904139159914, -9.786394192851182 ], [ -35.876004957556162, -9.786192556058689 ], [ -35.87624020048073, -9.785957313134119 ], [ -35.876441837273219, -9.785671661011435 ], [ -35.876509049537383, -9.785184372096246 ], [ -35.876408231141134, -9.784327415728177 ], [ -35.87603856368824, -9.783210011836459 ], [ -35.875803320763673, -9.782420267732547 ], [ -35.875824324596216, -9.782025395680602 ], [ -35.875824324596216, -9.781504500633348 ], [ -35.875740309266014, -9.780916393321908 ], [ -35.875572278605603, -9.780445907472769 ], [ -35.875101792756467, -9.780009027755723 ], [ -35.874799337567737, -9.779639360302825 ], [ -35.874211230256307, -9.77943772351033 ], [ -35.873757547473211, -9.779454526576369 ], [ -35.873404683086356, -9.77952173884054 ], [ -35.873219849359913, -9.77970657256698 ], [ -35.87306862176554, -9.779908209359473 ], [ -35.87295100030326, -9.780311482944446 ], [ -35.87295100030326, -9.780748362661503 ], [ -35.873135834029704, -9.781605319029588 ], [ -35.873253455492005, -9.781806955822065 ] ] ] ] } }
]
}
