{
"type": "FeatureCollection",
"name": "Termos_de_Autorizacao_de_Uso_Sustentavel",
"crs": { "type": "name", "properties": { "name": "urn:ogc:def:crs:OGC:1.3:CRS84" } },
"features": [
{"type":"Feature","properties":{"id":1,"PORTARIA":"N. 4.080 DE 23 DE ABRIL DE 2018","area_m2":3921.5,"area_ha":0.39,"N_PROCESSO":"2021.29070588276.OF.IMA","OBS":"-"},"geometry":{"type":"MultiPolygon","coordinates":[[[[-35.300794755926098,-9.183111238968454],[-35.300749279617101,-9.183111528717017],[-35.300555538427901,-9.182687975430445],[-35.300417010608498,-9.182363488616883],[-35.300135291177298,-9.182401435190648],[-35.300624336919697,-9.183482884146486],[-35.300905823732798,-9.183408786353455],[-35.300794755926098,-9.183111238968454]]]]}},
{"type":"Feature","properties":{"id":2,"PORTARIA":"N. 241 DE 18 DE DEZEMBRO DE 2017","area_m2":1812.0,"area_ha":0.18,"N_PROCESSO":"2021.29070588276.OF.IMA","OBS":"-"},"geometry":{"type":"MultiPolygon","coordinates":[[[[-35.324711103008298,-9.21020727878525],[-35.324869100744202,-9.210721417583207],[-35.325132406318097,-9.210647414360617],[-35.324974349180998,-9.210124238269334],[-35.324711103008298,-9.21020727878525]]]]}},
{"type":"Feature","properties":{"id":3,"PORTARIA":"N. 242 DE 18 DE DEZEMBRO DE 2017","area_m2":1482.0,"area_ha":0.15,"N_PROCESSO":"2021.29070588276.OF.IMA","OBS":"-"},"geometry":{"type":"MultiPolygon","coordinates":[[[[-35.330194757913503,-9.221098582969969],[-35.329968305759998,-9.221244655456255],[-35.330216390280398,-9.22162263741504],[-35.330442842495003,-9.221476564740776],[-35.330194757913503,-9.221098582969969]]]]}},
{"type":"Feature","properties":{"id":4,"PORTARIA":"N. 243 DE 18 DE DEZEMBRO DE 2017","area_m2":1201.0,"area_ha":0.12,"N_PROCESSO":"2021.29070588276.OF.IMA","OBS":"-"},"geometry":{"type":"MultiPolygon","coordinates":[[[[-35.321117227597497,-9.200315886746569],[-35.320863199967697,-9.200416939396236],[-35.3210018145489,-9.200750449265502],[-35.321255842329499,-9.200649396470688],[-35.321117227597497,-9.200315886746569]]]]}},
{"type":"Feature","properties":{"id":5,"PORTARIA":"N. 244 DE 18 DE DEZEMBRO DE 2019","area_m2":862.0,"area_ha":0.09,"N_PROCESSO":"2021.29070588276.OF.IMA","OBS":"-"},"geometry":{"type":"MultiPolygon","coordinates":[[[[-35.295669564761198,-9.15838858591947],[-35.295360114024298,-9.158354395632127],[-35.295334280587099,-9.158580511323061],[-35.295643731528401,-9.158614701584698],[-35.295669564761198,-9.15838858591947]]]]}},
{"type":"Feature","properties":{"id":6,"PORTARIA":"N. 245 DE 18 DE DEZEMBRO DE 2017","area_m2":685.0,"area_ha":0.07,"N_PROCESSO":"2021.29070588276.OF.IMA","OBS":"-"},"geometry":{"type":"MultiPolygon","coordinates":[[[[-35.312943548597502,-9.195271022448997],[-35.312935568531302,-9.195442794759337],[-35.3132540870753,-9.195467865676042],[-35.3132620082689,-9.195287055820836],[-35.312943548597502,-9.195271022448997]]]]}},
{"type":"Feature","properties":{"id":7,"PORTARIA":"-","area_m2":1476.0,"area_ha":0.15,"N_PROCESSO":"2024.22035007978.OF.IMA","OBS":"-"},"geometry":{"type":"MultiPolygon","coordinates":[[[[-35.330556563265318,-9.222171741187468],[-35.330792230311019,-9.222043684198063],[-35.330589447161628,-9.221638295796621],[-35.330353839563607,-9.221775390059653],[-35.330556563265318,-9.222171741187468]]]]}},
{"type":"Feature","properties":{"id":8,"PORTARIA":"N. 9.8181 DE OUTUBRO DE 2025","area_m2":1002.42,"area_ha":0.1,"N_PROCESSO":"2025.23123830553.OF.IMA","OBS":"-"},"geometry":{"type":"MultiPolygon","coordinates":[[[[-35.295670201649095,-9.158660602146227],[-35.295631602193133,-9.158967951634414],[-35.295938417374373,-9.159080265292454],[-35.295968017884825,-9.15884457251329],[-35.295751383089694,-9.158765272474062],[-35.295760381797926,-9.158693615790728],[-35.295670201649095,-9.158660602146227]]]]}},
{"type":"Feature","properties":{"id":9,"PORTARIA":"N. 8.495 DE 02 DE OUTUBRO DE 2025","area_m2":523.44,"area_ha":0.05,"N_PROCESSO":"2025.23125679494.OF.IMA","OBS":"-"},"geometry":{"type":"MultiPolygon","coordinates":[[[[-35.321555732052055,-9.200644619445384],[-35.321190694908715,-9.200695106287043],[-35.321243033612546,-9.200838815299203],[-35.321585138438827,-9.200725355391619],[-35.321555732052055,-9.200644619445384]]]]}},
{"type":"Feature","properties":{"id":10,"PORTARIA":"N. 9.194 DE 16 DE OUTUBRO DE 2025","area_m2":1587.93,"area_ha":0.16,"N_PROCESSO":"2025.23120756053.OF.IMA","OBS":"-"},"geometry":{"type":"MultiPolygon","coordinates":[[[[-35.313337843491901,-9.195424733900486],[-35.31313377877504,-9.195800150812593],[-35.313590767573103,-9.195848130064418],[-35.313666264436996,-9.195659321946575],[-35.313337843491901,-9.195424733900486]]]]}},
{"type":"Feature","properties":{"id":11,"PORTARIA":"N. 4.676 DE 12 DE JUNHO DE 2025","area_m2":1690.13,"area_ha":0.17,"N_PROCESSO":"2026.15010005860.OF.IMA","OBS":"SOBREPOSIÇÃO"},"geometry":{"type":"MultiPolygon","coordinates":[[[[-35.324979672351603,-9.2100828298531],[-35.324707646927898,-9.210094708579851],[-35.324979672351603,-9.2100828298531],[-35.324707646927898,-9.210094708579851],[-35.324875362086701,-9.21059814707259],[-35.325147387854599,-9.210586268125491],[-35.324979672351603,-9.2100828298531]]]]}},
{"type":"Feature","properties":{"id":12,"PORTARIA":"N. 5.667 DE 11 DE JULHO DE 2025","area_m2":1487.82,"area_ha":0.15,"N_PROCESSO":"2026.15014195263.OF.IMA","OBS":"SOBREPOSIÇÃO"},"geometry":{"type":"MultiPolygon","coordinates":[[[[-35.330790576852152,-9.222041256044545],[-35.330586414466921,-9.221633617120148],[-35.330351159441307,-9.221768991907188],[-35.330550809457243,-9.222168255064565],[-35.330790576852152,-9.222041256044545]]]]}},
{"type":"Feature","properties":{"id":13,"PORTARIA":"N. 4.080 DE 23 DE ABRIL DE 2018","area_m2":4625.35,"area_ha":0.46,"N_PROCESSO":"2026.21013554569.OF.IMA","OBS":"SOBREPOSIÇÃO"},"geometry":{"type":"MultiPolygon","coordinates":[[[[-35.301214838356103,-9.183795401605691],[-35.300810197172503,-9.18274215544092],[-35.3004375827202,-9.18278971951967],[-35.300926630904499,-9.183871169482281],[-35.301214838356103,-9.183795401605691]]]]}}
]
}
