{
"type": "FeatureCollection",
"name": "ZA_Esec_Curral_do_Meio",
"crs": { "type": "name", "properties": { "name": "urn:ogc:def:crs:OGC:1.3:CRS84" } },
"features": [
{ "type": "Feature", "properties": { "Name": "Zona de Amortecimento -  ESEC Curral do Meio", "area_ha": 192.552 }, "geometry": { "type": "MultiPolygon", "coordinates": [ [ [ [ -37.232436628440396, -9.396852397996593, 0.0 ], [ -37.232418061309673, -9.39685168032184, 0.0 ], [ -37.229519919902643, -9.395465721011039, 0.0 ], [ -37.227275001049001, -9.394313453524541, 0.0 ], [ -37.224395487193078, -9.392706298524001, 0.0 ], [ -37.221985834663798, -9.391602437958792, 0.0 ], [ -37.223825485782918, -9.394866275290839, 0.0 ], [ -37.224644499675222, -9.396856095938055, 0.0 ], [ -37.225178222496972, -9.398327584238933, 0.0 ], [ -37.225615251690812, -9.399969076844537, 0.0 ], [ -37.233751853963362, -9.405747738181635, 0.0 ], [ -37.238426861468653, -9.408163640533649, 0.0 ], [ -37.241201906895647, -9.409696013894141, 0.0 ], [ -37.245591873082368, -9.404996857042144, 0.0 ], [ -37.244436097004332, -9.403736266623628, 0.0 ], [ -37.243578154563927, -9.404139548624014, 0.0 ], [ -37.243260437921158, -9.403683603210309, 0.0 ], [ -37.243996670042009, -9.403195546821955, 0.0 ], [ -37.245240645364262, -9.402660173420527, 0.0 ], [ -37.243662510718202, -9.400180883467655, 0.0 ], [ -37.242222176912861, -9.398530389770535, 0.0 ], [ -37.241603931251177, -9.39843119394015, 0.0 ], [ -37.240163920773298, -9.397024857650679, 0.0 ], [ -37.238956107739639, -9.39646905028131, 0.0 ], [ -37.238347972522092, -9.396107810270994, 0.0 ], [ -37.238143164288623, -9.395659753564827, 0.0 ], [ -37.237400788903173, -9.395031552344438, 0.0 ], [ -37.236245429837659, -9.393979782471925, 0.0 ], [ -37.235597124060313, -9.393178043563346, 0.0 ], [ -37.233522383145797, -9.395518633415408, 0.0 ], [ -37.232436628440396, -9.396852397996593, 0.0 ] ], [ [ -37.232908013472525, -9.401329846369247, 0.0 ], [ -37.233504279178071, -9.400807554631353, 0.0 ], [ -37.23399236333843, -9.400355433042295, 0.0 ], [ -37.235170922816216, -9.399308638857343, 0.0 ], [ -37.235963862446795, -9.398600885593893, 0.0 ], [ -37.236203223164409, -9.398819236685169, 0.0 ], [ -37.236115552836381, -9.398925847363396, 0.0 ], [ -37.236765773057471, -9.399279277840623, 0.0 ], [ -37.23704802284557, -9.398817217516513, 0.0 ], [ -37.237849795792123, -9.399125922666354, 0.0 ], [ -37.23918724528825, -9.399638277403264, 0.0 ], [ -37.240367410620053, -9.400084462341971, 0.0 ], [ -37.242103415460441, -9.400569760524817, 0.0 ], [ -37.243410493157832, -9.401766159057459, 0.0 ], [ -37.243119598442135, -9.40199499814822, 0.0 ], [ -37.242750565839778, -9.401655405809327, 0.0 ], [ -37.242162573795895, -9.401656225197677, 0.0 ], [ -37.24179802144797, -9.401554675523865, 0.0 ], [ -37.239963964842218, -9.402749617958758, 0.0 ], [ -37.239863912044271, -9.40298250590272, 0.0 ], [ -37.238922765218284, -9.403168284259573, 0.0 ], [ -37.238565840765979, -9.403215830254551, 0.0 ], [ -37.237822896075798, -9.403529592595277, 0.0 ], [ -37.237403936645762, -9.40368285707927, 0.0 ], [ -37.237077276737033, -9.403982358542422, 0.0 ], [ -37.236762840804921, -9.404121640321172, 0.0 ], [ -37.236561643156392, -9.404159684407857, 0.0 ], [ -37.235787514349873, -9.404342985644435, 0.0 ], [ -37.235197301677253, -9.404192944643583, 0.0 ], [ -37.234190100434162, -9.404054213742079, 0.0 ], [ -37.233838881340098, -9.404013645554869, 0.0 ], [ -37.233688901685852, -9.404029762934083, 0.0 ], [ -37.233662556111781, -9.403965253421264, 0.0 ], [ -37.233651526047616, -9.403896375085585, 0.0 ], [ -37.233661245286918, -9.40383164563432, 0.0 ], [ -37.233680217045638, -9.403761528156968, 0.0 ], [ -37.233669479264051, -9.4036897765621, 0.0 ], [ -37.233602693612589, -9.403496643165543, 0.0 ], [ -37.233566628056742, -9.403447367630836, 0.0 ], [ -37.233429983840622, -9.402990904928496, 0.0 ], [ -37.233324987465643, -9.402712933400855, 0.0 ], [ -37.233248339783266, -9.402493363949946, 0.0 ], [ -37.233220452304366, -9.40238535482777, 0.0 ], [ -37.233208001695424, -9.40227204276661, 0.0 ], [ -37.233094672485031, -9.402043198367608, 0.0 ], [ -37.233034024997508, -9.401813112361186, 0.0 ], [ -37.23297792041425, -9.401677977914687, 0.0 ], [ -37.23291875781225, -9.40152993763164, 0.0 ], [ -37.232843136442924, -9.40153503600726, 0.0 ], [ -37.232854639141316, -9.401416378666418, 0.0 ], [ -37.232908013472525, -9.401329846369247, 0.0 ] ] ] ] } }
]
}
