{
"type": "FeatureCollection",
"name": "ZA_Esec_de_Murici",
"crs": { "type": "name", "properties": { "name": "urn:ogc:def:crs:OGC:1.3:CRS84" } },
"features": [
{ "type": "Feature", "properties": { "id": 1, "Nome": "Zona de Amortecimento" }, "geometry": { "type": "MultiPolygon", "coordinates": [ [ [ [ -35.907395307901027, -9.273005901149554 ], [ -35.907759023280043, -9.273101272500995 ], [ -35.908123548970742, -9.27329496534413 ], [ -35.908487264639376, -9.273390335800553 ], [ -35.908850980397936, -9.273485705825662 ], [ -35.909181704851541, -9.273581343822224 ], [ -35.9095448803564, -9.273611165156961 ], [ -35.909973768309044, -9.273607675237923 ], [ -35.910270420355765, -9.273572484928915 ], [ -35.910797741366196, -9.273502640727717 ], [ -35.911127384360668, -9.273467181210352 ], [ -35.911621983754621, -9.273430378337409 ], [ -35.911918635067494, -9.273395186754717 ], [ -35.912511396323943, -9.273259255212549 ], [ -35.913038174357425, -9.273123860318849 ], [ -35.913531960549278, -9.272988733557961 ], [ -35.91386051963638, -9.272822176518867 ], [ -35.91432131361249, -9.272687317695999 ], [ -35.914815639551136, -9.272617737055468 ], [ -35.915572811029605, -9.272414909171028 ], [ -35.917682884588295, -9.27223382123889 ], [ -35.918308629817226, -9.27209761220278 ], [ -35.919065795954495, -9.271894777866644 ], [ -35.919493593824299, -9.271760182605195 ], [ -35.920119336580626, -9.271623970866335 ], [ -35.921996831295864, -9.271248103528906 ], [ -35.923445982608264, -9.270941280156183 ], [ -35.923840242504347, -9.270741403149898 ], [ -35.924267764011098, -9.270574029647157 ], [ -35.924695013450282, -9.270373882262799 ], [ -35.92522069095908, -9.270107378226857 ], [ -35.925615220049622, -9.269940273317907 ], [ -35.926108448639582, -9.269739585092299 ], [ -35.926634395313016, -9.269505853026704 ], [ -35.926929679538766, -9.269306783294063 ], [ -35.927324206451637, -9.26913967701673 ], [ -35.927685198939848, -9.268907293576779 ], [ -35.928473706622363, -9.268507532750164 ], [ -35.92906535781362, -9.268240484713699 ], [ -35.929623745687017, -9.267940932742789 ], [ -35.930050987357994, -9.267740780847864 ], [ -35.930905468871472, -9.267340475968513 ], [ -35.931267000473269, -9.267173636798152 ], [ -35.931759947946979, -9.26694016963673 ], [ -35.932187458683394, -9.266772789205769 ], [ -35.932746112598814, -9.26650600713397 ], [ -35.933074924185298, -9.26637221027754 ], [ -35.933567868726193, -9.266138741328575 ], [ -35.934290652902909, -9.265772285639311 ], [ -35.935078597954728, -9.265306968257729 ], [ -35.935373055379877, -9.265009574497647 ], [ -35.935766481657758, -9.264711368872282 ], [ -35.93609365532437, -9.264380931086356 ], [ -35.936354848979633, -9.264051034451985 ], [ -35.93655060771016, -9.263787225368638 ], [ -35.936975113987252, -9.263259336479186 ], [ -35.937530214838013, -9.262566499041673 ], [ -35.939034374744068, -9.260948162613454 ], [ -35.939295563439906, -9.26061826541442 ], [ -35.939622730193086, -9.260287826532418 ], [ -35.940210810880842, -9.259594717089149 ], [ -35.940667205681628, -9.258935463951914 ], [ -35.940928118898491, -9.258572793426975 ], [ -35.941287998670958, -9.25820931013971 ], [ -35.941713582906047, -9.257812511817827 ], [ -35.942171336803661, -9.257317123301656 ], [ -35.942529850150279, -9.256789774575861 ], [ -35.943668087987668, -9.254813910528544 ], [ -35.943896007135841, -9.254451510692709 ], [ -35.944124198727678, -9.254121883800542 ], [ -35.944417275532238, -9.253660622978479 ], [ -35.945328398793464, -9.252145477654125 ], [ -35.945621745793467, -9.251716989710358 ], [ -35.947246587054217, -9.248753871887091 ], [ -35.947204561852381, -9.243706849550303 ], [ -35.947205091347335, -9.239806605721562 ], [ -35.947108036997385, -9.236071038058491 ], [ -35.947079149715748, -9.232597110886015 ], [ -35.947076425085811, -9.23226938186826 ], [ -35.947072883217743, -9.23184333413508 ], [ -35.946969292803495, -9.231287006755936 ], [ -35.946867609752474, -9.230960089606832 ], [ -35.946732668319015, -9.230600670066689 ], [ -35.946530665381751, -9.23011069987276 ], [ -35.946361921692827, -9.229653231756885 ], [ -35.946260784684853, -9.229391859951734 ], [ -35.946126389444302, -9.229097985649767 ], [ -35.945892219356459, -9.22870660386195 ], [ -35.94575755259816, -9.228379956287432 ], [ -35.945589900093324, -9.228053579016743 ], [ -35.945421975799512, -9.227694428606791 ], [ -35.945220793780059, -9.227302775422062 ], [ -35.944649420779221, -9.226029225066434 ], [ -35.944448785039739, -9.225703116839563 ], [ -35.944248149729169, -9.225377008380175 ], [ -35.944147832234719, -9.225213954063296 ], [ -35.943781180685612, -9.224758104129277 ], [ -35.942121018047573, -9.223460686516168 ], [ -35.941887944075546, -9.223200391755375 ], [ -35.941522384253872, -9.222875630247032 ], [ -35.941290126026502, -9.222713654105753 ], [ -35.940990810177048, -9.222421125061134 ], [ -35.94072393735631, -9.222062779575582 ], [ -35.940391093849449, -9.221704973272454 ], [ -35.939991465371499, -9.221249386511257 ], [ -35.939856808362798, -9.220922734025407 ], [ -35.939754594375621, -9.2205302654438 ], [ -35.939653194974007, -9.220236116186499 ], [ -35.939616138428285, -9.219744788672029 ], [ -35.939613424540909, -9.219417057212066 ], [ -35.939610710754174, -9.21908932574533 ], [ -35.939607725705009, -9.218728821124129 ], [ -35.939670982840646, -9.218400550423626 ], [ -35.939733425892335, -9.217973960307395 ], [ -35.939894553409431, -9.217513788264771 ], [ -35.940147309894357, -9.216167932769954 ], [ -35.940374135561648, -9.215674448601931 ], [ -35.940501463004942, -9.215116227020697 ], [ -35.940629875645861, -9.214689098004296 ], [ -35.940725031855479, -9.214229465497798 ], [ -35.940722861240971, -9.21396728051262 ], [ -35.940749605924722, -9.213213229096468 ], [ -35.940775808437486, -9.212393631437198 ], [ -35.940773095682566, -9.212065900186799 ], [ -35.940769840509546, -9.211672622677419 ], [ -35.940767127976116, -9.21134489141221 ], [ -35.940830384815094, -9.211016621136277 ], [ -35.940827943657112, -9.210721663003284 ], [ -35.940956898419202, -9.210360080645041 ], [ -35.940987170645968, -9.210032079922067 ], [ -35.94104581673502, -9.209146666648774 ], [ -35.941175313605513, -9.208850630671636 ], [ -35.941437561568542, -9.208651836114857 ], [ -35.941766862975641, -9.208583594839688 ], [ -35.942031009276704, -9.20861421167635 ], [ -35.942460077406729, -9.208643480415409 ], [ -35.942757208013461, -9.208673827097961 ], [ -35.943154105823801, -9.208801683763649 ], [ -35.94355127522909, -9.208962312949755 ], [ -35.944047669457255, -9.209154905397046 ], [ -35.944478095299573, -9.209348036575703 ], [ -35.944875808676926, -9.209574209933239 ], [ -35.945307050099565, -9.209865658802208 ], [ -35.945771819900891, -9.210222382958968 ], [ -35.946104652819244, -9.210580186141481 ], [ -35.946470199124519, -9.210904945823314 ], [ -35.946868730550733, -9.21122943485644 ], [ -35.947267262660148, -9.211553923214582 ], [ -35.9475992826425, -9.211813405356136 ], [ -35.94789886240865, -9.212138703048758 ], [ -35.94819871470699, -9.212496773219463 ], [ -35.948298756275733, -9.212627054144509 ], [ -35.94859806540456, -9.212919577933613 ], [ -35.948929815510823, -9.213146285242303 ], [ -35.949195052613838, -9.21330798704717 ], [ -35.949526531248246, -9.213501920703839 ], [ -35.950187584087686, -9.213660376850147 ], [ -35.950551503524977, -9.213788493173574 ], [ -35.950848909407114, -9.213851604417579 ], [ -35.951443448954649, -9.213945053261115 ], [ -35.952037716143913, -9.214005728233996 ], [ -35.952730392057617, -9.214000044588287 ], [ -35.95289531482851, -9.213998691143447 ], [ -35.953851866401273, -9.213990839677853 ], [ -35.954412603134756, -9.2139862359164 ], [ -35.955303184404777, -9.213978922270124 ], [ -35.956559048914521, -9.214263579151369 ], [ -35.956857273180376, -9.214425002892794 ], [ -35.957155224806719, -9.21455365366521 ], [ -35.957453176585609, -9.214682304121887 ], [ -35.957784385919787, -9.214843455712192 ], [ -35.958248079369547, -9.215069067264778 ], [ -35.958711500244291, -9.215261905443747 ], [ -35.958909953273789, -9.21532582295619 ], [ -35.959308224870249, -9.215617520430396 ], [ -35.959672966277829, -9.215843943512327 ], [ -35.960103950311129, -9.216102595791433 ], [ -35.960633888491138, -9.21636043294364 ], [ -35.96103079596422, -9.216488265101431 ], [ -35.961527477177526, -9.216713599556449 ], [ -35.961991447671203, -9.216971977227566 ], [ -35.962454871863244, -9.217164809138588 ], [ -35.962852327274042, -9.217358183710644 ], [ -35.963183813867388, -9.217552101196066 ], [ -35.963416347010991, -9.217746833582222 ], [ -35.963846787951418, -9.217939934901652 ], [ -35.964244244635154, -9.218133307414217 ], [ -35.964608169733481, -9.21826140643342 ], [ -35.96497236868445, -9.218422277395575 ], [ -35.96533684160341, -9.218615920267247 ], [ -35.965701041065387, -9.218776790269068 ], [ -35.966132031442768, -9.219035432774945 ], [ -35.966628169998906, -9.219195213316853 ], [ -35.967058339560062, -9.219355537338028 ], [ -35.967389555485411, -9.2195166772901 ], [ -35.967720771637985, -9.219677816840601 ], [ -35.968348849732479, -9.219836505566995 ], [ -35.968811456731153, -9.219931010147501 ], [ -35.96920836868474, -9.2200588310598 ], [ -35.969506052755712, -9.220154696396373 ], [ -35.970001644649727, -9.220248926811495 ], [ -35.970497785120074, -9.220408700912675 ], [ -35.971059072125087, -9.220469612457437 ], [ -35.971455436051393, -9.220531886040343 ], [ -35.971852623164423, -9.220692475699122 ], [ -35.972116499968166, -9.220690294571209 ], [ -35.972281148502475, -9.220656159095274 ], [ -35.972477683763231, -9.220490662201716 ], [ -35.972673944370548, -9.220292393095137 ], [ -35.972869930288113, -9.220061351792038 ], [ -35.973065092523093, -9.219731994006361 ], [ -35.973227544500446, -9.219435681089298 ], [ -35.973324301916755, -9.219172685767251 ], [ -35.973585706688496, -9.218875554684006 ], [ -35.97391225617362, -9.218479561654421 ], [ -35.974107965913142, -9.218215748102635 ], [ -35.974270416577504, -9.21791943518588 ], [ -35.974433690653584, -9.217721438619328 ], [ -35.974563705780966, -9.217490942709675 ], [ -35.97472697952967, -9.217292946119557 ], [ -35.974922962716491, -9.217061904606936 ], [ -35.975184364784539, -9.216764773242824 ], [ -35.975511460034546, -9.216434324063599 ], [ -35.975937232216026, -9.216070284109033 ], [ -35.976428971491025, -9.215705698121045 ], [ -35.976822307175262, -9.215407474661681 ], [ -35.977999012675419, -9.214119538765305 ], [ -35.978326652399588, -9.213854632587728 ], [ -35.978620758253065, -9.213524455312374 ], [ -35.979210617421636, -9.213060732420422 ], [ -35.981241578027792, -9.211372427804385 ], [ -35.981634629331985, -9.211041429899463 ], [ -35.981796246218607, -9.210646800781626 ], [ -35.981958687900864, -9.210350487403646 ], [ -35.982119754279623, -9.209890314544747 ], [ -35.982216228977855, -9.209594547715982 ], [ -35.982312703585933, -9.209298780908009 ], [ -35.982408628076442, -9.208937470338867 ], [ -35.982439411178575, -9.208675021963801 ], [ -35.98256831869773, -9.208313438198664 ], [ -35.982632359885322, -9.208083488498808 ], [ -35.982728009086323, -9.207689406146621 ], [ -35.982823658206996, -9.207295323828793 ], [ -35.982920132245582, -9.206999557183325 ], [ -35.983048764156884, -9.206605201688417 ], [ -35.983111705061567, -9.206244164581454 ], [ -35.983273594616279, -9.205882307790825 ], [ -35.983304652509197, -9.205652631459904 ], [ -35.983401401093744, -9.20538963679811 ], [ -35.983531132398149, -9.205126368912394 ], [ -35.983660588553988, -9.204830329176572 ], [ -35.983886792702052, -9.204271294862302 ], [ -35.984082488826061, -9.204007480518756 ], [ -35.984278459715476, -9.203776438001846 ], [ -35.984639618573588, -9.203576800846147 ], [ -35.984969169752368, -9.203541295898335 ], [ -35.985167065443441, -9.20353965588551 ], [ -35.985497716917038, -9.203635237714263 ], [ -35.98579511070313, -9.203698320792304 ], [ -35.98615902013038, -9.203826400288955 ], [ -35.986390724042785, -9.20392280145159 ], [ -35.986589720677188, -9.204052247689281 ], [ -35.986821424784566, -9.204148648489506 ], [ -35.987152627450953, -9.204309771987303 ], [ -35.987548143514225, -9.204273717439468 ], [ -35.987840856488447, -9.203779679009623 ], [ -35.987837001602003, -9.203320874680351 ], [ -35.987730069843167, -9.202371314889074 ], [ -35.98772456398509, -9.201715880011356 ], [ -35.98768387418945, -9.200798544632629 ], [ -35.987701168651803, -9.198930281479379 ], [ -35.987665709849679, -9.198635609154019 ], [ -35.987663508414215, -9.198373435136601 ], [ -35.987660756711918, -9.198045717608769 ], [ -35.987624197662846, -9.197619958208907 ], [ -35.987588464266295, -9.197292514039141 ], [ -35.987518923746798, -9.196867027929173 ], [ -35.987516447742429, -9.196572082090784 ], [ -35.987513146532102, -9.196178820964423 ], [ -35.987477688888312, -9.195884148445204 ], [ -35.987442231380797, -9.195589475899665 ], [ -35.987339160152459, -9.19509871932749 ], [ -35.987270721304299, -9.194804319977113 ], [ -35.987234439307031, -9.194411331990102 ], [ -35.987097562590058, -9.193822533037956 ], [ -35.987057981667498, -9.193036283563817 ], [ -35.986954362945077, -9.192479982849619 ], [ -35.986786431252447, -9.192120859036676 ], [ -35.986686112266746, -9.19195781952617 ], [ -35.986152911604897, -9.191306753222111 ], [ -35.985953099291592, -9.191078988897933 ], [ -35.985720305825652, -9.190851497402274 ], [ -35.985586456870855, -9.190623186664496 ], [ -35.985352565082934, -9.190264607412072 ], [ -35.985118399151069, -9.189873256007616 ], [ -35.984917764449399, -9.189547175075383 ], [ -35.98478474058431, -9.189417179271224 ], [ -35.984585204968084, -9.189222185413479 ], [ -35.983855772469674, -9.188769381454753 ], [ -35.983558117358008, -9.188673520764002 ], [ -35.983127164901006, -9.188414891139546 ], [ -35.982762175488503, -9.188155715459148 ], [ -35.982065727989415, -9.18770263376075 ], [ -35.980640953094102, -9.186927824982071 ], [ -35.979279405220417, -9.185824743722616 ], [ -35.978848732324757, -9.185598878902564 ], [ -35.978517003254446, -9.185372196797484 ], [ -35.978152567334114, -9.185178558476366 ], [ -35.977787857866083, -9.184952147586174 ], [ -35.97742260115389, -9.184660192008627 ], [ -35.976724249266752, -9.183977690841921 ], [ -35.976425503810539, -9.183750733892863 ], [ -35.976192173427449, -9.183457688459985 ], [ -35.975892881447749, -9.183165186552745 ], [ -35.97569253291686, -9.182871868636369 ], [ -35.975492184758139, -9.182578550499922 ], [ -35.975358619525728, -9.182383004953342 ], [ -35.97519097938175, -9.182056642493073 ], [ -35.974957104313859, -9.181698051236484 ], [ -35.974688881597139, -9.181175870547536 ], [ -35.974455281222681, -9.180850050786729 ], [ -35.97425466213474, -9.180523959064262 ], [ -35.973887772752569, -9.18003536429643 ], [ -35.973387868334704, -9.179416766245748 ], [ -35.972856624421397, -9.17899507181669 ], [ -35.97229185466567, -9.178508103136608 ], [ -35.972026097239777, -9.178280868705414 ], [ -35.97159489067306, -9.177989446245935 ], [ -35.971097450410717, -9.177665793363969 ], [ -35.970600283896538, -9.177374911806229 ], [ -35.970069591609949, -9.177018755856086 ], [ -35.969638114893435, -9.176694557717521 ], [ -35.969272600048178, -9.176369816625158 ], [ -35.968906813072202, -9.176012302591877 ], [ -35.968474520315333, -9.175589785221447 ], [ -35.96797626757089, -9.175167808889155 ], [ -35.967510451216071, -9.174680015804173 ], [ -35.967310932852705, -9.17448500663021 ], [ -35.966613165286148, -9.17386801794817 ], [ -35.965813734862905, -9.17292411469175 ], [ -35.965417153362303, -9.172829045227374 ], [ -35.964889467378519, -9.172833375080083 ], [ -35.963933308092294, -9.172873993489684 ], [ -35.96343969047458, -9.173009140832253 ], [ -35.962747645209241, -9.173080365017674 ], [ -35.961527911173938, -9.173155913061519 ], [ -35.961000766765842, -9.173225782583529 ], [ -35.960243029880552, -9.173330315362898 ], [ -35.959617214442474, -9.173433766200032 ], [ -35.959188738418035, -9.173470050266806 ], [ -35.958529125979865, -9.173475451477852 ], [ -35.957770299501206, -9.17344888869612 ], [ -35.956944968087576, -9.173357318626049 ], [ -35.956581094432785, -9.173229196246721 ], [ -35.956250473127696, -9.173133576343714 ], [ -35.955522997989412, -9.172910102188565 ], [ -35.954760914439568, -9.172490259249521 ], [ -35.954098316831768, -9.172135150989092 ], [ -35.953468429669087, -9.171746998749727 ], [ -35.953201601468784, -9.171388653670778 ], [ -35.952770142119228, -9.171064428272041 ], [ -35.952140257929507, -9.170676272643066 ], [ -35.951840180322293, -9.170285422348201 ], [ -35.951508206895781, -9.170025932410889 ], [ -35.951243820733808, -9.169962540851774 ], [ -35.95094916353753, -9.170227147304905 ], [ -35.950040335750799, -9.172004422942617 ], [ -35.949227193082592, -9.173387616094541 ], [ -35.948514342713651, -9.174933866672699 ], [ -35.947699564959592, -9.176120422242352 ], [ -35.946880720703959, -9.176815382490783 ], [ -35.945668262002755, -9.177775754116015 ], [ -35.944586369334253, -9.178571182683106 ], [ -35.942420404394717, -9.179899849456243 ], [ -35.941566935492951, -9.180398433283173 ], [ -35.941009218959614, -9.180763505415323 ], [ -35.94081295000769, -9.180961756310502 ], [ -35.940715085787055, -9.181093654926164 ], [ -35.940616140179529, -9.181094460793398 ], [ -35.940451230813522, -9.181095803845409 ], [ -35.940350663374915, -9.180899970476203 ], [ -35.940283077917236, -9.180703868467798 ], [ -35.940117357873874, -9.180606891706422 ], [ -35.939952448658993, -9.18060823446015 ], [ -35.939787539418951, -9.180609577138824 ], [ -35.939458261280457, -9.180677808713247 ], [ -35.939129523289196, -9.180811586487309 ], [ -35.938636415690681, -9.181012252729595 ], [ -35.938209001156345, -9.18117960841496 ], [ -35.937814297984197, -9.181313922081367 ], [ -35.93735390043414, -9.181481545356458 ], [ -35.936530699868939, -9.181652119232337 ], [ -35.934155990116089, -9.18167142625434 ], [ -35.932737758197298, -9.181682949412785 ], [ -35.931418471025324, -9.181693663645451 ], [ -35.930693131831937, -9.181732327903442 ], [ -35.930099451629246, -9.18173714656912 ], [ -35.929504693800986, -9.181610870210095 ], [ -35.929107829607574, -9.18148298731867 ], [ -35.928677714087968, -9.181322597899976 ], [ -35.928148382894811, -9.181130236751565 ], [ -35.927256247337091, -9.180940816162726 ], [ -35.926497655249293, -9.180946965433435 ], [ -35.926101867862727, -9.18095017311806 ], [ -35.925343274968746, -9.180956319971727 ], [ -35.924881522513104, -9.180960060757176 ], [ -35.924453021040378, -9.180996307479637 ], [ -35.924024250518904, -9.180999780044342 ], [ -35.923496532721849, -9.18100405327354 ], [ -35.923033435897295, -9.180843923194843 ], [ -35.922666062484581, -9.180289706904047 ], [ -35.922035906362865, -9.179868719972033 ], [ -35.921638238769297, -9.179642506162391 ], [ -35.921240303090023, -9.17938351799425 ], [ -35.920544185275347, -9.178963060983522 ], [ -35.919682620914585, -9.178478387701105 ], [ -35.918457449266654, -9.177898321838121 ], [ -35.91766104930673, -9.177314787426141 ], [ -35.916734599070736, -9.176961732982196 ], [ -35.915907632455919, -9.176673424737224 ], [ -35.914915755684248, -9.176386444898224 ], [ -35.914353719318683, -9.176227098953259 ], [ -35.914122040654512, -9.176130639522702 ], [ -35.913692468890531, -9.176035776049551 ], [ -35.913196932791188, -9.175941443933986 ], [ -35.913028810114639, -9.175549485641481 ], [ -35.913488419127347, -9.175283570218379 ], [ -35.915062991187462, -9.174222033566902 ], [ -35.917556488630652, -9.172595882130617 ], [ -35.920179473081916, -9.170673690327199 ], [ -35.920968615248725, -9.170372330542522 ], [ -35.921494440780911, -9.17013864951965 ], [ -35.921823181892179, -9.170004888759005 ], [ -35.92244848674752, -9.169835954427445 ], [ -35.922876976105201, -9.169799714184984 ], [ -35.923404677635276, -9.16979544702715 ], [ -35.92426004419135, -9.16952632174622 ], [ -35.925509572144442, -9.169057350360831 ], [ -35.927776134764258, -9.167924625701213 ], [ -35.930369798649394, -9.166461483550584 ], [ -35.932503861437915, -9.165264261012883 ], [ -35.933446572072064, -9.163585059764662 ], [ -35.934775347650614, -9.160722806359292 ], [ -35.93636794648512, -9.15785841398719 ], [ -35.938044922025263, -9.153223460575754 ], [ -35.939722139939811, -9.148621285291464 ], [ -35.94058913979692, -9.145762786587134 ], [ -35.940551045334338, -9.145140362385211 ], [ -35.938495342349412, -9.143813240051028 ], [ -35.937666307779736, -9.143262775926626 ], [ -35.936771318541631, -9.14271284340375 ], [ -35.936073395893878, -9.14206298521275 ], [ -35.93551007596956, -9.141739790952737 ], [ -35.93511191740221, -9.141448034112708 ], [ -35.93474754357505, -9.14125432999567 ], [ -35.934350460252247, -9.141093665718675 ], [ -35.933822000714187, -9.140999615179133 ], [ -35.933030519427511, -9.141006018430176 ], [ -35.932370682873575, -9.140978579655636 ], [ -35.931381329940947, -9.140986579475534 ], [ -35.930093560804202, -9.140800333804759 ], [ -35.929433723161189, -9.14077288948654 ], [ -35.928708196265831, -9.140778750281797 ], [ -35.927718840627094, -9.140786739943794 ], [ -35.927158205365011, -9.140791266224753 ], [ -35.92649863409796, -9.140796590155182 ], [ -35.926037201761829, -9.140833089883792 ], [ -35.925509276446583, -9.140804573808945 ], [ -35.924948640044306, -9.140809096685224 ], [ -35.924289335065794, -9.140847190350263 ], [ -35.923333221529418, -9.140887675913817 ], [ -35.923003167211711, -9.14085756080255 ], [ -35.922409015850604, -9.140796798040894 ], [ -35.921748906971381, -9.140736565713244 ], [ -35.92108933260382, -9.140741879780956 ], [ -35.920330554322248, -9.140715215624013 ], [ -35.919802359790637, -9.14065391715733 ], [ -35.919339855564843, -9.140559312962726 ], [ -35.9188108596327, -9.14039969121983 ], [ -35.91851324945236, -9.140303758476124 ], [ -35.917984787989155, -9.140209683143137 ], [ -35.917323877506689, -9.14005112033683 ], [ -35.916828394984805, -9.139956777790086 ], [ -35.916233976149769, -9.139863230117653 ], [ -35.915374926549497, -9.139673480467053 ], [ -35.91458210156317, -9.13951597243358 ], [ -35.912995652466272, -9.139102628277488 ], [ -35.912665331222563, -9.139039728868298 ], [ -35.912071712293738, -9.139044495847767 ], [ -35.911676232585791, -9.139080447409523 ], [ -35.910954160313523, -9.139512335379299 ], [ -35.910429160837701, -9.139844311960207 ], [ -35.908590589080411, -9.140875129544307 ], [ -35.907999626414906, -9.141207632982026 ], [ -35.907573026215353, -9.141473265030145 ], [ -35.907211585465731, -9.141640045175238 ], [ -35.906751206546552, -9.141807618279641 ], [ -35.906422478111701, -9.141941359189273 ], [ -35.906027524768199, -9.142042854294687 ], [ -35.90566501845742, -9.14207853616025 ], [ -35.90503787965141, -9.142018008908664 ], [ -35.904410740719243, -9.141957480504304 ], [ -35.903518969590067, -9.141800740882253 ], [ -35.902692625926818, -9.141577922027016 ], [ -35.902196341831612, -9.141385235758399 ], [ -35.901171857454848, -9.141131222216188 ], [ -35.89958486687491, -9.140652267805256 ], [ -35.898293897032175, -9.14007260944966 ], [ -35.896870217682896, -9.139395675313535 ], [ -35.895977125811797, -9.139075041231203 ], [ -35.895348134318567, -9.138785072911503 ], [ -35.894192269118477, -9.138597638078934 ], [ -35.892905280709883, -9.138509575373744 ], [ -35.890563744219364, -9.138528244292459 ], [ -35.888420079681254, -9.138545322345564 ], [ -35.887331756087022, -9.138553987908823 ], [ -35.886573490999773, -9.138592800465164 ], [ -35.886015479282733, -9.138925010741126 ], [ -35.884378376014908, -9.140412999590938 ], [ -35.883494519164941, -9.141239454646943 ], [ -35.883587667632483, -9.144614747409559 ], [ -35.883598757296056, -9.145991294071345 ], [ -35.88353543726123, -9.146319568103985 ], [ -35.883338611367648, -9.146452242270399 ], [ -35.878535595041257, -9.147998174488142 ], [ -35.882049490460204, -9.150199081557401 ], [ -35.884105393253165, -9.151559352968265 ], [ -35.886776132657843, -9.155536861055854 ], [ -35.88859830081293, -9.156538410260151 ], [ -35.889788005618534, -9.156823906652091 ], [ -35.891604882544179, -9.157169942658754 ], [ -35.89316029902443, -9.157813049027657 ], [ -35.894286964527588, -9.158459575868871 ], [ -35.896178840400154, -9.15991939147087 ], [ -35.897839329716263, -9.161315492450344 ], [ -35.89774184773777, -9.161496544523747 ], [ -35.895189222200138, -9.163975230138188 ], [ -35.893389303089414, -9.165726798524409 ], [ -35.892769285162622, -9.166551176909579 ], [ -35.894065408778928, -9.167753544373268 ], [ -35.895793232426215, -9.169312990083656 ], [ -35.896760351933104, -9.170616307038827 ], [ -35.896034477411213, -9.170589346749511 ], [ -35.893253076058002, -9.169267774669946 ], [ -35.887367389375257, -9.167479324553138 ], [ -35.881745592127018, -9.165688657780457 ], [ -35.876191374728862, -9.164094012081923 ], [ -35.87010630754434, -9.162110149125697 ], [ -35.866338969103005, -9.161222246284543 ], [ -35.863557953193371, -9.159933164098701 ], [ -35.861436594837002, -9.158638839734849 ], [ -35.858785963610842, -9.157152012507279 ], [ -35.854817639807067, -9.155872218631277 ], [ -35.852239806882665, -9.155236979397015 ], [ -35.848279862173563, -9.155005929400232 ], [ -35.845311984804624, -9.155094820456892 ], [ -35.84326916785168, -9.155373092982048 ], [ -35.840766152658759, -9.15585163510856 ], [ -35.838331172549104, -9.15659185437644 ], [ -35.833659585266886, -9.158136256241216 ], [ -35.829512038428376, -9.159217613854057 ], [ -35.824971244190415, -9.16062978716765 ], [ -35.821814156076734, -9.161834452559924 ], [ -35.818266923110912, -9.16376326904758 ], [ -35.815709167350349, -9.165684359718009 ], [ -35.813940422437689, -9.167271512114159 ], [ -35.811977368752444, -9.169319076725683 ], [ -35.809890611563567, -9.172416526351586 ], [ -35.808458882393474, -9.174918860580375 ], [ -35.806907061312863, -9.178929964668992 ], [ -35.806335506636366, -9.181753406399691 ], [ -35.806164428237494, -9.185163759620128 ], [ -35.806119622407799, -9.187851991692225 ], [ -35.806544900667909, -9.19158549628861 ], [ -35.807561381640028, -9.194986603853652 ], [ -35.808708288052216, -9.198190012167927 ], [ -35.809986655161076, -9.201326827299152 ], [ -35.810863498678742, -9.203745628236964 ], [ -35.812236733053069, -9.206357220725025 ], [ -35.813640125959601, -9.20860799889795 ], [ -35.814343257627243, -9.209913656178959 ], [ -35.814611576326492, -9.210468798202458 ], [ -35.814680668143353, -9.210861603656101 ], [ -35.81461521076961, -9.210927673105537 ], [ -35.814217274510447, -9.210668553912392 ], [ -35.811727332203823, -9.208688499468114 ], [ -35.804823106529959, -9.20333380353301 ], [ -35.801505468896934, -9.200966739343921 ], [ -35.800016117624189, -9.200355510455081 ], [ -35.799155857333041, -9.200034401324269 ], [ -35.798064941719829, -9.199747859850737 ], [ -35.796807542388933, -9.199265930762486 ], [ -35.795353506472111, -9.19894941810697 ], [ -35.794891163128334, -9.198887445016164 ], [ -35.793405427010093, -9.198735066301914 ], [ -35.792051898723734, -9.198614436378703 ], [ -35.790533687721542, -9.198527855597892 ], [ -35.787697500590809, -9.198648141442259 ], [ -35.785159479738994, -9.19892999954833 ], [ -35.7833804325385, -9.199238759862746 ], [ -35.78071505331588, -9.200111607449744 ], [ -35.778380307811439, -9.201080229175496 ], [ -35.776177755926859, -9.202080600631943 ], [ -35.774175421764475, -9.203374439462744 ], [ -35.771944703661788, -9.204997828382394 ], [ -35.770436404473543, -9.206189512510047 ], [ -35.768997136723371, -9.2077740226669 ], [ -35.767555814715706, -9.209096305897388 ], [ -35.766832087579438, -9.209364109034855 ], [ -35.764523074688917, -9.209414626714963 ], [ -35.762940847950794, -9.209590673599324 ], [ -35.761259393843673, -9.209734694798007 ], [ -35.759446740506519, -9.209978054991861 ], [ -35.756517765922915, -9.210918343635264 ], [ -35.7536900260286, -9.212152862087173 ], [ -35.750994983891339, -9.213484690906386 ], [ -35.748762291656554, -9.214878534572971 ], [ -35.747288365587501, -9.216266575923038 ], [ -35.745225406923531, -9.218281942290981 ], [ -35.743623034516439, -9.220129886237522 ], [ -35.741292557359358, -9.221688352843774 ], [ -35.739653361838599, -9.223044858045791 ], [ -35.7376268513257, -9.225518857307176 ], [ -35.735274690375782, -9.228552606913659 ], [ -35.73345264672259, -9.231877346642339 ], [ -35.732152902498186, -9.234476931327242 ], [ -35.731184084771257, -9.237205122779907 ], [ -35.73038881505434, -9.241046549029237 ], [ -35.730082128511377, -9.244064734484203 ], [ -35.730050268646998, -9.248490411427415 ], [ -35.730234207784292, -9.250947584886308 ], [ -35.730784132002505, -9.25379534033349 ], [ -35.731870094340287, -9.257687994866323 ], [ -35.733478692810969, -9.260888250797272 ], [ -35.736084806889913, -9.265064292520611 ], [ -35.738583869094889, -9.268192132790272 ], [ -35.740811121787161, -9.270305824291233 ], [ -35.743430531829794, -9.271924777269227 ], [ -35.746579685010424, -9.273769099749938 ], [ -35.750054995341436, -9.275119170024318 ], [ -35.753393479231164, -9.275847426065546 ], [ -35.755277069460135, -9.276193498923407 ], [ -35.761678285771502, -9.276144110699271 ], [ -35.765934487989682, -9.276078428801402 ], [ -35.767223635006012, -9.276363473117025 ], [ -35.770729672550097, -9.27741805508869 ], [ -35.77327626810402, -9.27815224373961 ], [ -35.776946271951168, -9.279074363039623 ], [ -35.78131100349453, -9.28022049017143 ], [ -35.785246028060065, -9.281271566825044 ], [ -35.789149105662531, -9.282453960179328 ], [ -35.793114293979535, -9.283144128325885 ], [ -35.794023362203276, -9.283350085128237 ], [ -35.795613649781785, -9.284157124575023 ], [ -35.798033778948309, -9.28558045910936 ], [ -35.800354416199042, -9.286938993505965 ], [ -35.801812224020679, -9.287681477134603 ], [ -35.803002680179318, -9.287999924694347 ], [ -35.80488865847078, -9.288640694357834 ], [ -35.806713610834905, -9.28990473109417 ], [ -35.812852922717973, -9.290118642340463 ], [ -35.813613656824288, -9.290342098642425 ], [ -35.816234467894873, -9.292091480402513 ], [ -35.81881915748415, -9.293447777553085 ], [ -35.820671913274758, -9.294055930556752 ], [ -35.826130952846185, -9.295848328061371 ], [ -35.830037636102155, -9.297456274999115 ], [ -35.834240780147745, -9.29899625649233 ], [ -35.836986310719531, -9.299826658701585 ], [ -35.839564752698863, -9.300396142340885 ], [ -35.840754193203985, -9.300583337173016 ], [ -35.84234540959843, -9.301488440016355 ], [ -35.846646809517232, -9.302929127988778 ], [ -35.85064914183743, -9.30410992364118 ], [ -35.854249685187312, -9.304572776644518 ], [ -35.858077469100991, -9.304574883258818 ], [ -35.862330983465412, -9.304180201551878 ], [ -35.866544800053063, -9.302966359037899 ], [ -35.87032589296367, -9.301297078313212 ], [ -35.875053347950839, -9.298341834911309 ], [ -35.878194840921523, -9.295137133263738 ], [ -35.881554632183743, -9.290390144567906 ], [ -35.882981146584832, -9.287297603329861 ], [ -35.883718808953439, -9.284702277630046 ], [ -35.88439021188676, -9.28207471144974 ], [ -35.884538285187688, -9.280008576877583 ], [ -35.884785069974399, -9.27790886910301 ], [ -35.884764433407589, -9.275385221192417 ], [ -35.886569086905958, -9.274157915331921 ], [ -35.888565240266473, -9.27214241616136 ], [ -35.890365567876266, -9.270390708024777 ], [ -35.891750666132111, -9.268298197688257 ], [ -35.892872089117596, -9.266240594807613 ], [ -35.893490329708357, -9.265186745906115 ], [ -35.894173475121164, -9.264001265925376 ], [ -35.89563931497144, -9.265726567003947 ], [ -35.897006196378847, -9.267452658871594 ], [ -35.899241093279308, -9.270417212120941 ], [ -35.907064584007465, -9.272910261181483 ], [ -35.907395307901027, -9.273005901149554 ] ], [ [ -35.847953792400638, -9.18207115579925 ], [ -35.84796017240064, -9.182069316799247 ], [ -35.854730185400449, -9.188064558798834 ], [ -35.854735122400477, -9.188068936798787 ], [ -35.854952284400454, -9.187724041798802 ], [ -35.854952516400495, -9.187723692798784 ], [ -35.855139459400455, -9.187721782798768 ], [ -35.855322558400481, -9.187838129798767 ], [ -35.855509476400478, -9.18786388079884 ], [ -35.855689223400489, -9.187861970798725 ], [ -35.85569259940047, -9.187861946798789 ], [ -35.855898051400473, -9.187843297798715 ], [ -35.855902405400464, -9.187842900798749 ], [ -35.856130138400502, -9.187841014798748 ], [ -35.856135098400451, -9.187840968798728 ], [ -35.856342156400444, -9.18781274979872 ], [ -35.856344880400471, -9.187812376798753 ], [ -35.856528026400461, -9.187810443798675 ], [ -35.856692080400499, -9.187863878798657 ], [ -35.856852246400486, -9.187907721798689 ], [ -35.857039187400467, -9.187923949798666 ], [ -35.857226105400464, -9.18796781479867 ], [ -35.85740922940046, -9.187993566798699 ], [ -35.857619034400457, -9.187991679798651 ], [ -35.85780592940047, -9.187989746798646 ], [ -35.857982230400495, -9.187988838798667 ], [ -35.85798905240047, -9.187988815798597 ], [ -35.858175993400451, -9.187923947798668 ], [ -35.858340024400512, -9.187877218798645 ], [ -35.85847737140049, -9.187785645798618 ], [ -35.858641379400488, -9.187739870798602 ], [ -35.858778704400514, -9.187648320798596 ], [ -35.858874072400496, -9.187511973798646 ], [ -35.859904869400495, -9.187396394798565 ], [ -35.859911691400491, -9.187395626798606 ], [ -35.880240300400416, -9.193738544797499 ], [ -35.906672460400209, -9.202108032796129 ], [ -35.913851749399939, -9.210550972795673 ], [ -35.910487188399408, -9.223668847795505 ], [ -35.914099733399233, -9.228996120795179 ], [ -35.913443610399227, -9.229308930795241 ], [ -35.91187955739921, -9.229583558795307 ], [ -35.910861031399179, -9.230314117795281 ], [ -35.910216363399165, -9.230392303795341 ], [ -35.909609788399159, -9.230550630795328 ], [ -35.908286111399136, -9.230886329795377 ], [ -35.908283852399137, -9.230885374795481 ], [ -35.90729049439912, -9.230460968795457 ], [ -35.905646345399113, -9.230329373795604 ], [ -35.904345509399128, -9.230105249795661 ], [ -35.904344368399144, -9.230106810795634 ], [ -35.903609269399105, -9.231122844795703 ], [ -35.904353124399073, -9.231975406795616 ], [ -35.905024521399064, -9.232719305795516 ], [ -35.906058299398993, -9.233984841795467 ], [ -35.906424523398982, -9.234315765795463 ], [ -35.90687084039898, -9.234537981795464 ], [ -35.907153127398999, -9.234554186795441 ], [ -35.909670840398974, -9.234552250795234 ], [ -35.910201117398969, -9.235008136795232 ], [ -35.910456675398933, -9.235448725795273 ], [ -35.91073514439892, -9.236584574795204 ], [ -35.911253942398929, -9.237168191795206 ], [ -35.911530711398918, -9.23717485179515 ], [ -35.911532456398881, -9.237174896795144 ], [ -35.912962958398893, -9.237063322795102 ], [ -35.913496680398914, -9.236889163795059 ], [ -35.913500824398923, -9.236887813795096 ], [ -35.913870866398952, -9.236984158795018 ], [ -35.914286635398931, -9.237044229795007 ], [ -35.914881756398934, -9.237193008794984 ], [ -35.915412010398889, -9.238642576794968 ], [ -35.915213638398846, -9.239412204794959 ], [ -35.915102996398851, -9.239918661794908 ], [ -35.915095685398803, -9.23991752079492 ], [ -35.877657758398826, -9.234050666796758 ], [ -35.872160758398998, -9.229036205797135 ], [ -35.87215556639898, -9.229039069797121 ], [ -35.864191805398796, -9.233435512797389 ], [ -35.868414707398173, -9.249392539796808 ], [ -35.868529145398199, -9.249870311796826 ], [ -35.868552056398158, -9.250168849796772 ], [ -35.868574921398157, -9.250367222796836 ], [ -35.868597832398123, -9.250557004796788 ], [ -35.868643606398109, -9.2507639217968 ], [ -35.868735157398142, -9.250970864796829 ], [ -35.868853413398128, -9.251195919796796 ], [ -35.868944985398102, -9.251376201796818 ], [ -35.869082264398095, -9.251492524796792 ], [ -35.869131881398097, -9.2516546687968 ], [ -35.869223431398126, -9.251834904796805 ], [ -35.869292093398109, -9.252041845796734 ], [ -35.8693378453981, -9.252230673796712 ], [ -35.869360780398104, -9.252411909796713 ], [ -35.869360780398097, -9.25263696579678 ], [ -35.869337846398061, -9.25282767879674 ], [ -35.869292094398062, -9.252981255796785 ], [ -35.869219614398077, -9.253190058796678 ], [ -35.869128064398041, -9.253353158796711 ], [ -35.869013627398054, -9.253534394796715 ], [ -35.868895372398022, -9.253670742796732 ], [ -35.868758047398053, -9.253789975796725 ], [ -35.868571128397996, -9.253836682796758 ], [ -35.868407098397988, -9.253954937796765 ], [ -35.868223976398035, -9.254019804796743 ], [ -35.868037057397999, -9.254048397796774 ], [ -35.867850139397994, -9.254067442796815 ], [ -35.867846321398012, -9.254067466796783 ], [ -35.867644175398013, -9.254069398796787 ], [ -35.867388571397974, -9.25399978279677 ], [ -35.867201630398021, -9.253928255796803 ], [ -35.866991824398028, -9.253885322796821 ], [ -35.866808724398005, -9.253796636796839 ], [ -35.866644671398035, -9.253680290796796 ], [ -35.866484482398, -9.253608787796908 ], [ -35.866343338397996, -9.253501941796909 ], [ -35.866183103398036, -9.253430414796842 ], [ -35.865996207398048, -9.253387527796816 ], [ -35.865835972398031, -9.25334363779686 ], [ -35.865649054398034, -9.253272135796866 ], [ -35.865507887398003, -9.253183426796934 ], [ -35.865301900398052, -9.25306705679689 ], [ -35.865092118398039, -9.25299650979693 ], [ -35.864905153398027, -9.252925914796961 ], [ -35.864744964398042, -9.252791454796947 ], [ -35.864558046398052, -9.252657971796973 ], [ -35.864397833398051, -9.252541578796938 ], [ -35.864165117398073, -9.252452916796939 ], [ -35.86390953639804, -9.252401413796957 ], [ -35.863676843398054, -9.252357525796983 ], [ -35.863493743398017, -9.252295568797049 ], [ -35.863283914398068, -9.252243088797 ], [ -35.863096996398077, -9.252199246797018 ], [ -35.862913897398045, -9.252128651797088 ], [ -35.862749866398048, -9.252039965797019 ], [ -35.862612541398036, -9.251950302797098 ], [ -35.862471397398032, -9.25186163979714 ], [ -35.862334073398067, -9.251717609797097 ], [ -35.862170042398063, -9.251584103797127 ], [ -35.862009807398074, -9.251494463797062 ], [ -35.861822888398073, -9.25136093479712 ], [ -35.861662652398081, -9.25130752279714 ], [ -35.861429983398075, -9.251291341797149 ], [ -35.861174379398058, -9.25123888479712 ], [ -35.86091879939805, -9.251241702797188 ], [ -35.860735699398106, -9.251242679797128 ], [ -35.860480095398081, -9.251244612797141 ], [ -35.860247425398072, -9.251246498797192 ], [ -35.860014709398058, -9.251248408797155 ], [ -35.86001082139807, -9.251248827797182 ], [ -35.859827791398054, -9.25126843179719 ], [ -35.859598916398049, -9.251315161797216 ], [ -35.859411998398045, -9.251361914797199 ], [ -35.859179305398058, -9.25139050679727 ], [ -35.858992387398061, -9.251410529797266 ], [ -35.858786377398062, -9.251439168797241 ], [ -35.858599459398064, -9.251485875797272 ], [ -35.858343878398067, -9.251524013797253 ], [ -35.858156937398029, -9.251552628797318 ], [ -35.857928085398079, -9.25157265279722 ], [ -35.857718256398037, -9.251601290797289 ], [ -35.857485564398033, -9.251621291797287 ], [ -35.857482630398039, -9.251621314797246 ], [ -35.857229960398023, -9.251623200797303 ], [ -35.857023973398064, -9.251625110797342 ], [ -35.856814167398021, -9.251626065797298 ], [ -35.856604362398024, -9.251601292797343 ], [ -35.856417444398019, -9.251602246797383 ], [ -35.856211433398045, -9.251559312797326 ], [ -35.856001628398026, -9.251515447797335 ], [ -35.855837597398036, -9.251471558797393 ], [ -35.855677384398021, -9.251373326797376 ], [ -35.855513353398031, -9.251284641797339 ], [ -35.855242522398086, -9.250852643797385 ], [ -35.855236096398066, -9.250855484797423 ], [ -35.842825604397753, -9.25637255379786 ], [ -35.843027796397777, -9.256578539797852 ], [ -35.843191827397774, -9.256757844797807 ], [ -35.843283377397725, -9.256901874797851 ], [ -35.843374927397768, -9.257082063797807 ], [ -35.843420725397721, -9.257244208797776 ], [ -35.843489364397726, -9.257514130797817 ], [ -35.843535139397716, -9.257703888797744 ], [ -35.843580937397739, -9.257910829797833 ], [ -35.843630531397743, -9.258064406797818 ], [ -35.843676306397718, -9.258254164797741 ], [ -35.843722081397708, -9.258505926797765 ], [ -35.843767857397673, -9.258731960797734 ], [ -35.843836496397671, -9.25889408079777 ], [ -35.843905181397702, -9.259056202797767 ], [ -35.843950957397666, -9.259218323797773 ], [ -35.844019596397686, -9.259398582797738 ], [ -35.844046302397636, -9.259605523797738 ], [ -35.844114988397649, -9.259813443797704 ], [ -35.844160763397625, -9.260155823797714 ], [ -35.844252336397645, -9.260362741797712 ], [ -35.844343886397617, -9.260570660797681 ], [ -35.844412526397591, -9.26072323579767 ], [ -35.844435436397632, -9.260913017797735 ], [ -35.844553692397575, -9.261092321797666 ], [ -35.844691017397601, -9.261226805797664 ], [ -35.844809274397583, -9.261370788797672 ], [ -35.844923687397589, -9.261531955797668 ], [ -35.845133516397553, -9.261575820797706 ], [ -35.845293752397573, -9.26161973279765 ], [ -35.845549333397592, -9.261662643797646 ], [ -35.845713339397577, -9.261706509797618 ], [ -35.845896486397606, -9.261778035797629 ], [ -35.846083381397605, -9.261802831797597 ], [ -35.846266481397564, -9.261846673797562 ], [ -35.846499173397582, -9.261844763797598 ], [ -35.846754778397575, -9.26187051579759 ], [ -35.847010358397576, -9.26186765179758 ], [ -35.847192014397628, -9.261866719797586 ], [ -35.847197277397605, -9.261866696797572 ], [ -35.847380376397581, -9.26183808079756 ], [ -35.847567317397619, -9.261818080797545 ], [ -35.847754236397606, -9.261798988797544 ], [ -35.847937335397589, -9.261770372797507 ], [ -35.848124253397579, -9.26172366679755 ], [ -35.848329658397624, -9.261704038797506 ], [ -35.848334058397576, -9.261703619797506 ], [ -35.848566752397616, -9.261701732797505 ], [ -35.848772762397616, -9.261790395797481 ], [ -35.848982544397629, -9.26192487979745 ], [ -35.849192351397583, -9.2619773597975 ], [ -35.8493754733976, -9.262021201797426 ], [ -35.849539504397598, -9.262065067797433 ], [ -35.84972260439762, -9.262153752797422 ], [ -35.84988663439762, -9.26219761879744 ], [ -35.850119375397618, -9.262250075797382 ], [ -35.850325338397589, -9.26224816679739 ], [ -35.850512279397563, -9.262292055797396 ], [ -35.850699198397606, -9.262380740797395 ], [ -35.85088229739759, -9.262469426797344 ], [ -35.851069216397555, -9.262567681797384 ], [ -35.851279022397613, -9.26262870679734 ], [ -35.851416346397592, -9.262745029797285 ], [ -35.851580377397582, -9.262834693797302 ], [ -35.851786388397571, -9.262950084797342 ], [ -35.85204196839755, -9.263093160797284 ], [ -35.852297549397576, -9.263253348797264 ], [ -35.852553130397553, -9.263431697797236 ], [ -35.852762959397573, -9.263592887797282 ], [ -35.852946058397528, -9.263772168797253 ], [ -35.853155864397586, -9.263915220797246 ], [ -35.853316076397533, -9.264022044797223 ], [ -35.853411444397551, -9.264166027797195 ], [ -35.853571680397536, -9.264345284797196 ], [ -35.853686118397505, -9.264479791797198 ], [ -35.85385014839752, -9.264622844797156 ], [ -35.854037043397518, -9.264802148797161 ], [ -35.854243077397484, -9.264990975797126 ], [ -35.854384197397501, -9.265125435797161 ], [ -35.854521523397523, -9.265241805797146 ], [ -35.854685553397516, -9.265302830797147 ], [ -35.854800014397476, -9.265446813797148 ], [ -35.855009819397523, -9.265626118797105 ], [ -35.855215807397457, -9.26592270079707 ], [ -35.855334063397464, -9.266111527797094 ], [ -35.85544852439746, -9.26624603479709 ], [ -35.855562938397448, -9.266407177797115 ], [ -35.855658330397446, -9.266542592797054 ], [ -35.855704104397425, -9.266704737797049 ], [ -35.855841453397431, -9.266865903797056 ], [ -35.855982573397441, -9.267117688797002 ], [ -35.856051259397454, -9.267324606797057 ], [ -35.856142809397433, -9.267504864797015 ], [ -35.856188584397408, -9.267712761797 ], [ -35.856234359397384, -9.267965477797013 ], [ -35.856257223397392, -9.26828117479698 ], [ -35.856371684397402, -9.268532936796973 ], [ -35.856467030397361, -9.268785676796965 ], [ -35.856535692397387, -9.268992594796975 ], [ -35.856604378397343, -9.269227219796978 ], [ -35.856650153397325, -9.269407478796923 ], [ -35.856673064397349, -9.269587690796959 ], [ -35.856718816397347, -9.269840430796927 ], [ -35.856764591397337, -9.270047371796887 ], [ -35.856833253397305, -9.270255291796929 ], [ -35.856833253397305, -9.270489916796903 ], [ -35.856856141397287, -9.270715903796914 ], [ -35.856879029397334, -9.2709228677969 ], [ -35.856879029397319, -9.271104057796903 ], [ -35.856879030397288, -9.27131195379688 ], [ -35.856901917397288, -9.271591399796879 ], [ -35.85692480539727, -9.271835547796908 ], [ -35.856924805397263, -9.272025329796842 ], [ -35.856924805397249, -9.272250384796907 ], [ -35.856924805397242, -9.272458304796869 ], [ -35.856947693397224, -9.272710997796825 ], [ -35.856993468397199, -9.272891279796864 ], [ -35.856993468397206, -9.273099152796835 ], [ -35.856993468397206, -9.273334709796833 ], [ -35.857016356397224, -9.273587448796798 ], [ -35.857062132397189, -9.27388498579684 ], [ -35.857107906397189, -9.274182568796853 ], [ -35.857199480397185, -9.274435261796878 ], [ -35.857245255397167, -9.274587859796799 ], [ -35.85729103039715, -9.274749981796832 ], [ -35.857386398397153, -9.274939762796793 ], [ -35.857432174397132, -9.2751381357968 ], [ -35.857500836397122, -9.275345100796757 ], [ -35.857546612397137, -9.275507197796797 ], [ -35.857638162397109, -9.275714139796751 ], [ -35.857733530397134, -9.27589439879676 ], [ -35.857802193397106, -9.276056542796724 ], [ -35.857802193397092, -9.276264415796769 ], [ -35.857802193397085, -9.276471380796727 ], [ -35.857802193397085, -9.276697413796757 ], [ -35.857802194397053, -9.276932946796745 ], [ -35.857798375397088, -9.277158026796755 ], [ -35.857752601397081, -9.277393583796739 ], [ -35.857638163397048, -9.277529952796721 ], [ -35.857405470397055, -9.277549977796689 ], [ -35.85705834039701, -9.277733123796784 ], [ -35.857051099397033, -9.277733193796784 ], [ -35.856779849397064, -9.277735964796715 ], [ -35.856547156396999, -9.277710213796741 ], [ -35.856337350397027, -9.27771214579683 ], [ -35.856200025397065, -9.277605322796827 ], [ -35.85601308439702, -9.27759766279679 ], [ -35.855826189397071, -9.277598617796812 ], [ -35.855643090397045, -9.27760052679683 ], [ -35.855364598397024, -9.277584344796812 ], [ -35.855223454397041, -9.277423154796866 ], [ -35.855063219397046, -9.277351629796868 ], [ -35.85489918839702, -9.277307763796854 ], [ -35.854716088397026, -9.277282012796878 ], [ -35.854506283397015, -9.277220963796859 ], [ -35.854319342397034, -9.277150415796909 ], [ -35.854086672397038, -9.277124665796904 ], [ -35.853880685397009, -9.277054093796908 ], [ -35.853716630397052, -9.276992090796918 ], [ -35.853579306397094, -9.276875767796914 ], [ -35.85339238839704, -9.276760352796952 ], [ -35.853232152397027, -9.276670712796944 ], [ -35.853091055397051, -9.276582027796957 ], [ -35.852907932397052, -9.276465657796994 ], [ -35.852743854397048, -9.276376971796989 ], [ -35.852534072397091, -9.276306400797022 ], [ -35.852373836397099, -9.276216736796991 ], [ -35.852164054397072, -9.27614618879698 ], [ -35.851954249397089, -9.27603075079705 ], [ -35.851801650397121, -9.275453791797089 ], [ -35.847243040397132, -9.274225488797301 ], [ -35.847018007397168, -9.273892631797308 ], [ -35.846853976397107, -9.273848766797297 ], [ -35.846625078397118, -9.273796308797264 ], [ -35.84643816039712, -9.273752443797258 ], [ -35.846251264397104, -9.273754375797321 ], [ -35.846091029397115, -9.273682850797313 ], [ -35.846087118397143, -9.273685062797382 ], [ -35.845881223397114, -9.273802013797374 ], [ -35.845717193397107, -9.273893587797337 ], [ -35.845415814397107, -9.273941271797378 ], [ -35.845137346397131, -9.273988979797389 ], [ -35.845131573397126, -9.273989026797363 ], [ -35.844790193397102, -9.273991820797352 ], [ -35.844603275397098, -9.273992774797421 ], [ -35.844420198397138, -9.273968001797416 ], [ -35.844141707397107, -9.273943205797474 ], [ -35.843863216397089, -9.273899317797445 ], [ -35.843584771397104, -9.273874519797433 ], [ -35.843397806397093, -9.273831586797435 ], [ -35.843260482397127, -9.273741945797468 ], [ -35.843119361397115, -9.273652328797494 ], [ -35.842913351397101, -9.273555051797507 ], [ -35.842680657397146, -9.273538822797473 ], [ -35.842493740397117, -9.273513072797529 ], [ -35.842283934397145, -9.273397703797531 ], [ -35.842077947397122, -9.273353791797508 ], [ -35.841913916397132, -9.273309949797552 ], [ -35.841707906397133, -9.273221240797579 ], [ -35.841498100397146, -9.273150669797555 ], [ -35.84124251939712, -9.273061983797563 ], [ -35.840964051397144, -9.27296470679757 ], [ -35.840708448397123, -9.272876975797587 ], [ -35.840498641397154, -9.27280638079764 ], [ -35.840338430397161, -9.27274442479761 ], [ -35.84012862439711, -9.272673829797604 ], [ -35.839945501397118, -9.272603235797673 ], [ -35.839758583397128, -9.272486911797632 ], [ -35.839503025397136, -9.272398227797673 ], [ -35.839316107397153, -9.272309517797671 ], [ -35.839132984397146, -9.272238969797712 ], [ -35.838968953397149, -9.272150260797709 ], [ -35.838740078397151, -9.272106418797756 ], [ -35.838530273397154, -9.272035847797678 ], [ -35.838297534397135, -9.271965252797683 ], [ -35.838110638397133, -9.27189470479771 ], [ -35.837927539397171, -9.271850816797748 ], [ -35.83774062039712, -9.271834587797777 ], [ -35.83753081539713, -9.271736355797778 ], [ -35.837301917397141, -9.271675330797787 ], [ -35.837092111397176, -9.271577098797795 ], [ -35.836905170397181, -9.271516073797793 ], [ -35.836722070397173, -9.271417841797811 ], [ -35.836558040397165, -9.271329132797847 ], [ -35.836374939397167, -9.271194672797797 ], [ -35.836210932397186, -9.27105162079781 ], [ -35.836073607397175, -9.270961980797829 ], [ -35.83588664339716, -9.270846588797834 ], [ -35.835699724397173, -9.270829405797855 ], [ -35.835516648397196, -9.270831338797867 ], [ -35.835329706397147, -9.270787426797932 ], [ -35.835119900397167, -9.270716877797879 ], [ -35.834913913397152, -9.270600531797973 ], [ -35.834704085397185, -9.270557620797906 ], [ -35.834540077397172, -9.270513755797968 ], [ -35.834356954397165, -9.270415523797928 ], [ -35.83419292339719, -9.270371657797947 ], [ -35.83405557539718, -9.270255311797985 ], [ -35.833891544397176, -9.270193308797989 ], [ -35.83370842239723, -9.270032142797959 ], [ -35.833521550397194, -9.26996157079804 ], [ -35.833384202397198, -9.269827110798033 ], [ -35.833243035397217, -9.269710740798017 ], [ -35.833033253397204, -9.269666875798034 ], [ -35.832895904397205, -9.269550529798034 ], [ -35.832709033397229, -9.269507618797995 ], [ -35.832525887397246, -9.269481890798057 ], [ -35.832338968397195, -9.269392226798017 ], [ -35.832332892397226, -9.26939360079805 ], [ -35.832129163397191, -9.269439910798079 ], [ -35.832122876397243, -9.269439957797987 ], [ -35.831923176397197, -9.269440865798037 ], [ -35.831921615397206, -9.269441261798077 ], [ -35.831736258397164, -9.269487595798092 ], [ -35.831526429397208, -9.269507618798045 ], [ -35.831522773397218, -9.269507642798096 ], [ -35.831316623397228, -9.269509529798121 ], [ -35.831156411397195, -9.269465662798108 ], [ -35.830992380397205, -9.269394137798118 ], [ -35.830763505397194, -9.269260630798168 ], [ -35.830530765397206, -9.269145239798135 ], [ -35.830275209397193, -9.26902982579818 ], [ -35.830065426397191, -9.268985960798194 ], [ -35.829882279397225, -9.268915388798169 ], [ -35.829718272397201, -9.268853385798197 ], [ -35.829558037397248, -9.2687370167982 ], [ -35.829371142397228, -9.268620693798201 ], [ -35.829233817397217, -9.268504346798229 ], [ -35.829046852397205, -9.268415661798246 ], [ -35.828882821397208, -9.268326952798244 ], [ -35.82869969839723, -9.26818389979829 ], [ -35.828558601397241, -9.268049439798219 ], [ -35.828398366397231, -9.267933093798232 ], [ -35.828234312397242, -9.26788922779833 ], [ -35.828051212397227, -9.267728037798259 ], [ -35.827864317397243, -9.267711809798266 ], [ -35.827704082397268, -9.267613600798308 ], [ -35.827540074397263, -9.267505845798341 ], [ -35.827330245397242, -9.267453389798366 ], [ -35.827147145397298, -9.267346566798338 ], [ -35.826960227397294, -9.267185399798404 ], [ -35.826822925397273, -9.267024232798333 ], [ -35.826681759397268, -9.266934592798343 ], [ -35.826498636397275, -9.266819200798381 ], [ -35.826311717397282, -9.26670283179836 ], [ -35.826124800397274, -9.266614145798448 ], [ -35.825941699397283, -9.266525459798391 ], [ -35.825777669397276, -9.266427227798459 ], [ -35.825617457397314, -9.266365248798429 ], [ -35.825430515397294, -9.266267039798443 ], [ -35.825243597397296, -9.266160193798461 ], [ -35.825037587397297, -9.266044801798474 ], [ -35.8248735563973, -9.265955161798521 ], [ -35.824690433397294, -9.265857884798473 ], [ -35.824526425397295, -9.26576824479856 ], [ -35.824389100397326, -9.265679535798476 ], [ -35.824247957397333, -9.265589870798538 ], [ -35.824015264397332, -9.265537461798525 ], [ -35.823832164397331, -9.265448751798532 ], [ -35.82369102139733, -9.265332405798517 ], [ -35.823507897397334, -9.265288540798529 ], [ -35.823321003397318, -9.265244674798495 ], [ -35.823134038397292, -9.265200808798513 ], [ -35.822973849397314, -9.265156920798542 ], [ -35.822786931397317, -9.265041529798584 ], [ -35.822626719397363, -9.264997663798557 ], [ -35.822439800397312, -9.264790721798626 ], [ -35.822229972397331, -9.264630486798572 ], [ -35.822001097397333, -9.264541800798682 ], [ -35.821722629397364, -9.26444452379868 ], [ -35.821535687397336, -9.264400658798634 ], [ -35.82132588139735, -9.264311972798598 ], [ -35.821119894397334, -9.264213740798706 ], [ -35.820864337397339, -9.264107872798713 ], [ -35.820654508397361, -9.264082121798719 ], [ -35.820494273397358, -9.26403825679872 ], [ -35.820307377397356, -9.263967684798761 ], [ -35.820074638397344, -9.26392381979875 ], [ -35.819864879397365, -9.263899023798739 ], [ -35.819635981397326, -9.263882818798747 ], [ -35.819426152397355, -9.263857067798771 ], [ -35.819239234397358, -9.263831315798763 ], [ -35.81907902139735, -9.263769312798829 ], [ -35.818846306397354, -9.263698741798795 ], [ -35.818613636397359, -9.263673944798809 ], [ -35.818430536397344, -9.263630079798832 ], [ -35.818174932397319, -9.263605282798842 ], [ -35.817987991397345, -9.263588122798847 ], [ -35.817778208397336, -9.263545212798862 ], [ -35.817572221397327, -9.263537575798827 ], [ -35.817385303397323, -9.263520416798888 ], [ -35.81715258639737, -9.263477505798908 ], [ -35.816942781397373, -9.263469868798905 ], [ -35.816713906397368, -9.26347175579893 ], [ -35.816526988397364, -9.263473687798925 ], [ -35.816317159397343, -9.263456504798901 ], [ -35.815924255397384, -9.263432709798881 ], [ -35.815645763397356, -9.263435526799016 ], [ -35.815344408397337, -9.263410730798935 ], [ -35.815065963397338, -9.263385957798995 ], [ -35.814810382397368, -9.263342069798975 ], [ -35.814531867397392, -9.263299158798992 ], [ -35.814367837397349, -9.263255292799 ], [ -35.814116098397342, -9.263158015799007 ], [ -35.813883358397334, -9.263096990799049 ], [ -35.813627778397354, -9.263044533799084 ], [ -35.813395108397359, -9.262983507799085 ], [ -35.813387611397353, -9.262984114799066 ], [ -35.813139527397318, -9.263003532799081 ], [ -35.813136664397355, -9.263003555799093 ], [ -35.812933471397351, -9.263004487799051 ], [ -35.812700824397325, -9.262979690799122 ], [ -35.812513906397335, -9.262917687799094 ], [ -35.812330806397327, -9.262865230799079 ], [ -35.812098090397349, -9.262776545799115 ], [ -35.811888261397335, -9.262705973799132 ], [ -35.811655591397326, -9.262617287799145 ], [ -35.811422898397339, -9.262483781799194 ], [ -35.811075744397357, -9.262296841799211 ], [ -35.810915532397388, -9.262162356799209 ], [ -35.810728613397352, -9.262027919799209 ], [ -35.810545514397383, -9.261866729799253 ], [ -35.810358572397384, -9.261705564799218 ], [ -35.810171654397372, -9.261517691799249 ], [ -35.810034329397403, -9.261428074799241 ], [ -35.809847434397398, -9.261294521799222 ], [ -35.809641400397361, -9.261205835799307 ], [ -35.809477369397371, -9.261107603799298 ], [ -35.809294270397402, -9.261000804799272 ], [ -35.809153149397396, -9.260856820799299 ], [ -35.808943344397399, -9.260723267799346 ], [ -35.808691535397394, -9.260652720799317 ], [ -35.808481730397389, -9.260582125799321 ], [ -35.808294834397387, -9.260538260799331 ], [ -35.808111712397434, -9.260449574799354 ], [ -35.807924816397446, -9.260360865799337 ], [ -35.807692100397411, -9.260263588799361 ], [ -35.807509000397395, -9.260201608799372 ], [ -35.807322082397398, -9.260085239799396 ], [ -35.807161847397388, -9.260014691799388 ], [ -35.806997816397399, -9.259943165799394 ], [ -35.806860491397437, -9.259836364799437 ], [ -35.80669646039744, -9.259738110799473 ], [ -35.80650954239745, -9.259676129799448 ], [ -35.80637219439744, -9.25957789779943 ], [ -35.806231050397443, -9.259470143799446 ], [ -35.806047974397465, -9.259354751799437 ], [ -35.805906808397417, -9.2591925837995 ], [ -35.805746619397439, -9.259103921799506 ], [ -35.805582564397476, -9.258987575799503 ], [ -35.805445240397447, -9.25889888979953 ], [ -35.805281185397462, -9.258827363799554 ], [ -35.805098109397484, -9.25869385779955 ], [ -35.804842505397481, -9.258550782799547 ], [ -35.804632676397446, -9.258443959799548 ], [ -35.804449599397486, -9.258345727799595 ], [ -35.804193996397458, -9.258258019799593 ], [ -35.803984190397465, -9.25821413079961 ], [ -35.803797272397468, -9.258188402799568 ], [ -35.803614172397445, -9.258172151799583 ], [ -35.803404367397455, -9.258146400799598 ], [ -35.803194561397468, -9.258075852799625 ], [ -35.802916093397485, -9.257988121799627 ], [ -35.802664308397453, -9.257899435799704 ], [ -35.802523164397456, -9.257801204799659 ], [ -35.802267583397494, -9.257712518799673 ], [ -35.802084437397497, -9.257597079799657 ], [ -35.801897542397498, -9.257480756799742 ], [ -35.801737330397458, -9.257418753799701 ], [ -35.801596186397475, -9.25730243179976 ], [ -35.801409269397467, -9.257258565799729 ], [ -35.801180370397496, -9.257215631799726 ], [ -35.800993476397515, -9.257208017799714 ], [ -35.800806534397488, -9.257164152799728 ], [ -35.800600570397528, -9.257147924799753 ], [ -35.800436494397495, -9.257094512799764 ], [ -35.800249575397501, -9.257096399799783 ], [ -35.800043611397456, -9.257079262799806 ], [ -35.799810895397506, -9.257081148799816 ], [ -35.799601089397513, -9.257056375799841 ], [ -35.799395079397506, -9.256967690799856 ], [ -35.799185273397477, -9.256851320799848 ], [ -35.798998378397528, -9.256780772799871 ], [ -35.798765639397509, -9.256736883799855 ], [ -35.798559675397478, -9.25671208779988 ], [ -35.798372733397514, -9.256694927799888 ], [ -35.798212544397522, -9.256651062799909 ], [ -35.798048514397522, -9.256580490799887 ], [ -35.797884460397476, -9.25646412079988 ], [ -35.797724247397532, -9.256329683799949 ], [ -35.797537329397514, -9.256285795799922 ], [ -35.797400004397495, -9.256187563799983 ], [ -35.797235974397495, -9.256071193799974 ], [ -35.797121489397526, -9.25593675679996 ], [ -35.796984188397531, -9.255848094799957 ], [ -35.796797269397551, -9.25575840679997 ], [ -35.796610351397554, -9.255687812799986 ], [ -35.796518801397518, -9.255553374799993 ], [ -35.796331883397528, -9.255455167799974 ], [ -35.796125873397536, -9.255438915800038 ], [ -35.795938978397515, -9.255413164800013 ], [ -35.795935253397516, -9.255414258799997 ], [ -35.795774924397513, -9.255459917800003 ], [ -35.795768102397552, -9.2554599408 ], [ -35.795568936397515, -9.255460871800073 ], [ -35.795567470397508, -9.255461290800042 ], [ -35.795404883397531, -9.255507601800041 ], [ -35.79524471739753, -9.255581013800029 ], [ -35.795080640397494, -9.255645880800031 ], [ -35.794939521397517, -9.25573743080006 ], [ -35.794809786397515, -9.256298207800027 ], [ -35.794802149397526, -9.256296159799989 ], [ -35.778249273397591, -9.25182958680092 ], [ -35.765192359397645, -9.248306377801555 ], [ -35.764681175397648, -9.248047910801617 ], [ -35.764674748397631, -9.248049355801562 ], [ -35.76447136939759, -9.248094640801556 ], [ -35.764464617397614, -9.248094734801594 ], [ -35.764330226397654, -9.248096573801611 ], [ -35.764327524397629, -9.248096946801585 ], [ -35.764192924397612, -9.248115619801567 ], [ -35.764051758397613, -9.248161394801647 ], [ -35.763937320397638, -9.248207169801667 ], [ -35.763822860397624, -9.248253922801643 ], [ -35.763704628397633, -9.24828158280163 ], [ -35.763521528397625, -9.248328288801588 ], [ -35.763403272397625, -9.248347381801644 ], [ -35.76328881239759, -9.248375018801656 ], [ -35.763078983397605, -9.248439862801664 ], [ -35.762937863397589, -9.248468501801689 ], [ -35.762777627397583, -9.248514275801677 ], [ -35.762636531397582, -9.248561005801712 ], [ -35.762522071397562, -9.24860678180165 ], [ -35.762430474397576, -9.248725036801652 ], [ -35.762312242397584, -9.248834700801595 ], [ -35.762220692397598, -9.248907205801718 ], [ -35.762102436397591, -9.248953934801682 ], [ -35.762010886397555, -9.248999709801662 ], [ -35.76186974339754, -9.249018778801709 ], [ -35.761755306397561, -9.249064530801675 ], [ -35.76174799539757, -9.249064576801736 ], [ -35.761617981397599, -9.249065508801719 ], [ -35.761616352397553, -9.249065903801734 ], [ -35.761431040397554, -9.249112237801734 ], [ -35.761289897397532, -9.24914082980175 ], [ -35.76115257239757, -9.249159899801752 ], [ -35.760988541397566, -9.249205673801757 ], [ -35.76098146339757, -9.249205767801685 ], [ -35.760828352397546, -9.249207606801757 ], [ -35.760827211397554, -9.24920797880176 ], [ -35.76068718639754, -9.249253381801783 ], [ -35.760549838397523, -9.249272450801744 ], [ -35.76043158239758, -9.249345886801791 ], [ -35.760294258397543, -9.249419297801744 ], [ -35.760153114397525, -9.249465073801767 ], [ -35.760038677397553, -9.249484189801789 ], [ -35.759920444397515, -9.249575738801745 ], [ -35.759805984397559, -9.249603376801799 ], [ -35.759714411397532, -9.249713063801828 ], [ -35.759706378397503, -9.249713133801809 ], [ -35.75959613239754, -9.249714018801857 ], [ -35.759481742397519, -9.249714973801787 ], [ -35.759479716397514, -9.249715369801802 ], [ -35.75934057539753, -9.24974261080183 ], [ -35.759226161397535, -9.249761679801839 ], [ -35.759220270397549, -9.249761703801775 ], [ -35.759062131397542, -9.249762610801836 ], [ -35.75892480539752, -9.249764566801817 ], [ -35.758806526397535, -9.249764566801845 ], [ -35.758669202397535, -9.249738815801843 ], [ -35.758554741397525, -9.249694926801842 ], [ -35.758413621397509, -9.249677790801904 ], [ -35.75827629639754, -9.249624355801847 ], [ -35.758180928397522, -9.249580513801856 ], [ -35.75808937839755, -9.249535670801908 ], [ -35.757997805397522, -9.249490826801889 ], [ -35.757929142397558, -9.249374480801833 ], [ -35.75785666139754, -9.249284862801908 ], [ -35.75778799939755, -9.249194267801892 ], [ -35.757742224397575, -9.249104604801952 ], [ -35.757673585397562, -9.249005440801904 ], [ -35.757582012397549, -9.248897663801884 ], [ -35.757532418397545, -9.248753656801927 ], [ -35.757509530397563, -9.248618241801877 ], [ -35.757440868397559, -9.248483779801932 ], [ -35.757349318397608, -9.248394093801906 ], [ -35.757257745397574, -9.248294952801938 ], [ -35.757185264397563, -9.24820526680195 ], [ -35.757139489397574, -9.248115626801953 ], [ -35.757070827397577, -9.247998324801951 ], [ -35.757025051397612, -9.247908707801953 ], [ -35.756933502397565, -9.247819020801934 ], [ -35.75693350139759, -9.247655921801936 ], [ -35.756910614397597, -9.247449027801988 ], [ -35.756910613397615, -9.247340293801955 ], [ -35.756910613397601, -9.247222969801985 ], [ -35.756864839397608, -9.247015097801956 ], [ -35.756864839397629, -9.246807200801953 ], [ -35.756864838397647, -9.246699422802044 ], [ -35.756864838397654, -9.246419046801972 ], [ -35.756864838397661, -9.246283607802043 ], [ -35.756864838397654, -9.24609382580203 ], [ -35.756887725397675, -9.245894521802061 ], [ -35.756887725397675, -9.245704738801996 ], [ -35.756914431397668, -9.24555120980199 ], [ -35.756960205397661, -9.245406224802066 ], [ -35.757005980397714, -9.245297515802003 ], [ -35.757051755397704, -9.245134439802037 ], [ -35.757074642397711, -9.244999023801958 ], [ -35.757074642397718, -9.24483592480197 ], [ -35.757124235397697, -9.244700509802028 ], [ -35.757170010397687, -9.244555525801999 ], [ -35.75721578539774, -9.244446814802034 ], [ -35.757238672397754, -9.244328582801971 ], [ -35.757284470397728, -9.244193167802017 ], [ -35.757334040397723, -9.244074888802027 ], [ -35.757402702397712, -9.243966178802053 ], [ -35.757448477397766, -9.243848878802021 ], [ -35.757517163397729, -9.243757328802021 ], [ -35.757589644397754, -9.243567546802037 ], [ -35.757658329397728, -9.243413015801979 ], [ -35.757822336397766, -9.243276668802034 ], [ -35.757936774397798, -9.243203186802031 ], [ -35.758055006397775, -9.243129797802021 ], [ -35.758146556397762, -9.24306588580202 ], [ -35.758238105397766, -9.242975313802004 ], [ -35.758333497397793, -9.242929538801999 ], [ -35.75842504639779, -9.242856079801973 ], [ -35.75851662039782, -9.242765484801993 ], [ -35.75861196539779, -9.242673934801967 ], [ -35.758726425397825, -9.242600476801979 ], [ -35.758844681397818, -9.242536609801963 ], [ -35.758936231397797, -9.242490834801975 ], [ -35.75907355639778, -9.24241737680196 ], [ -35.759214699397788, -9.242325825802013 ], [ -35.759329159397822, -9.242261960801994 ], [ -35.759447391397792, -9.242216161801995 ], [ -35.759584716397818, -9.242124612801947 ], [ -35.759680108397824, -9.242006356801955 ], [ -35.759817433397856, -9.241914807801965 ], [ -35.75993568839781, -9.241823256801913 ], [ -35.76011878739785, -9.241686863801958 ], [ -35.760305706397837, -9.241612472801915 ], [ -35.760469736397852, -9.241593427801908 ], [ -35.760607061397884, -9.241547652801961 ], [ -35.760725317397821, -9.241519013801918 ], [ -35.761003785397861, -9.241454146801896 ], [ -35.761095334397865, -9.241408371801885 ], [ -35.761232682397875, -9.241316845801881 ], [ -35.761373825397889, -9.241261547801903 ], [ -35.761488263397858, -9.241242454801853 ], [ -35.761675204397896, -9.241195725801878 ], [ -35.761793436397866, -9.241176632801881 ], [ -35.761947083397857, -9.241149205801909 ], [ -35.761953649397903, -9.24114801780186 ], [ -35.762062032397886, -9.241190462801871 ], [ -35.762068109397852, -9.241192837801835 ], [ -35.76214059039787, -9.241102242801835 ], [ -35.762230720397866, -9.241039354801867 ], [ -35.762232140397849, -9.241038376801859 ], [ -35.762438662397898, -9.241054325801834 ], [ -35.7624419463979, -9.241054557801844 ], [ -35.762579270397886, -9.241035466801859 ], [ -35.762720414397883, -9.240899142801858 ], [ -35.762789052397899, -9.240780863801856 ], [ -35.762907331397905, -9.24061683280185 ], [ -35.762998904397939, -9.240526237801815 ], [ -35.763067566397915, -9.240435642801902 ], [ -35.763113342397915, -9.240317387801849 ], [ -35.763162935397929, -9.240163834801788 ], [ -35.763231574397956, -9.240045577801839 ], [ -35.763277348397963, -9.239909208801816 ], [ -35.763323123397967, -9.239764223801854 ], [ -35.763395627397948, -9.23965553780179 ], [ -35.763441378397914, -9.239564942801866 ], [ -35.763510064397934, -9.23947430080181 ], [ -35.763532929397954, -9.239374205801862 ], [ -35.763582545397973, -9.239192968801811 ], [ -35.763605455397972, -9.239075668801837 ], [ -35.763674094397977, -9.238922160801858 ], [ -35.763742757397964, -9.238776221801842 ], [ -35.763765644397971, -9.238668443801853 ], [ -35.763815237397992, -9.238576870801833 ], [ -35.76388392339797, -9.238431955801863 ], [ -35.763975472398009, -9.238323245801833 ], [ -35.764070841397974, -9.238231696801897 ], [ -35.764185254397994, -9.238185921801881 ], [ -35.764276828397996, -9.238112462801855 ], [ -35.764372197398004, -9.238048572801855 ], [ -35.764463746397993, -9.237948408801872 ], [ -35.764555296398036, -9.237902633801824 ], [ -35.764627777398012, -9.237812038801851 ], [ -35.764719326397987, -9.23774817280184 ], [ -35.764837606398039, -9.237720488801777 ], [ -35.764875743398044, -9.237466841801819 ], [ -35.764833763398038, -9.237286581801794 ], [ -35.764898630398051, -9.236960406801815 ], [ -35.764993696398037, -9.236644756801818 ], [ -35.76499399839809, -9.236643754801831 ], [ -35.765112254398097, -9.236651438801855 ], [ -35.765718806398063, -9.236728691801797 ], [ -35.766008683398056, -9.236888903801811 ], [ -35.76611171239805, -9.23698713580178 ], [ -35.766321518398037, -9.236986157801756 ], [ -35.766508412398061, -9.236984247801791 ], [ -35.766691559398041, -9.237072956801734 ], [ -35.766832679398057, -9.237162573801758 ], [ -35.767038666398065, -9.237160710801742 ], [ -35.767248471398062, -9.237186438801723 ], [ -35.767435412398044, -9.237185483801733 ], [ -35.767668106398098, -9.237183574801728 ], [ -35.767851206398042, -9.237181688801707 ], [ -35.768038124398046, -9.23718073380167 ], [ -35.768225018398063, -9.237188323801689 ], [ -35.768453940398082, -9.23718643780167 ], [ -35.768595083398033, -9.237293261801664 ], [ -35.768755272398082, -9.237346649801669 ], [ -35.768942213398063, -9.23736285480169 ], [ -35.769152042398083, -9.237406743801625 ], [ -35.769384759398058, -9.23745917780162 ], [ -35.769544948398035, -9.237503065801562 ], [ -35.769754730398041, -9.237528816801635 ], [ -35.769964535398039, -9.237526906801644 ], [ -35.770147659398084, -9.237588910801586 ], [ -35.770334600398058, -9.237614638801585 ], [ -35.770544406398052, -9.237612728801539 ], [ -35.770796168398064, -9.237610842801526 ], [ -35.771032679398083, -9.237600341801549 ], [ -35.771487215398025, -9.237973431801542 ], [ -35.771490429398042, -9.237976085801527 ], [ -35.772066457398068, -9.237627978801475 ], [ -35.772301595398062, -9.23760837280148 ], [ -35.772306786398069, -9.237607953801497 ], [ -35.772485579398037, -9.237607022801512 ], [ -35.772489910398065, -9.237606999801464 ], [ -35.772676828398062, -9.237586975801449 ], [ -35.772906238398107, -9.237558778801448 ], [ -35.772909521398105, -9.237558383801485 ], [ -35.77311315639809, -9.237556497801453 ], [ -35.773119326398088, -9.237556450801467 ], [ -35.773371088398072, -9.2375097208014 ], [ -35.773558029398089, -9.237463014801452 ], [ -35.77376783539809, -9.23741628480138 ], [ -35.773954777398117, -9.237379078801416 ], [ -35.774160741398092, -9.237259844801384 ], [ -35.774301907398097, -9.237168294801419 ], [ -35.774439208398078, -9.237076744801376 ], [ -35.774626126398083, -9.237048152801387 ], [ -35.774813067398128, -9.237001423801354 ], [ -35.774973256398113, -9.236909872801361 ], [ -35.775160221398153, -9.236755365801349 ], [ -35.775301341398105, -9.236636178801396 ], [ -35.775461577398104, -9.23656274280137 ], [ -35.775553126398115, -9.236408212801374 ], [ -35.775671358398149, -9.236245136801376 ], [ -35.775785818398177, -9.236036285801362 ], [ -35.775995624398185, -9.23578163680137 ], [ -35.776113903398191, -9.235645289801338 ], [ -35.776274092398168, -9.235463144801335 ], [ -35.776415258398174, -9.235326728801388 ], [ -35.776579265398198, -9.235208495801324 ], [ -35.776762365398213, -9.235115990801351 ], [ -35.776880620398174, -9.234979597801333 ], [ -35.777063743398188, -9.234932891801323 ], [ -35.777204886398195, -9.234842272801295 ], [ -35.777391804398192, -9.234678265801314 ], [ -35.777552017398222, -9.2345685778013 ], [ -35.777738934398236, -9.234467481801344 ], [ -35.777876282398253, -9.234375931801287 ], [ -35.77801740239822, -9.234284382801292 ], [ -35.778154727398253, -9.234192832801304 ], [ -35.778387444398213, -9.234083144801277 ], [ -35.778551474398228, -9.233963957801263 ], [ -35.778688822398237, -9.233872361801279 ], [ -35.778852853398249, -9.233780811801232 ], [ -35.779039770398249, -9.233662578801278 ], [ -35.779199983398271, -9.233597711801261 ], [ -35.779363989398256, -9.233461365801208 ], [ -35.779528020398253, -9.23336981480127 ], [ -35.779756919398309, -9.233322107801232 ], [ -35.779825162398268, -9.233303061801246 ], [ -35.779920949398317, -9.233276308801203 ], [ -35.780107891398281, -9.233201965801172 ], [ -35.780313854398273, -9.233110392801201 ], [ -35.780432110398287, -9.232974022801216 ], [ -35.780619051398332, -9.232882472801174 ], [ -35.780802150398316, -9.232718441801179 ], [ -35.780966181398306, -9.232625937801217 ], [ -35.781221761398292, -9.232605913801182 ], [ -35.78143159039832, -9.232559184801229 ], [ -35.781591826398326, -9.23246761080121 ], [ -35.781801608398354, -9.232394152801126 ], [ -35.782009691398308, -9.23234781880115 ], [ -35.78201141439834, -9.232347422801135 ], [ -35.782187505398362, -9.232345605801136 ], [ -35.782194536398343, -9.232345535801112 ], [ -35.78240434239833, -9.232280691801126 ], [ -35.78254401839834, -9.232163646801157 ], [ -35.782545485398344, -9.232162436801154 ], [ -35.782774360398349, -9.232188187801158 ], [ -35.782978508398315, -9.232186324801125 ], [ -35.782984165398361, -9.232186277801103 ], [ -35.783171107398331, -9.232157662801107 ], [ -35.783380912398314, -9.23209279580106 ], [ -35.783518213398338, -9.23197456280109 ], [ -35.783609787398348, -9.231792395801111 ], [ -35.783773817398355, -9.23165602480109 ], [ -35.783937848398352, -9.23156447480104 ], [ -35.784143835398382, -9.231517744801017 ], [ -35.784307888398381, -9.231398534801041 ], [ -35.784449008398418, -9.23128982580103 ], [ -35.784632108398384, -9.231142954801053 ], [ -35.784796138398391, -9.23105140480107 ], [ -35.784983103398403, -9.230959854801055 ], [ -35.785353097398392, -9.23082155180105 ], [ -35.785490422398418, -9.230711910801077 ], [ -35.785700228398397, -9.230665134801013 ], [ -35.785932944398446, -9.230618404801008 ], [ -35.786142750398433, -9.230571698801025 ], [ -35.786352555398445, -9.230452487800976 ], [ -35.786444105398431, -9.23031611880101 ], [ -35.786581453398441, -9.230179701800978 ], [ -35.786722619398432, -9.230043354800927 ], [ -35.786886626398463, -9.229879300800963 ], [ -35.786978199398433, -9.229742976800985 ], [ -35.787023974398487, -9.22957985580096 ], [ -35.787069749398476, -9.229398664800947 ], [ -35.787187982398457, -9.229262271800938 ], [ -35.787210868398482, -9.229027669800995 ], [ -35.787302418398504, -9.228845524801022 ], [ -35.787420674398476, -9.22868244880098 ], [ -35.787489336398529, -9.228519372800987 ], [ -35.787653390398511, -9.228454528800954 ], [ -35.787767827398497, -9.228318111801014 ], [ -35.787863195398529, -9.228181742801022 ], [ -35.787977632398508, -9.228036803801009 ], [ -35.788046295398537, -9.227855636800983 ], [ -35.788118775398523, -9.227692560800934 ], [ -35.788187438398573, -9.227538006800938 ], [ -35.78825610039857, -9.227347293800934 ], [ -35.788351468398595, -9.227211854800979 ], [ -35.788397242398602, -9.227030664800944 ], [ -35.788351468398616, -9.226868543801013 ], [ -35.788420130398606, -9.226659692801011 ], [ -35.788492610398585, -9.226496616800995 ], [ -35.788584184398601, -9.226360222800976 ], [ -35.788721508398567, -9.226250558800988 ], [ -35.788862651398588, -9.226132303800931 ], [ -35.78900377139864, -9.225995932800954 ], [ -35.789209782398615, -9.225903428800949 ], [ -35.789396676398653, -9.225829969800941 ], [ -35.789533466398645, -9.225738815800918 ], [ -35.789534024398606, -9.225738443800951 ], [ -35.789720965398644, -9.225737464800924 ], [ -35.790026139398634, -9.226069344800958 ], [ -35.799173796398385, -9.233135171800416 ], [ -35.806555304397961, -9.24662976079974 ], [ -35.827974691397792, -9.253776857798577 ], [ -35.827982560397793, -9.253779489798585 ], [ -35.82878363239832, -9.240221004798805 ], [ -35.835554705398586, -9.233843763798635 ], [ -35.835957506398586, -9.233769396798666 ], [ -35.835962930398594, -9.233768395798688 ], [ -35.836168941398583, -9.233812260798643 ], [ -35.836332972398573, -9.233909538798612 ], [ -35.836493161398629, -9.233953403798633 ], [ -35.836657191398622, -9.234015406798678 ], [ -35.836821222398626, -9.23406879579859 ], [ -35.836981481398588, -9.234112660798623 ], [ -35.837168375398569, -9.234128888798606 ], [ -35.837328588398584, -9.234200414798567 ], [ -35.837515506398567, -9.234198528798553 ], [ -35.837702424398564, -9.234224279798564 ], [ -35.837885547398571, -9.234268121798564 ], [ -35.838049578398568, -9.234311987798566 ], [ -35.838232655398592, -9.23433773879856 ], [ -35.838419619398572, -9.234353943798519 ], [ -35.838629401398592, -9.234379694798474 ], [ -35.838812501398593, -9.234423559798547 ], [ -35.838976555398581, -9.23446742579856 ], [ -35.839159632398591, -9.234519905798528 ], [ -35.839323685398597, -9.234581908798509 ], [ -35.839487716398594, -9.234625751798442 ], [ -35.839647952398586, -9.234724006798507 ], [ -35.839789095398572, -9.234813623798445 ], [ -35.839949308398623, -9.234884217798474 ], [ -35.840113315398568, -9.234991018798468 ], [ -35.84025064039858, -9.235153162798463 ], [ -35.840342237398573, -9.235296191798431 ], [ -35.840483380398581, -9.235448789798403 ], [ -35.840574930398546, -9.235592772798435 ], [ -35.840643569398559, -9.235754894798417 ], [ -35.840666480398525, -9.235935152798405 ], [ -35.840735119398516, -9.236097274798398 ], [ -35.840780917398547, -9.236250827798358 ], [ -35.840803805398522, -9.236458746798361 ], [ -35.840830511398501, -9.236665664798414 ], [ -35.840853375398517, -9.236855469798291 ], [ -35.840826693398498, -9.23708147979838 ], [ -35.840826693398476, -9.237352310798384 ], [ -35.840826693398476, -9.237542116798329 ], [ -35.840826693398462, -9.237750011798322 ], [ -35.840780919398462, -9.238021797798348 ], [ -35.840780920398444, -9.238247831798349 ], [ -35.840758032398433, -9.238455726798348 ], [ -35.840685528398438, -9.238618803798358 ], [ -35.840685529398428, -9.238799085798323 ], [ -35.840685529398428, -9.238988843798356 ], [ -35.840662664398394, -9.239170033798324 ], [ -35.840616890398387, -9.239351247798357 ], [ -35.840593979398406, -9.239541006798367 ], [ -35.840567273398371, -9.2397393797983 ], [ -35.840498634398408, -9.239903409798353 ], [ -35.840498634398415, -9.24011039779834 ], [ -35.840475724398352, -9.240291564798316 ], [ -35.840452860398386, -9.240499460798347 ], [ -35.840607904398389, -9.240578926798324 ], [ -35.840609231398403, -9.240579601798263 ], [ -35.849234332398453, -9.239155753797895 ], [ -35.852370002398708, -9.232988274797888 ], [ -35.853224515398999, -9.226476556798056 ], [ -35.850439759399229, -9.219271466798359 ], [ -35.8361460164001, -9.194087624799542 ], [ -35.832903510400385, -9.186433354799785 ], [ -35.847953792400638, -9.18207115579925 ] ] ] ] } }
]
}
