{
"type": "FeatureCollection",
"name": "ZA_MONA_do_Sao_Francisco",
"crs": { "type": "name", "properties": { "name": "urn:ogc:def:crs:OGC:1.3:CRS84" } },
"features": [
{ "type": "Feature", "properties": { "id": null }, "geometry": { "type": "MultiPolygon", "coordinates": [ [ [ [ -38.158810823000366, -9.391749324044637 ], [ -38.136162945986051, -9.391179208202905 ], [ -38.083402926391337, -9.421541911528172 ], [ -38.035608985702545, -9.415834532787374 ], [ -38.010918204454612, -9.42565079823987 ], [ -38.018654506496794, -9.446807344775136 ], [ -38.009503570677772, -9.449015444350199 ], [ -37.992084519938082, -9.45982720120776 ], [ -37.894236113108818, -9.447631720902844 ], [ -37.850719522469127, -9.461183430577162 ], [ -37.841112120208962, -9.509523305478256 ], [ -37.805819351438636, -9.526224335002393 ], [ -37.767169824112592, -9.545785113062001 ], [ -37.801980662744377, -9.594919327154429 ], [ -37.821683010500692, -9.62296585791619 ], [ -37.904328261280646, -9.645149276246501 ], [ -38.056445059409356, -9.647695199687801 ], [ -38.140879675829176, -9.501707135403894 ], [ -38.152608019087452, -9.496426811393325 ], [ -38.192491853248221, -9.49611436332051 ], [ -38.188056772730192, -9.480014855347552 ], [ -38.197182344687441, -9.459977111526575 ], [ -38.18775216583618, -9.456996515900821 ], [ -38.165542183754631, -9.440584615939711 ], [ -38.16704153351273, -9.43826387175833 ], [ -38.168963880014012, -9.43806040611307 ], [ -38.17088979125257, -9.436364683242504 ], [ -38.176003040519966, -9.434893479578731 ], [ -38.184554336121636, -9.42772341324444 ], [ -38.198844581813113, -9.42393962318746 ], [ -38.210366702240357, -9.419733010868462 ], [ -38.207435721782616, -9.394954747758609 ], [ -38.217937231402921, -9.370215406645865 ], [ -38.222210440070263, -9.365142021596728 ], [ -38.207093697666892, -9.35706834222518 ], [ -38.198969165160015, -9.369747961658643 ], [ -38.191934993426287, -9.371423227101021 ], [ -38.180823764129549, -9.40293419247798 ], [ -38.158810823000366, -9.391749324044637 ] ], [ [ -37.938436586393046, -9.507663446694052 ], [ -37.940297200393047, -9.506919199693964 ], [ -37.940695199393076, -9.50676000069393 ], [ -37.941473762393073, -9.506266909693899 ], [ -37.941663176393121, -9.506146947693912 ], [ -37.942132402393121, -9.505901757693973 ], [ -37.942566621393127, -9.505921085693885 ], [ -37.943179673393146, -9.505727490693911 ], [ -37.943631395393147, -9.50524350169384 ], [ -37.943861558393117, -9.504859896693887 ], [ -37.944599371393174, -9.503630207693851 ], [ -37.944986562393211, -9.503210750693837 ], [ -37.945148458393206, -9.503181314693856 ], [ -37.94549610939319, -9.503118105693824 ], [ -37.945696411393243, -9.503081686693795 ], [ -37.946083602393188, -9.503243015693794 ], [ -37.946286201393207, -9.503631327693801 ], [ -37.946470794393171, -9.503985130693753 ], [ -37.946890251393164, -9.504824042693702 ], [ -37.947922761393144, -9.505469357693629 ], [ -37.948697143393119, -9.505662952693617 ], [ -37.949349019393118, -9.505620853693523 ], [ -37.961538196393001, -9.507776029692934 ], [ -37.980815791392537, -9.518729243691746 ], [ -37.991662657393569, -9.493350833691879 ], [ -37.995004235393623, -9.491842397691787 ], [ -37.994945624393729, -9.489930702691746 ], [ -37.996234607393781, -9.488086592691779 ], [ -37.999575109393795, -9.487012953691641 ], [ -38.001700797393958, -9.483683870691577 ], [ -38.001728136394, -9.482282750691677 ], [ -37.99916639339407, -9.480406390691835 ], [ -37.998324904394352, -9.474184947692024 ], [ -37.999855364394399, -9.472070547691953 ], [ -38.006756079394556, -9.468712977691711 ], [ -38.006983059394607, -9.467146996691758 ], [ -38.008029534394652, -9.465896541691716 ], [ -38.007963439394672, -9.465168706691738 ], [ -38.024944689395049, -9.455669019691214 ], [ -38.045219407395479, -9.444418652690484 ], [ -38.063776024395899, -9.433461758689832 ], [ -38.064917538395946, -9.433262484689809 ], [ -38.067119500395926, -9.432701861689747 ], [ -38.06956573339594, -9.432222792689616 ], [ -38.071034097395973, -9.431700666689512 ], [ -38.075358532396031, -9.429810340689384 ], [ -38.075437875395998, -9.430619785689355 ], [ -38.075436475395989, -9.43114578768934 ], [ -38.075598500395991, -9.431510370689342 ], [ -38.075964054395939, -9.431956409689338 ], [ -38.076125757395928, -9.432442376689265 ], [ -38.076165537395937, -9.432806637689245 ], [ -38.076204886395928, -9.433332745689206 ], [ -38.076447873395885, -9.433899848689244 ], [ -38.07689503639584, -9.434305640689198 ], [ -38.078807561395827, -9.435322198689081 ], [ -38.079335477395823, -9.436011432689041 ], [ -38.079659003395761, -9.436942902689028 ], [ -38.079777818395719, -9.438237994688985 ], [ -38.079699850395656, -9.438973706688959 ], [ -38.08911945939581, -9.435376765688584 ], [ -38.090818460395802, -9.434727991688501 ], [ -38.091269903395855, -9.434429236688494 ], [ -38.091768225395853, -9.434127028688481 ], [ -38.094115648395892, -9.433221918688425 ], [ -38.096225685395908, -9.432113702688298 ], [ -38.097281708395982, -9.431171506688322 ], [ -38.097555525396004, -9.430429782688256 ], [ -38.109126102396161, -9.425751240687918 ], [ -38.116579174396065, -9.427259933687465 ], [ -38.117739752396247, -9.42275054168754 ], [ -38.121965047396316, -9.421278496687393 ], [ -38.125486863396247, -9.422881996687146 ], [ -38.125475880396273, -9.423099561687131 ], [ -38.125238527396235, -9.423707803687133 ], [ -38.12476594039618, -9.424081295687147 ], [ -38.124244772396167, -9.425016664687151 ], [ -38.124101745396167, -9.425625139687114 ], [ -38.124051982396132, -9.426655345687099 ], [ -38.123814033396094, -9.42749775068709 ], [ -38.123198408396043, -9.428479714687114 ], [ -38.12121144139595, -9.430863252687141 ], [ -38.120973599395931, -9.431658821687094 ], [ -38.120971820395901, -9.432361313687146 ], [ -38.121016139395842, -9.433485417687045 ], [ -38.121061408395803, -9.434234860687102 ], [ -38.120776752395756, -9.434889812687056 ], [ -38.120114177395735, -9.435777985687059 ], [ -38.120113227395713, -9.436152648687122 ], [ -38.120536651395703, -9.436575205687046 ], [ -38.121054883395686, -9.436810664687021 ], [ -38.122703915395661, -9.437517275686909 ], [ -38.123834482395644, -9.438082090686883 ], [ -38.124681582395588, -9.438833528686782 ], [ -38.124915995395561, -9.439396109686772 ], [ -38.12479190739559, -9.440183849686731 ], [ -38.1259685783956, -9.43976774068666 ], [ -38.128561270395558, -9.439259554686583 ], [ -38.132191215395586, -9.438473207686467 ], [ -38.133133305395589, -9.438569096686345 ], [ -38.134170097395589, -9.438478082686386 ], [ -38.134688259395631, -9.438526140686363 ], [ -38.135253304395597, -9.438667879686307 ], [ -38.13666725939558, -9.438484218686249 ], [ -38.140579419395621, -9.437885609686036 ], [ -38.142276182395626, -9.43765583068593 ], [ -38.143171275395602, -9.437704795685899 ], [ -38.1440655613956, -9.438081240685861 ], [ -38.144958350395591, -9.439065866685809 ], [ -38.145617058395572, -9.439441736685756 ], [ -38.14679485739552, -9.439491378685704 ], [ -38.147312333395526, -9.43982011868564 ], [ -38.147876698395521, -9.440242538685629 ], [ -38.148771341395481, -9.440478622685584 ], [ -38.149053582395531, -9.44066643968557 ], [ -38.149664379395482, -9.441369672685516 ], [ -38.150181976395451, -9.441651625685521 ], [ -38.150935503395466, -9.441793796685467 ], [ -38.151689030395431, -9.441935965685433 ], [ -38.152489446395435, -9.442171813685379 ], [ -38.153006819395394, -9.442547329685343 ], [ -38.154136714395399, -9.442924318685254 ], [ -38.154701777395395, -9.443066027685228 ], [ -38.155095356395393, -9.443066973685228 ], [ -38.154893970395655, -9.436318386685368 ], [ -38.151977398395701, -9.435093814685592 ], [ -38.190152459396607, -9.411469753684292 ], [ -38.19115598339669, -9.409415055684297 ], [ -38.192403160396687, -9.410457558684255 ], [ -38.19338008239658, -9.411532976684144 ], [ -38.194322616396576, -9.412876610684119 ], [ -38.19516251939649, -9.414790136684013 ], [ -38.197231860396215, -9.420836831683722 ], [ -38.198175953396209, -9.420648645683674 ], [ -38.199876955396242, -9.420127393683581 ], [ -38.201238080396266, -9.419567854683535 ], [ -38.202220696396267, -9.419345029683567 ], [ -38.203656932396299, -9.418973192683524 ], [ -38.204337534396288, -9.418674662683463 ], [ -38.204867728396323, -9.418075723683435 ], [ -38.205134369396355, -9.417101106683441 ], [ -38.204763416396474, -9.414137106683569 ], [ -38.204466468396596, -9.411848423683596 ], [ -38.204242065396627, -9.410872699683615 ], [ -38.203904261396652, -9.40993422768368 ], [ -38.203568346396736, -9.408170574683714 ], [ -38.203570921396775, -9.407045327683736 ], [ -38.203497953396827, -9.405919911683808 ], [ -38.202786218396959, -9.403330224683872 ], [ -38.201997317397023, -9.40145302168396 ], [ -38.201357272397047, -9.40055137368401 ], [ -38.200489658397053, -9.400061802684071 ], [ -38.199924472397115, -9.399460387684108 ], [ -38.1993970593971, -9.39885905868419 ], [ -38.198831704397122, -9.398332660684211 ], [ -38.197700310397188, -9.397579924684281 ], [ -38.196192165397228, -9.396413738684362 ], [ -38.194570461397291, -9.39535981168447 ], [ -38.194230094397248, -9.395546577684515 ], [ -38.194041242397276, -9.39554614668452 ], [ -38.193588605397281, -9.395282555684497 ], [ -38.192759741397289, -9.394380463684627 ], [ -38.19336467339734, -9.39411928668455 ], [ -38.193856554397307, -9.393745324684572 ], [ -38.194726915397354, -9.393034649684566 ], [ -38.195369613397396, -9.392773554684489 ], [ -38.195490020397521, -9.38969814268453 ], [ -38.195718541397547, -9.38887347768458 ], [ -38.195720011397555, -9.388235838684619 ], [ -38.195645943397579, -9.387598027684609 ], [ -38.195269632397626, -9.386997037684655 ], [ -38.194817610397656, -9.386470892684658 ], [ -38.194554176397652, -9.386057699684686 ], [ -38.194404398397687, -9.385494732684686 ], [ -38.194370266397748, -9.383919303684799 ], [ -38.194900938397751, -9.383095327684739 ], [ -38.195771268397785, -9.382384646684759 ], [ -38.197624019397828, -9.38148865068465 ], [ -38.198456744397838, -9.380702860684629 ], [ -38.199025858397938, -9.379578895684663 ], [ -38.199217196397953, -9.378491584684726 ], [ -38.199068703398012, -9.377365995684656 ], [ -38.198655917398035, -9.376202299684746 ], [ -38.198242704398076, -9.375226145684834 ], [ -38.198017645398103, -9.374550484684844 ], [ -38.197943367398132, -9.374002692684824 ], [ -38.19798251239817, -9.373402647684841 ], [ -38.202963309398051, -9.375424343684587 ], [ -38.203234632397489, -9.388927999684185 ], [ -38.198995546397363, -9.392781789684399 ], [ -38.196878517397359, -9.393602170684419 ], [ -38.195897011397349, -9.393374888684464 ], [ -38.194990006397354, -9.393597874684543 ], [ -38.194724489397338, -9.394084878684513 ], [ -38.194911780397277, -9.394760455684477 ], [ -38.195364159397286, -9.39513656968445 ], [ -38.19619458839729, -9.39536350868447 ], [ -38.196986556397256, -9.395890426684362 ], [ -38.198532299397208, -9.397131712684205 ], [ -38.199361960397141, -9.397696219684216 ], [ -38.200191451397167, -9.398335740684161 ], [ -38.201133828397133, -9.399163057684081 ], [ -38.201586220397118, -9.399539164684048 ], [ -38.202379151397082, -9.399653481683956 ], [ -38.203324025397123, -9.399393053683946 ], [ -38.202716943397029, -9.400591953683945 ], [ -38.202715655397036, -9.401154577683984 ], [ -38.202865623396988, -9.40164252568392 ], [ -38.203241533396948, -9.402431049683896 ], [ -38.203768015396903, -9.403444964683876 ], [ -38.204067614396877, -9.404570892683783 ], [ -38.204027613396832, -9.405546021683794 ], [ -38.204138355396786, -9.406671523683761 ], [ -38.204323784396735, -9.408172278683693 ], [ -38.20477344739664, -9.409748645683656 ], [ -38.205110053396595, -9.411212230683599 ], [ -38.205258829396563, -9.412225293683559 ], [ -38.205256944396517, -9.413050474683518 ], [ -38.205407262396506, -9.413388388683545 ], [ -38.205709271396493, -9.413464085683493 ], [ -38.205935820396498, -9.413502104683486 ], [ -38.205783102396488, -9.414214420683486 ], [ -38.20578181839646, -9.414777044683486 ], [ -38.205856164396444, -9.415302328683477 ], [ -38.206156547396375, -9.416090682683416 ], [ -38.206456846396357, -9.416916543683437 ], [ -38.206455477396368, -9.417516674683386 ], [ -38.20630301539633, -9.418116466683397 ], [ -38.205733250396243, -9.419502993683352 ], [ -38.205468152396236, -9.419802463683361 ], [ -38.205241428396263, -9.419839460683372 ], [ -38.204335302396267, -9.419649875683426 ], [ -38.203844423396284, -9.419573750683432 ], [ -38.203353115396283, -9.419685165683417 ], [ -38.202445356396233, -9.420208230683503 ], [ -38.201613312396233, -9.420656446683589 ], [ -38.200819300396198, -9.420992223683536 ], [ -38.200063403396207, -9.421178050683553 ], [ -38.198854227396232, -9.421362845683639 ], [ -38.198022869396198, -9.421510988683698 ], [ -38.197040678396206, -9.421546261683702 ], [ -38.1955291413962, -9.421805372683757 ], [ -38.192996765396138, -9.422474733683904 ], [ -38.190955086396158, -9.423295233683939 ], [ -38.189669479396137, -9.423854903684038 ], [ -38.188195439396118, -9.424226593684105 ], [ -38.18687284239612, -9.424448593684154 ], [ -38.185625437396077, -9.424820795684221 ], [ -38.184679692396088, -9.425418739684229 ], [ -38.184036661396036, -9.425792332684216 ], [ -38.183545163396055, -9.425978735684264 ], [ -38.183016156396043, -9.426052524684286 ], [ -38.182373739396041, -9.426163559684289 ], [ -38.18154192539599, -9.426499201684381 ], [ -38.180786541396003, -9.42645993768439 ], [ -38.180031599396038, -9.426233132684432 ], [ -38.179540986396063, -9.426044448684536 ], [ -38.178898657396033, -9.426117969684496 ], [ -38.178293482396043, -9.426454131684489 ], [ -38.177724924396017, -9.427277984684498 ], [ -38.177534723395979, -9.427840162684522 ], [ -38.177268707395939, -9.42851468668448 ], [ -38.176750743395935, -9.429378302684468 ], [ -38.176126438395862, -9.430163462684565 ], [ -38.175671620395853, -9.431061392684558 ], [ -38.175104697395817, -9.431509562684511 ], [ -38.174708463395831, -9.431564821684553 ], [ -38.174029971395818, -9.431338481684577 ], [ -38.173520567395862, -9.43139347368459 ], [ -38.17159370639579, -9.43262506168467 ], [ -38.170459708395754, -9.433577571684694 ], [ -38.168930005395715, -9.434360582684796 ], [ -38.166946393395662, -9.435648195684808 ], [ -38.165586973395662, -9.436206845684902 ], [ -38.163149970395601, -9.43777429468496 ], [ -38.1604856463955, -9.439734490685039 ], [ -38.159466268395519, -9.440069177685089 ], [ -38.157765799395463, -9.441245035685164 ], [ -38.15714170439545, -9.441917783685208 ], [ -38.156799995395417, -9.442815953685104 ], [ -38.15681638839537, -9.44323068168516 ], [ -38.157006391395349, -9.443388204685075 ], [ -38.163519509395172, -9.448787815684646 ], [ -38.164989992395135, -9.449128433684592 ], [ -38.16736400439504, -9.450257805684474 ], [ -38.168494697395076, -9.450709978684428 ], [ -38.169513294395074, -9.45071238668436 ], [ -38.169794756395028, -9.451331108684304 ], [ -38.172906336394995, -9.45167556868414 ], [ -38.173836363394976, -9.453023819684104 ], [ -38.168787461394814, -9.457147864684188 ], [ -38.167978490394738, -9.458280000684244 ], [ -38.167774683394718, -9.459213441684216 ], [ -38.167656415394667, -9.460415970684176 ], [ -38.167933799394682, -9.46026535268423 ], [ -38.168902979394652, -9.460107332684148 ], [ -38.174166535394647, -9.460215941683892 ], [ -38.175232439394669, -9.460122258683846 ], [ -38.176589745394679, -9.459708624683731 ], [ -38.179078905394697, -9.458624307683674 ], [ -38.180694849394754, -9.458083009683628 ], [ -38.183311645394745, -9.4576402206835 ], [ -38.183504269394746, -9.458121615683453 ], [ -38.183406029394739, -9.458698523683484 ], [ -38.182693914394719, -9.45940225568347 ], [ -38.181594506394646, -9.460008894683522 ], [ -38.181205697394638, -9.460553059683548 ], [ -38.181204105394613, -9.461226382683563 ], [ -38.181493455394595, -9.461772129683489 ], [ -38.182105741394544, -9.462318630683466 ], [ -38.182234082394523, -9.462671623683416 ], [ -38.182038729394527, -9.463344493683461 ], [ -38.181811158394517, -9.463985225683425 ], [ -38.182068597394483, -9.46437058368341 ], [ -38.182681949394507, -9.46446820068337 ], [ -38.183425460394503, -9.464149300683346 ], [ -38.184233179394482, -9.463990863683293 ], [ -38.185428194394483, -9.463929513683215 ], [ -38.186817424394519, -9.463676230683175 ], [ -38.188886169394529, -9.462847374683118 ], [ -38.189661290394525, -9.462817101683047 ], [ -38.19011280039453, -9.463074649683055 ], [ -38.190595928394472, -9.463620837683001 ], [ -38.191015521394483, -9.463717994682948 ], [ -38.19179094339448, -9.463559464682962 ], [ -38.19347267939456, -9.462505248682875 ], [ -38.191301217394383, -9.465834823682959 ], [ -38.190556807394366, -9.466538496682963 ], [ -38.190023967394353, -9.466697467683007 ], [ -38.190235521394186, -9.470370099682837 ], [ -38.182462375393904, -9.478546381683032 ], [ -38.182575911393904, -9.478668023683017 ], [ -38.183083923393887, -9.479231077683 ], [ -38.183478617393845, -9.479850056682947 ], [ -38.183474100393774, -9.481760407682938 ], [ -38.183528435393747, -9.482715715682913 ], [ -38.183751756393654, -9.484008538682836 ], [ -38.183748568393625, -9.485357021682846 ], [ -38.18385657539352, -9.487548570682751 ], [ -38.183851392393457, -9.489739853682677 ], [ -38.184245034393385, -9.490808325682636 ], [ -38.184865859393376, -9.49154020468262 ], [ -38.150536449393663, -9.485921724684426 ], [ -38.144520929393217, -9.496829845684397 ], [ -38.144174984393274, -9.495930290684395 ], [ -38.144107237393293, -9.495169679684496 ], [ -38.144458156393306, -9.494064435684448 ], [ -38.145089665393414, -9.492130299684497 ], [ -38.145302164393449, -9.490679057684552 ], [ -38.144957593393542, -9.489226455684584 ], [ -38.143778454393633, -9.487357025684664 ], [ -38.142945776393624, -9.486179754684736 ], [ -38.142250134393663, -9.485901525684772 ], [ -38.141136180393659, -9.485829663684873 ], [ -38.140579635393678, -9.485620903684877 ], [ -38.139884858393728, -9.4849970156849 ], [ -38.139398981393732, -9.484373639684975 ], [ -38.138355702393767, -9.48388715468506 ], [ -38.13800805839378, -9.483678906685125 ], [ -38.137591991393812, -9.482986568685089 ], [ -38.13745445439384, -9.482294915685127 ], [ -38.137525985393872, -9.481534648685088 ], [ -38.138155778393894, -9.480291833685149 ], [ -38.138297283393911, -9.479393473685157 ], [ -38.137742993393992, -9.478286008685213 ], [ -38.136910528394019, -9.477039595685275 ], [ -38.136494470394055, -9.476347256685312 ], [ -38.136357109394105, -9.475586473685366 ], [ -38.13608688239426, -9.472267503685398 ], [ -38.135839930394319, -9.470780570685468 ], [ -38.135148303394367, -9.468912319685586 ], [ -38.134386015394441, -9.467458681685599 ], [ -38.13397135639449, -9.466213294685669 ], [ -38.133766452394518, -9.46462276768573 ], [ -38.133490709394593, -9.463515985685811 ], [ -38.13300573739464, -9.462546948685818 ], [ -38.132209486394707, -9.461155424685892 ], [ -38.128990638394583, -9.463997000685977 ], [ -38.127152983394552, -9.465417542686012 ], [ -38.125476398394476, -9.46620509368611 ], [ -38.124758118394467, -9.466440819686147 ], [ -38.122597646394404, -9.469364807686125 ], [ -38.12115563239427, -9.47197388968616 ], [ -38.120035193394166, -9.47355452868622 ], [ -38.119315482394157, -9.474344445686157 ], [ -38.119104891394628, -9.463101428686485 ], [ -38.104582775394491, -9.466627428687055 ], [ -38.08511185039373, -9.485426105687571 ], [ -38.082283772393744, -9.485808523687693 ], [ -38.080209329393746, -9.486198938687728 ], [ -38.078932128393738, -9.486670610687769 ], [ -38.07781483939371, -9.486984355687854 ], [ -38.076776024393702, -9.487773333687901 ], [ -38.075018214393651, -9.489035436687971 ], [ -38.072942044393599, -9.490059172687991 ], [ -38.070787182393573, -9.490686829688116 ], [ -38.069270929393589, -9.491078656688201 ], [ -38.067675567393536, -9.491232753688291 ], [ -38.065522407393566, -9.491227010688343 ], [ -38.064006792393549, -9.491381302688408 ], [ -38.062569201393558, -9.492169166688463 ], [ -38.061210057393453, -9.493432261688508 ], [ -38.059851552393432, -9.494457838688566 ], [ -38.05873422639344, -9.494771518688591 ], [ -38.057537584393401, -9.494926638688669 ], [ -38.05618188039341, -9.494922983688708 ], [ -38.054825091393404, -9.495315175688743 ], [ -38.053786855393369, -9.495866566688829 ], [ -38.052907023393324, -9.496814235688795 ], [ -38.052825318393282, -9.497526553688846 ], [ -38.052983073393293, -9.498160348688772 ], [ -38.054017841393275, -9.498875686688715 ], [ -38.054494375393219, -9.499589514688664 ], [ -38.054173209393191, -9.500380355688662 ], [ -38.053692544393172, -9.501170763688652 ], [ -38.051775526393151, -9.502273962688731 ], [ -38.050019086393114, -9.502981731688767 ], [ -38.049298942393079, -9.503850652688799 ], [ -38.048976011392995, -9.505274848688821 ], [ -38.048252138392932, -9.507489660688764 ], [ -38.047526503392831, -9.510337831688766 ], [ -38.04617052339281, -9.510413301688809 ], [ -38.045293925392812, -9.510173394688806 ], [ -38.044178736392837, -9.509695320688893 ], [ -38.042902510392814, -9.509770996688969 ], [ -38.039630315392806, -9.510632892689159 ], [ -38.038037960392842, -9.509678464689213 ], [ -38.036526472392879, -9.508328399689297 ], [ -38.035255796392981, -9.506424801689452 ], [ -38.034222162393021, -9.505313559689528 ], [ -38.032947509393047, -9.504835011689599 ], [ -38.03119458939306, -9.504275963689688 ], [ -38.02804056239313, -9.502737727689865 ], [ -38.025027473392065, -9.529719474689349 ], [ -38.027809228391902, -9.533422918689105 ], [ -38.022738021391852, -9.534743281689332 ], [ -38.028410260391581, -9.540302655688937 ], [ -38.02941103339117, -9.55211107168857 ], [ -38.026891648391192, -9.550594087688742 ], [ -38.022872246391046, -9.554691507688794 ], [ -38.018524115390726, -9.562270139688888 ], [ -38.016670858390619, -9.564982976688862 ], [ -38.01344579039047, -9.568578234688939 ], [ -38.010579387390351, -9.571642680689022 ], [ -38.007894272390253, -9.57376220168908 ], [ -38.004376355390171, -9.575642956689254 ], [ -38.002171232390189, -9.57646385868928 ], [ -38.000801287390168, -9.576696269689416 ], [ -37.999551445390189, -9.57657449168943 ], [ -37.997945966390169, -9.575919887689466 ], [ -37.995328442390246, -9.57526234768963 ], [ -37.994263027390218, -9.575279659689691 ], [ -37.992144283390225, -9.575573806689874 ], [ -37.990268286390219, -9.575628411689898 ], [ -37.987425373390238, -9.575259774690061 ], [ -37.983378873390336, -9.57266542469028 ], [ -37.982592070390353, -9.572723178690365 ], [ -37.981443282390352, -9.572419516690429 ], [ -37.979810421390404, -9.572114428690465 ], [ -37.976546327390416, -9.570963708690661 ], [ -37.975398631390469, -9.570299680690743 ], [ -37.972317724390514, -9.568608940690918 ], [ -37.972239708390312, -9.574434372690781 ], [ -37.968181933390227, -9.575623498690996 ], [ -37.964970730390199, -9.576995273691098 ], [ -37.962908651390144, -9.578550629691167 ], [ -37.961329542390047, -9.580467766691168 ], [ -37.955395246390808, -9.562854270691897 ], [ -37.937284069390984, -9.557694527692947 ], [ -37.934871851391037, -9.557687145693011 ], [ -37.934589754390828, -9.562208932692844 ], [ -37.933510737390748, -9.564422606692904 ], [ -37.930198668390666, -9.566452047692991 ], [ -37.930909259390567, -9.567784424692961 ], [ -37.936346557390408, -9.571880376692572 ], [ -37.936876011390325, -9.574010304692521 ], [ -37.935803034390318, -9.574273053692579 ], [ -37.935173471390264, -9.575601313692541 ], [ -37.932760297390274, -9.575859938692686 ], [ -37.931145968390204, -9.577805912692643 ], [ -37.930075476390229, -9.577270537692723 ], [ -37.931423156390309, -9.574880350692739 ], [ -37.930911664390344, -9.574189702692793 ], [ -37.928941487390389, -9.573651741692904 ], [ -37.926731766390333, -9.574176802693028 ], [ -37.926310484390378, -9.573413132692982 ], [ -37.927401364390455, -9.571111705693044 ], [ -37.926913959390497, -9.57026474669307 ], [ -37.924142457390388, -9.573636897693085 ], [ -37.916940097390764, -9.564463327693693 ], [ -37.914903540390782, -9.564122405693784 ], [ -37.912828725390739, -9.564723046693887 ], [ -37.910613682390689, -9.566672406693979 ], [ -37.910915332390623, -9.567988795693882 ], [ -37.91274640039056, -9.569242518693814 ], [ -37.914915692390579, -9.569376786693688 ], [ -37.91481471539047, -9.570699350693619 ], [ -37.916574214390373, -9.573099630693497 ], [ -37.915720690390344, -9.57434495169348 ], [ -37.913070570390353, -9.574168014693688 ], [ -37.912226153390435, -9.572546361693679 ], [ -37.909541639390433, -9.572504208693829 ], [ -37.907421896390296, -9.57651132469389 ], [ -37.911606444390159, -9.580145423693578 ], [ -37.913373997390131, -9.579730242693476 ], [ -37.915399234390144, -9.579664799693385 ], [ -37.917426746390149, -9.578881538693327 ], [ -37.919311029390215, -9.57810011069321 ], [ -37.920396787390196, -9.578643161693144 ], [ -37.920356942390107, -9.580498153693135 ], [ -37.915893874389951, -9.584025811693261 ], [ -37.905694121389921, -9.585444123693717 ], [ -37.886524976389914, -9.585100415694665 ], [ -37.885443422389969, -9.584092012694693 ], [ -37.884143972390014, -9.583370027694805 ], [ -37.882627563390066, -9.58264733869493 ], [ -37.881326009390058, -9.582571361694947 ], [ -37.880168159390038, -9.582782965694976 ], [ -37.880160728389939, -9.585475010694903 ], [ -37.878062817389939, -9.585216693695086 ], [ -37.875028131389996, -9.584345495695207 ], [ -37.873512925390024, -9.583263870695317 ], [ -37.872287725390059, -9.581967842695356 ], [ -37.870988317390129, -9.581245811695464 ], [ -37.869903976390098, -9.581098719695554 ], [ -37.869036363390137, -9.581024111695527 ], [ -37.868604339390153, -9.580448461695621 ], [ -37.868608617390208, -9.579156431695678 ], [ -37.86825153139025, -9.577791442695668 ], [ -37.86876038739031, -9.577003519695726 ], [ -37.869845188390279, -9.577007055695654 ], [ -37.871001361390292, -9.577297940695589 ], [ -37.871508076390278, -9.577156028695589 ], [ -37.87136533239029, -9.576581322695548 ], [ -37.870571235390315, -9.576148056695663 ], [ -37.869126262390346, -9.575712668695733 ], [ -37.867610400390362, -9.574846362695816 ], [ -37.866382396390399, -9.574411672695817 ], [ -37.865155586390436, -9.573618081695948 ], [ -37.864508289390479, -9.572539262696031 ], [ -37.863716357390508, -9.571459969696052 ], [ -37.863138285390512, -9.571314516696095 ], [ -37.858382501390736, -9.566130748696425 ], [ -37.856717041390738, -9.566771290696543 ], [ -37.854473994390681, -9.56712279869668 ], [ -37.853461307390667, -9.567191237696642 ], [ -37.852667018390676, -9.566829714696699 ], [ -37.852161277390692, -9.566684483696777 ], [ -37.851076032390687, -9.566824455696841 ], [ -37.850784352390683, -9.567541287696748 ], [ -37.850853535390641, -9.568474654696786 ], [ -37.850706488390628, -9.569191966696771 ], [ -37.850199056390608, -9.569549185696816 ], [ -37.849475876390599, -9.569546789696815 ], [ -37.848750763390584, -9.570118624696793 ], [ -37.848603227390548, -9.570979492696786 ], [ -37.8484559323905, -9.571768580696824 ], [ -37.848164482390501, -9.572413630696795 ], [ -37.847801438390441, -9.572843104696831 ], [ -37.847078494390487, -9.572768924696835 ], [ -37.846213334390534, -9.571976473696884 ], [ -37.846216483390513, -9.571043347696907 ], [ -37.846364267390584, -9.570110701696944 ], [ -37.846151429390659, -9.568889740696941 ], [ -37.844856980390752, -9.566732046697144 ], [ -37.844715496390755, -9.565798439697103 ], [ -37.844500727390809, -9.56515170769714 ], [ -37.843418156390797, -9.564502088697198 ], [ -37.842697416390862, -9.563781891697277 ], [ -37.842268615390928, -9.562273090697303 ], [ -37.841837145390926, -9.561553855697392 ], [ -37.840827393390938, -9.560760912697416 ], [ -37.83996373739101, -9.559537778697505 ], [ -37.838953752391042, -9.558816610697567 ], [ -37.838086453391071, -9.5586701526976 ], [ -37.837650856391015, -9.559171153697637 ], [ -37.837936463390996, -9.56024880169759 ], [ -37.838581462390891, -9.561973666697503 ], [ -37.839877557390871, -9.563628926697392 ], [ -37.841816983390686, -9.567511496697277 ], [ -37.842898102390642, -9.568591795697138 ], [ -37.843545807390583, -9.569527088697056 ], [ -37.843542895390556, -9.570388434697058 ], [ -37.842745210390518, -9.571031792697061 ], [ -37.842095076390564, -9.570814286697093 ], [ -37.841302495390572, -9.569950286697189 ], [ -37.840652851390608, -9.569589220697237 ], [ -37.840073822390622, -9.569730845697215 ], [ -37.839782360390593, -9.570375887697253 ], [ -37.839993958390494, -9.571955744697172 ], [ -37.840423242390429, -9.573320990697189 ], [ -37.840421294390438, -9.573895219697134 ], [ -37.839695184390386, -9.574754147697213 ], [ -37.838535156390336, -9.575611621697215 ], [ -37.837952943390313, -9.576686363697187 ], [ -37.837731349390289, -9.578049431697156 ], [ -37.837078519390225, -9.578621479697153 ], [ -37.835920427390249, -9.578904712697208 ], [ -37.835126380390278, -9.578471370697256 ], [ -37.832819511390355, -9.576310236697433 ], [ -37.831735707390358, -9.576019470697478 ], [ -37.830940199390334, -9.576016791697519 ], [ -37.83028761039035, -9.576517046697507 ], [ -37.830213326390293, -9.577091031697526 ], [ -37.830862724390272, -9.57752389569751 ], [ -37.831295657390264, -9.577812471697509 ], [ -37.831582726390273, -9.578459452697478 ], [ -37.831436860390234, -9.578817857697393 ], [ -37.830784265390186, -9.579318113697473 ], [ -37.830492776390223, -9.579963144697405 ], [ -37.83070850739017, -9.580322768697393 ], [ -37.832009282390175, -9.580614269697415 ], [ -37.832585388390115, -9.581334001697352 ], [ -37.832727085390083, -9.582195830697286 ], [ -37.832218634390095, -9.582840132697269 ], [ -37.831132110390058, -9.58333892669738 ], [ -37.830840862390041, -9.583912178697336 ], [ -37.830692780389988, -9.584916588697295 ], [ -37.830908022389984, -9.585419769697314 ], [ -37.831627547389914, -9.586498884697223 ], [ -37.831625091389867, -9.587216669697186 ], [ -37.830899666389861, -9.587860236697237 ], [ -37.830176452389864, -9.587857796697277 ], [ -37.829383625389902, -9.587065547697351 ], [ -37.828881316389939, -9.585915383697373 ], [ -37.828960529390052, -9.583905832697477 ], [ -37.828529560390059, -9.583043025697467 ], [ -37.827735268390107, -9.582681445697556 ], [ -37.8270123133901, -9.58260722169752 ], [ -37.826651698390059, -9.582318884697589 ], [ -37.826365377390132, -9.58145656569762 ], [ -37.825788298390165, -9.581023937697658 ], [ -37.824270818390161, -9.580659899697785 ], [ -37.823693743390166, -9.58022726869779 ], [ -37.823551328390209, -9.579580773697757 ], [ -37.823625625390214, -9.579006792697811 ], [ -37.823410891390253, -9.578360052697825 ], [ -37.822472472390302, -9.577854414697843 ], [ -37.821466194390347, -9.576056520697987 ], [ -37.820815821390354, -9.575910752698087 ], [ -37.820090901390351, -9.576410741698064 ], [ -37.819940563390261, -9.578061148698007 ], [ -37.818216820390397, -9.574609888698177 ], [ -37.818176291390429, -9.57383270469818 ], [ -37.818179183390463, -9.572996274698202 ], [ -37.817662588390519, -9.572415441698235 ], [ -37.817015679390522, -9.572027187698286 ], [ -37.816045094390546, -9.571509145698373 ], [ -37.815011250390576, -9.570540496698417 ], [ -37.813653961390621, -9.569377714698506 ], [ -37.812294671390674, -9.568793993698552 ], [ -37.811065928390711, -9.567953349698648 ], [ -37.8102905083907, -9.567242939698742 ], [ -37.808033346390857, -9.563889448698898 ], [ -37.80478479939076, -9.566001549699044 ], [ -37.802912135390848, -9.563936179699157 ], [ -37.800134691390959, -9.561095584699352 ], [ -37.7980707783911, -9.558128759699535 ], [ -37.797299022391172, -9.556388878699629 ], [ -37.796596388391286, -9.553426753699727 ], [ -37.796478723391424, -9.550016265699819 ], [ -37.796097487391506, -9.547827347699908 ], [ -37.795259132391571, -9.546601964699958 ], [ -37.794030737391623, -9.545696933700063 ], [ -37.801459432392051, -9.534462865699995 ], [ -37.802431912392066, -9.534401868699861 ], [ -37.80405390539206, -9.533957050699874 ], [ -37.806261260392105, -9.532935155699777 ], [ -37.808531187392155, -9.532556874699708 ], [ -37.81131853239215, -9.532502052699543 ], [ -37.81326481639217, -9.531993952699436 ], [ -37.816381566392224, -9.530396009699365 ], [ -37.818524495392268, -9.529245128699282 ], [ -37.820406159392299, -9.528672424699177 ], [ -37.821316237392317, -9.527903401699191 ], [ -37.821513995392323, -9.526938942699198 ], [ -37.821258263392394, -9.525908609699256 ], [ -37.821195654392412, -9.525264980699244 ], [ -37.821912155392461, -9.524237931699231 ], [ -37.822950966392497, -9.523726704699206 ], [ -37.824247055392483, -9.523795417699116 ], [ -37.825735832392461, -9.524379509699022 ], [ -37.827547378392417, -9.525350733698913 ], [ -37.828649248392395, -9.52535443569888 ], [ -37.830336213392435, -9.524845361698826 ], [ -37.831442457392448, -9.523562229698777 ], [ -37.831896603392494, -9.523435066698768 ], [ -37.832609138392478, -9.523566135698728 ], [ -37.834289107392422, -9.525115964698632 ], [ -37.837326969392308, -9.527635449698396 ], [ -37.841462208392144, -9.531509747698102 ], [ -37.842754868392078, -9.532607859698016 ], [ -37.846959803392004, -9.535066806697731 ], [ -37.850451580391919, -9.537587697697548 ], [ -37.851810189391848, -9.538364287697446 ], [ -37.853687788391824, -9.539013897697368 ], [ -37.855176265391812, -9.539726560697247 ], [ -37.857698644391718, -9.54140774869707 ], [ -37.860479262391657, -9.543411480696905 ], [ -37.862739235391594, -9.545029830696723 ], [ -37.872070583391796, -9.53904488269646 ], [ -37.878566909391928, -9.536582065696246 ], [ -37.881420317391999, -9.534396233696169 ], [ -37.885382972392016, -9.533925342695948 ], [ -37.88877763639227, -9.527239683695958 ], [ -37.885711890392372, -9.524565647696152 ], [ -37.887681101392452, -9.522896989696152 ], [ -37.887599808392501, -9.521933092696136 ], [ -37.88766907539258, -9.520641091696174 ], [ -37.888323070392609, -9.519674008696144 ], [ -37.889562000392615, -9.5189672306961 ], [ -37.89307934439266, -9.518138458696013 ], [ -37.893732489392676, -9.517429805695972 ], [ -37.893734358392727, -9.516848309695991 ], [ -37.893608344392781, -9.515555685695981 ], [ -37.893742877392832, -9.514199274696088 ], [ -37.89426584139283, -9.513490207696073 ], [ -37.894853682392885, -9.512845955696021 ], [ -37.894920633392914, -9.512264664696009 ], [ -37.894533030392907, -9.511358880696065 ], [ -37.893432616392985, -9.50948166769617 ], [ -37.892852053393078, -9.507864546696233 ], [ -37.892531829393143, -9.506248249696295 ], [ -37.892472978393201, -9.504309725696322 ], [ -37.892285764393371, -9.500528735696443 ], [ -37.892614716393517, -9.497361076696496 ], [ -37.894370123393564, -9.494974662696482 ], [ -37.893646328393778, -9.490216049696661 ], [ -37.894474937393845, -9.488077843696615 ], [ -37.893982656393902, -9.486844655696725 ], [ -37.89388154439402, -9.484763438696728 ], [ -37.893372575394046, -9.483661005696769 ], [ -37.890773743394135, -9.481682171696928 ], [ -37.890448736394205, -9.479874747697032 ], [ -37.879064660394199, -9.479814972697548 ], [ -37.879100755394688, -9.468687966697845 ], [ -37.899983338394669, -9.468754077696826 ], [ -37.90181769139442, -9.475083919696598 ], [ -37.895625373394324, -9.477477097696859 ], [ -37.896028529394144, -9.480417181696728 ], [ -37.894835002393911, -9.486551441696685 ], [ -37.895843927393813, -9.489196306696545 ], [ -37.894818077393737, -9.491834747696506 ], [ -37.895667006393559, -9.495566858696462 ], [ -37.894487346393504, -9.497350149696448 ], [ -37.894398865393399, -9.500535423696268 ], [ -37.895168978393237, -9.503833672696187 ], [ -37.895737899393154, -9.505024319696137 ], [ -37.896361540393144, -9.505388113696123 ], [ -37.897090310393182, -9.505442102696099 ], [ -37.897558249393143, -9.50565033569605 ], [ -37.897713126393114, -9.506064337696085 ], [ -37.897604855393084, -9.507356223696018 ], [ -37.897499066393088, -9.507872780696069 ], [ -37.897913784393062, -9.508442669695956 ], [ -37.898797935393034, -9.508755592695891 ], [ -37.899631674393, -9.508551463695913 ], [ -37.900885086393096, -9.507366557695882 ], [ -37.901249720393089, -9.507316015695837 ], [ -37.901509727393091, -9.507420211695861 ], [ -37.90192346239305, -9.508300227695853 ], [ -37.902546457393044, -9.508870766695711 ], [ -37.903379371393036, -9.508925071695726 ], [ -37.903432427393007, -9.50861510269571 ], [ -37.903954088393014, -9.508306604695656 ], [ -37.904579555393049, -9.508101809695635 ], [ -37.904633430393069, -9.507533397695664 ], [ -37.904688786393116, -9.5064997856957 ], [ -37.904742497393165, -9.505983062695694 ], [ -37.905055557393169, -9.505777286695709 ], [ -37.905367466393173, -9.505933331695717 ], [ -37.905833606393088, -9.506710129695644 ], [ -37.906302046393108, -9.506763285695603 ], [ -37.906615598393145, -9.506402442695626 ], [ -37.906928657393102, -9.506196664695631 ], [ -37.907136433393113, -9.506352382695585 ], [ -37.907083054393084, -9.506765729695585 ], [ -37.907185712393087, -9.507231253695558 ], [ -37.907706057393064, -9.507336259695544 ], [ -37.908280107393097, -9.506924539695508 ], [ -37.908644578393094, -9.506925677695527 ], [ -37.908748057393112, -9.507132758695503 ], [ -37.908535692393031, -9.508424326695458 ], [ -37.908740357392972, -9.509562130695421 ], [ -37.908425657392968, -9.510284797695403 ], [ -37.908476086392945, -9.510801847695392 ], [ -37.909047521392907, -9.511217147695396 ], [ -37.909672336392944, -9.511219097695333 ], [ -37.910611194392942, -9.510705135695323 ], [ -37.911497655392957, -9.510294384695317 ], [ -37.912227422392974, -9.510038210695248 ], [ -37.912854030392985, -9.509471578695232 ], [ -37.913325250393044, -9.508646015695252 ], [ -37.913795326393043, -9.508182272695175 ], [ -37.914576828393045, -9.508029633695147 ], [ -37.914837980393067, -9.507771998695189 ], [ -37.91489037339305, -9.507668782695202 ], [ -37.914683406393067, -9.507254623695198 ], [ -37.913072581393109, -9.506215829695298 ], [ -37.912918500393125, -9.505543388695312 ], [ -37.91297203639315, -9.505078350695332 ], [ -37.913389713393194, -9.504717824695332 ], [ -37.914171044393186, -9.504616873695248 ], [ -37.915211244393134, -9.504981929695221 ], [ -37.916197916393116, -9.50581202169516 ], [ -37.916873489393112, -9.506227632695088 ], [ -37.917602594393124, -9.506178201695141 ], [ -37.918072661393133, -9.50571445169509 ], [ -37.918178581393157, -9.505146196695076 ], [ -37.91849228239316, -9.504733651695073 ], [ -37.91859755339317, -9.504372150695101 ], [ -37.918443786393226, -9.503596333695128 ], [ -37.917873811393243, -9.502715848695162 ], [ -37.917198404393247, -9.50224855169518 ], [ -37.916573767393267, -9.502194927695196 ], [ -37.916157884393321, -9.501986880695272 ], [ -37.916002660393296, -9.501676262695284 ], [ -37.9161595103933, -9.50146999069522 ], [ -37.91740975839334, -9.501267107695192 ], [ -37.917879492393318, -9.500906735695203 ], [ -37.91819189239331, -9.500907702695203 ], [ -37.918711421393311, -9.501271135695177 ], [ -37.919127954393289, -9.501272423695118 ], [ -37.919961829393323, -9.501016553695138 ], [ -37.920690599393325, -9.501070493695051 ], [ -37.921731930393335, -9.501073706695013 ], [ -37.921882792393276, -9.502779925695004 ], [ -37.926619268393246, -9.503311397694707 ], [ -37.930216708393267, -9.501771736694611 ], [ -37.935984674392998, -9.508437751694144 ], [ -37.936597430393022, -9.508276499694107 ], [ -37.938436586393046, -9.507663446694052 ] ] ] ] } }
]
}
