{
"type": "FeatureCollection",
"name": "ZA_RVS_Crauna",
"crs": { "type": "name", "properties": { "name": "urn:ogc:def:crs:OGC:1.3:CRS84" } },
"features": [
{ "type": "Feature", "properties": { "Name": "RVS Morros do Crauna", "SILGA_UC": "RVS", "NOME": "Crauna", "CLASS_UC": "Refugio de Vida Silvestre", "GRUPO_UC": "Protecao Integral", "JURISDIC": "Estadual", "MUNICS": "Agua Branca", "DATA_CRIA": "2012_01_27", "ORG_GEST": "IMA", "ATO_LEGAL": "Decreto n 17.935/12", "CONS_GEST": "Nao", "PLAN_MANEJ": "Nao", "PROPRIET": "--", "BIOMA": "Caatinga", "Perimeter": 22869.36955, "Hectares": 1087.14244, "AVERBACAO": "Nao", "CNUC": "Nao" }, "geometry": { "type": "MultiPolygon", "coordinates": [ [ [ [ -37.911762545586512, -9.319180785112552 ], [ -37.91145614727531, -9.316404128808909 ], [ -37.911319994490214, -9.315924619831687 ], [ -37.910929747749378, -9.315163477901738 ], [ -37.911222230191704, -9.314193103264699 ], [ -37.911112014262009, -9.311242372705953 ], [ -37.911041802532317, -9.310900217474376 ], [ -37.910094018794972, -9.308340559201218 ], [ -37.909972304478174, -9.30818322046532 ], [ -37.909946054443019, -9.307638397620844 ], [ -37.909131560232936, -9.305254159943805 ], [ -37.908923374051, -9.304843806785541 ], [ -37.908680486835848, -9.304365056177765 ], [ -37.907523221173513, -9.302620315045994 ], [ -37.907176434190013, -9.302209975419599 ], [ -37.907039440208109, -9.302051624054029 ], [ -37.906796933919196, -9.301777770474166 ], [ -37.904890855189265, -9.300147792784774 ], [ -37.902608549645407, -9.299098055863334 ], [ -37.902157496928368, -9.298961876309557 ], [ -37.898585356382874, -9.298617791659217 ], [ -37.898238118379339, -9.298653002793179 ], [ -37.895262855427085, -9.299477953947523 ], [ -37.894105352693749, -9.300286958862625 ], [ -37.893361680745421, -9.300488346498653 ], [ -37.893015271472926, -9.30062553909443 ], [ -37.891182223887085, -9.30160605912697 ], [ -37.890835850837625, -9.301845795605953 ], [ -37.889619539385414, -9.302854585591394 ], [ -37.889342471614391, -9.303128392704268 ], [ -37.887525517389939, -9.305689590192058 ], [ -37.887485211526993, -9.305836748780358 ], [ -37.887068974635461, -9.306342957250095 ], [ -37.886817227700213, -9.307013530832236 ], [ -37.886527947699406, -9.307385767632802 ], [ -37.886330699784892, -9.307721279790073 ], [ -37.88618619084405, -9.308050983039518 ], [ -37.886004122079441, -9.30823149943946 ], [ -37.886032866028287, -9.308260103947669 ], [ -37.884271113112803, -9.310303576333391 ], [ -37.884000388865942, -9.310760270710572 ], [ -37.883582560155567, -9.311917722155824 ], [ -37.88216455905836, -9.313468362041258 ], [ -37.881991907514433, -9.313735523998954 ], [ -37.880915991253787, -9.316079748290033 ], [ -37.880840894975378, -9.316601969838244 ], [ -37.880580870319072, -9.316859643834329 ], [ -37.880175511345946, -9.317552088195491 ], [ -37.879904743769139, -9.317700172360894 ], [ -37.878100311293196, -9.319488077699388 ], [ -37.877941445197841, -9.319697297299015 ], [ -37.876543221898267, -9.32237330356193 ], [ -37.876394024113658, -9.323396952692464 ], [ -37.875773519690746, -9.322901255825427 ], [ -37.875331694211638, -9.322628921374429 ], [ -37.873015935809619, -9.321612952476697 ], [ -37.871403113466947, -9.321392154427359 ], [ -37.871160428264851, -9.321244286800265 ], [ -37.87099236124201, -9.321171153791902 ], [ -37.870284955626666, -9.320443246674667 ], [ -37.86976804313305, -9.320051856063513 ], [ -37.86779851638881, -9.318916293893285 ], [ -37.865606896074546, -9.318301727784256 ], [ -37.865458253289574, -9.318279449446688 ], [ -37.86479579060417, -9.317941014814807 ], [ -37.862513722249233, -9.317439773093721 ], [ -37.861842764954439, -9.317380355626353 ], [ -37.860294526383747, -9.317374523791456 ], [ -37.859679102385194, -9.31742435341264 ], [ -37.856810924022497, -9.318134809759325 ], [ -37.854323059184772, -9.319720517751733 ], [ -37.854168616748268, -9.319858791124663 ], [ -37.854157128286893, -9.319865549452311 ], [ -37.854084651751215, -9.319933965482763 ], [ -37.854010554763917, -9.320000304906733 ], [ -37.853714897164501, -9.320238407783343 ], [ -37.853735457347625, -9.320263595605484 ], [ -37.851209111099656, -9.322648367452489 ], [ -37.850773017456483, -9.323301497383882 ], [ -37.850499947663472, -9.323846084793241 ], [ -37.849918654625739, -9.324130487400446 ], [ -37.849416037828952, -9.324511481264143 ], [ -37.847347323113837, -9.326709169391089 ], [ -37.846118949899534, -9.329459313777965 ], [ -37.846100193220607, -9.329532143795804 ], [ -37.845996759743798, -9.329734483914338 ], [ -37.845117773103496, -9.332443012805644 ], [ -37.845027441175169, -9.333021694818511 ], [ -37.845016169563657, -9.333534314432802 ], [ -37.844924966399738, -9.333655280635956 ], [ -37.844009429663622, -9.336220839758697 ], [ -37.843903989475102, -9.338940770222564 ], [ -37.843928634805934, -9.339157266173112 ], [ -37.844588929171735, -9.341660969416493 ], [ -37.845936231345128, -9.34387636365156 ], [ -37.84786018979765, -9.345621974824585 ], [ -37.848319274371228, -9.345843940657193 ], [ -37.848978503010244, -9.347395285331414 ], [ -37.84893443668534, -9.347420112941878 ], [ -37.84893736263701, -9.347425235763572 ], [ -37.849193164660313, -9.347905987967888 ], [ -37.84924035566366, -9.347993511746113 ], [ -37.849254704161574, -9.34801977601245 ], [ -37.849470142279074, -9.348392694450677 ], [ -37.84952183381084, -9.34847743841947 ], [ -37.849886995497265, -9.349029529047762 ], [ -37.849944778356026, -9.349110300130729 ], [ -37.850349543009024, -9.3496344420199 ], [ -37.850413108219264, -9.349710808193898 ], [ -37.850855306252996, -9.350204194751992 ], [ -37.850924314831552, -9.350275748992052 ], [ -37.851401619447401, -9.35073578133194 ], [ -37.851475702403299, -9.350802140611579 ], [ -37.851985497534493, -9.351226301887575 ], [ -37.852064260868609, -9.351287114179428 ], [ -37.852603923916639, -9.351673221878633 ], [ -37.852686946621986, -9.35172816115521 ], [ -37.85325347505826, -9.352074069823988 ], [ -37.853340314119755, -9.352122844058009 ], [ -37.853658155871507, -9.352286443298253 ], [ -37.853893818833306, -9.352589787786636 ], [ -37.853999991307269, -9.352723820020191 ], [ -37.854042953714206, -9.352777015817335 ], [ -37.854340116729446, -9.353126472484133 ], [ -37.8544168870229, -9.353212253885903 ], [ -37.854814165810147, -9.353628768261272 ], [ -37.85489625847913, -9.353709541718166 ], [ -37.85531951477877, -9.354100355086032 ], [ -37.855406601828946, -9.354175793574573 ], [ -37.855749213058722, -9.354458230222066 ], [ -37.855798319244677, -9.354496737032409 ], [ -37.855921910224552, -9.354591951258852 ], [ -37.856970656315106, -9.355385664329436 ], [ -37.856999448645091, -9.355407365301811 ], [ -37.857054326924832, -9.355448557192165 ], [ -37.857189848279617, -9.355548334575612 ], [ -37.857393358541842, -9.355695286825695 ], [ -37.857609831972233, -9.355846868900558 ], [ -37.857817560606158, -9.355987880131231 ], [ -37.858038361998453, -9.356133131635151 ], [ -37.858250130998428, -9.356268081835397 ], [ -37.858374050949479, -9.35634565953659 ], [ -37.858396807183432, -9.356359652874776 ], [ -37.85840881359956, -9.3563670231194 ], [ -37.860155058699277, -9.357437107022758 ], [ -37.860160468701054, -9.357440419936118 ], [ -37.8604561889805, -9.357613893104645 ], [ -37.860543031044578, -9.357662665338317 ], [ -37.861133552449765, -9.357966597446143 ], [ -37.861223747847475, -9.358008943610651 ], [ -37.861835013715137, -9.358269244669929 ], [ -37.861928080416483, -9.358304938740293 ], [ -37.862462324949128, -9.358487866019317 ], [ -37.863348492736051, -9.359025289671079 ], [ -37.863400128442144, -9.359052255377167 ], [ -37.863709559367123, -9.359189482997019 ], [ -37.865354165404021, -9.360421787788749 ], [ -37.866650476069488, -9.360894016273344 ], [ -37.868173430184967, -9.361843538271957 ], [ -37.868206460673164, -9.361859759708787 ], [ -37.868840247878239, -9.36209517572769 ], [ -37.870927222042752, -9.363656247393386 ], [ -37.871287534041855, -9.363912357246949 ], [ -37.871324177337463, -9.363937086815151 ], [ -37.872204418502868, -9.364461653489981 ], [ -37.872256056210773, -9.364488617195724 ], [ -37.873321423308575, -9.364961045131578 ], [ -37.873376109334316, -9.36498122974554 ], [ -37.874493595402264, -9.365314488023019 ], [ -37.874550430678639, -9.365327561505055 ], [ -37.875701775741831, -9.365516173014084 ], [ -37.875759829185398, -9.365521920332624 ], [ -37.876805005982398, -9.365565418041312 ], [ -37.876851288183069, -9.365564701163402 ], [ -37.877314047760521, -9.365545833530838 ], [ -37.880137853430611, -9.365359147299596 ], [ -37.880258266504718, -9.36535038937947 ], [ -37.880270300818729, -9.36534943439133 ], [ -37.880969655040552, -9.365266799691614 ], [ -37.881027276529956, -9.365257734632303 ], [ -37.882165801565932, -9.3650034272179 ], [ -37.882186708517153, -9.364997336058666 ], [ -37.884909389729906, -9.36485843969043 ], [ -37.887876412285564, -9.363583871524666 ], [ -37.887942523301589, -9.363540222695452 ], [ -37.889076478745736, -9.362655349612723 ], [ -37.889652602735424, -9.362127364963428 ], [ -37.889697336417349, -9.362086092343432 ], [ -37.890395476952669, -9.361437620527823 ], [ -37.892660193271119, -9.358115524925459 ], [ -37.892717935675094, -9.357968313838418 ], [ -37.89452217322134, -9.356405929939438 ], [ -37.89597058866125, -9.354040259195765 ], [ -37.896323730765886, -9.353193407033636 ], [ -37.89659460297441, -9.351577307718888 ], [ -37.896604747609047, -9.351551268271859 ], [ -37.89681634319755, -9.350744896415213 ], [ -37.896973418089196, -9.35055157448058 ], [ -37.897287374109155, -9.35006890773842 ], [ -37.897538820612155, -9.349726981687624 ], [ -37.898954618225268, -9.34682917177609 ], [ -37.899005573092417, -9.346290604677424 ], [ -37.899925577892837, -9.344870412994027 ], [ -37.900128217037661, -9.344470185641402 ], [ -37.901033022020407, -9.341492600493737 ], [ -37.900868590993674, -9.338386648544763 ], [ -37.900614562110363, -9.337286072716555 ], [ -37.900598596816771, -9.337238749562424 ], [ -37.901232007632338, -9.336526203529491 ], [ -37.901411879609491, -9.336144121182132 ], [ -37.901642735237772, -9.336104505914273 ], [ -37.902095846779289, -9.335945643237887 ], [ -37.904520634325223, -9.33465821912743 ], [ -37.904906124202071, -9.334371664730993 ], [ -37.905648344525851, -9.333756244639776 ], [ -37.906165452957111, -9.333278982956468 ], [ -37.90776373962882, -9.331325661915168 ], [ -37.908273052506473, -9.330139754631549 ], [ -37.909067523527334, -9.329672466772317 ], [ -37.910883030092144, -9.327693659239623 ], [ -37.912035668632015, -9.325273599442799 ], [ -37.912424430735044, -9.322624390838275 ], [ -37.91242332126734, -9.322336590011504 ], [ -37.912037853576379, -9.319767473478297 ], [ -37.911762545586512, -9.319180785112552 ] ], [ [ -37.894107823145731, -9.312561062862187 ], [ -37.894192616145425, -9.312281545862197 ], [ -37.894389860144713, -9.311946028862165 ], [ -37.894671145143725, -9.311667090862061 ], [ -37.894840577143128, -9.311414801862034 ], [ -37.894897267142923, -9.311191371862018 ], [ -37.89496570314261, -9.310843435862036 ], [ -37.895380969141229, -9.310671941861891 ], [ -37.895658117140293, -9.31046594086183 ], [ -37.895797022139803, -9.310259766861739 ], [ -37.895728788139984, -9.309915720861774 ], [ -37.895763557139759, -9.309539323861825 ], [ -37.89604062613887, -9.309265511861771 ], [ -37.896387004137644, -9.309025770861625 ], [ -37.896733421136467, -9.308888575861541 ], [ -37.897183810135012, -9.308819623861382 ], [ -37.897495660133977, -9.308716639861244 ], [ -37.897946146132469, -9.308716060861098 ], [ -37.898258155131366, -9.308510359861014 ], [ -37.898570265130338, -9.308201964860938 ], [ -37.898953683129058, -9.307856421860793 ], [ -37.899162685128289, -9.307649549860754 ], [ -37.899509932127167, -9.307614338860638 ], [ -37.899960994125664, -9.30775052286044 ], [ -37.900203498124931, -9.308024380860367 ], [ -37.90055028112387, -9.308434726860224 ], [ -37.900793150123128, -9.308913464860115 ], [ -37.901001328122504, -9.309323821860007 ], [ -37.9008265171232, -9.309769942860044 ], [ -37.900582082124075, -9.310284620860093 ], [ -37.900233448125327, -9.310799375860167 ], [ -37.899815677126803, -9.311143017860319 ], [ -37.899814858126859, -9.311587892860292 ], [ -37.899812996126954, -9.312169961860237 ], [ -37.899803254127086, -9.312619537860211 ], [ -37.899800618127109, -9.312927888860177 ], [ -37.900157290125939, -9.312853970860072 ], [ -37.90050758212481, -9.312886000859958 ], [ -37.90082315912376, -9.312918291859866 ], [ -37.901210355122487, -9.312812904859721 ], [ -37.901630369121079, -9.312776876859543 ], [ -37.902120880119469, -9.312706261859404 ], [ -37.90219108311932, -9.313048417859372 ], [ -37.90176921812072, -9.31325598885952 ], [ -37.901204489122577, -9.313430871859733 ], [ -37.900921124123577, -9.31367242785981 ], [ -37.900952167123535, -9.314083371859763 ], [ -37.901126232123005, -9.314287296859668 ], [ -37.901126232123005, -9.314310696859662 ], [ -37.901131678122987, -9.314343373859646 ], [ -37.901137124123011, -9.314381496859662 ], [ -37.901137124123025, -9.314441404859682 ], [ -37.901137125123029, -9.31449586685966 ], [ -37.90112623212304, -9.314544882859646 ], [ -37.901114157123125, -9.314593813859636 ], [ -37.90110594112312, -9.314594635859637 ], [ -37.901096751123134, -9.314603825859651 ], [ -37.901096484123187, -9.314604226859654 ], [ -37.9010853551232, -9.314601612859644 ], [ -37.901081408123218, -9.314600864859639 ], [ -37.900904162123787, -9.314569302859713 ], [ -37.900893922123821, -9.31456236185972 ], [ -37.900892912123808, -9.314561681859676 ], [ -37.900882813123843, -9.314555400859753 ], [ -37.900872322123924, -9.314549789859765 ], [ -37.900861484123908, -9.314544871859741 ], [ -37.900854171123974, -9.314542018859722 ], [ -37.900756270124283, -9.314506228859793 ], [ -37.900752443124297, -9.314504877859756 ], [ -37.900741052124346, -9.314501406859804 ], [ -37.90072945612436, -9.314498683859776 ], [ -37.900717706124389, -9.314496719859816 ], [ -37.900705851124442, -9.314495522859801 ], [ -37.900693943124459, -9.314495098859805 ], [ -37.90068203312449, -9.314495448859805 ], [ -37.900670171124574, -9.314496572859808 ], [ -37.900658409124567, -9.314498464859811 ], [ -37.900646797124644, -9.314501115859796 ], [ -37.900635383124637, -9.314504516859824 ], [ -37.900624219124666, -9.314508651859802 ], [ -37.900613350124715, -9.314513502859835 ], [ -37.900604140124777, -9.314518355859835 ], [ -37.900582086124857, -9.314521112859877 ], [ -37.900572503124877, -9.314521112859863 ], [ -37.900482652125191, -9.314509514859887 ], [ -37.900473093125179, -9.314508534859899 ], [ -37.900389356125501, -9.314502163859892 ], [ -37.900387923125486, -9.31450205985989 ], [ -37.900376015125545, -9.314501635859914 ], [ -37.900364105125576, -9.31450198685989 ], [ -37.900352243125603, -9.314503109859901 ], [ -37.90034048112566, -9.314505001859905 ], [ -37.900328868125669, -9.314507653859959 ], [ -37.900317455125723, -9.314511053859933 ], [ -37.900306290125762, -9.314515188859975 ], [ -37.900295422125808, -9.314520039859946 ], [ -37.900284896125804, -9.31452558685994 ], [ -37.900274758125832, -9.314531804859943 ], [ -37.900265051125878, -9.314538669859951 ], [ -37.900255816125913, -9.314546148859959 ], [ -37.900247094125923, -9.314554212859973 ], [ -37.900238922125965, -9.314562825859953 ], [ -37.900231334125984, -9.314571951859955 ], [ -37.900224364126039, -9.314581550859973 ], [ -37.900218040126042, -9.314591581859945 ], [ -37.900212391126054, -9.314602002859953 ], [ -37.900208915126058, -9.314609358859952 ], [ -37.900180333126201, -9.314673564860003 ], [ -37.900178857126157, -9.314676974859974 ], [ -37.900174625126198, -9.314688038859972 ], [ -37.900171131126214, -9.314699353860007 ], [ -37.900168389126243, -9.314710871859944 ], [ -37.900166412126239, -9.314722542859997 ], [ -37.90016520712625, -9.314734317859957 ], [ -37.900164780126225, -9.314746145859971 ], [ -37.900165133126251, -9.314757976859971 ], [ -37.900166264126277, -9.314769758859981 ], [ -37.900168169126239, -9.314781441859996 ], [ -37.900170838126222, -9.314792976860002 ], [ -37.90017211712621, -9.314797209859965 ], [ -37.900171581126273, -9.314799888859993 ], [ -37.900177708126257, -9.31483052385998 ], [ -37.900183835126185, -9.314851967859987 ], [ -37.900183835126185, -9.314907110859982 ], [ -37.900174644126281, -9.314953062859994 ], [ -37.900162390126326, -9.315014332860002 ], [ -37.900154372126323, -9.31503036885996 ], [ -37.900151904126361, -9.315034161859977 ], [ -37.900119969126472, -9.315085292859957 ], [ -37.900118657126434, -9.315087461859985 ], [ -37.900094994126547, -9.315115426860007 ], [ -37.900085370126611, -9.315136279859979 ], [ -37.900080545126606, -9.315138894859983 ], [ -37.900070407126634, -9.315145112859961 ], [ -37.900060700126666, -9.31515197686001 ], [ -37.900051465126701, -9.315159456859979 ], [ -37.900042743126718, -9.315167520859971 ], [ -37.900034571126753, -9.31517613386 ], [ -37.900026983126786, -9.315185259860019 ], [ -37.900020013126785, -9.315194858859977 ], [ -37.900013689126858, -9.315204889860002 ], [ -37.900008040126863, -9.315215310859982 ], [ -37.900003088126908, -9.315226075860009 ], [ -37.899998856126871, -9.315237139860015 ], [ -37.89999536212688, -9.315248454860027 ], [ -37.899992620126902, -9.315259972860009 ], [ -37.89999064312692, -9.315271644859981 ], [ -37.899989438126923, -9.315283419860029 ], [ -37.899989011126948, -9.315295247860005 ], [ -37.89998936412691, -9.315307077859973 ], [ -37.89999049512695, -9.31531885986 ], [ -37.899992399126923, -9.315330543860011 ], [ -37.899995069126938, -9.315342077860011 ], [ -37.89999849312693, -9.315353414860008 ], [ -37.899999552126928, -9.315356457860004 ], [ -37.900000026126911, -9.315357780860017 ], [ -37.900000026126918, -9.315381949860013 ], [ -37.900000026126939, -9.315440155859999 ], [ -37.900003090126916, -9.315501424859963 ], [ -37.900006154126935, -9.315547376859973 ], [ -37.900010808126922, -9.315582282859998 ], [ -37.900003029126964, -9.315607942859968 ], [ -37.900001648126967, -9.315612735859967 ], [ -37.899998907126978, -9.315624252859989 ], [ -37.899996929126971, -9.315635924859961 ], [ -37.899995724126953, -9.315647699859971 ], [ -37.899995297126971, -9.315659527859998 ], [ -37.899995650126982, -9.315671357859944 ], [ -37.899996781126958, -9.315683139859956 ], [ -37.899998686126992, -9.315694823859953 ], [ -37.899999514126989, -9.31569879085996 ], [ -37.900009007126954, -9.315741837859973 ], [ -37.900015040126924, -9.315770827859954 ], [ -37.900026248126878, -9.31582784985997 ], [ -37.900026263126904, -9.315827927859944 ], [ -37.900028933126897, -9.315839462859943 ], [ -37.900032356126907, -9.315850799859989 ], [ -37.900036519126878, -9.315861889859951 ], [ -37.900041403126863, -9.31587268485996 ], [ -37.900046987126863, -9.315883140859919 ], [ -37.900053248126838, -9.315893210859963 ], [ -37.900060158126792, -9.315902852859956 ], [ -37.900067688126789, -9.315912024859911 ], [ -37.900075807126719, -9.315920687859922 ], [ -37.900084478126743, -9.315928805859906 ], [ -37.900093665126697, -9.315936342859912 ], [ -37.900103329126679, -9.315943266859948 ], [ -37.900113428126652, -9.315949547859896 ], [ -37.900123920126624, -9.315955158859918 ], [ -37.90012678912656, -9.315956544859935 ], [ -37.900189989126353, -9.315986384859876 ], [ -37.90019795712638, -9.31598991785989 ], [ -37.900209096126318, -9.315994120859914 ], [ -37.900220488126315, -9.315997591859873 ], [ -37.900221657126295, -9.315997902859859 ], [ -37.900307907125992, -9.316020533859868 ], [ -37.900318334125963, -9.316022945859817 ], [ -37.900330084125933, -9.31602491085985 ], [ -37.900341939125916, -9.316026106859844 ], [ -37.900353847125857, -9.316026530859801 ], [ -37.900356024125834, -9.316026510859841 ], [ -37.900379898125784, -9.31603446885981 ], [ -37.900417938125663, -9.316038473859793 ], [ -37.900424549125631, -9.31603957885982 ], [ -37.900436404125607, -9.316040774859774 ], [ -37.900448312125562, -9.316041198859772 ], [ -37.900460222125531, -9.316040848859766 ], [ -37.900462889125507, -9.316040595859794 ], [ -37.900480993125441, -9.316040595859773 ], [ -37.900520818125294, -9.316040595859779 ], [ -37.900579025125104, -9.316031405859732 ], [ -37.900628040124936, -9.316009960859764 ], [ -37.900670929124843, -9.316000770859738 ], [ -37.900698500124719, -9.315985453859705 ], [ -37.900701591124701, -9.315983486859698 ], [ -37.900707645124669, -9.315982512859714 ], [ -37.900719257124663, -9.315979860859722 ], [ -37.900730671124592, -9.315976460859694 ], [ -37.900741835124563, -9.315972325859709 ], [ -37.900752704124514, -9.315967474859672 ], [ -37.900763230124525, -9.315961927859675 ], [ -37.900773368124497, -9.315955709859709 ], [ -37.900783075124451, -9.315948845859729 ], [ -37.900791817124393, -9.3159417908597 ], [ -37.900887204124047, -9.315859814859673 ], [ -37.90088769612408, -9.315859389859693 ], [ -37.900896418124063, -9.315851325859644 ], [ -37.900904591124004, -9.31584271285965 ], [ -37.900912178124024, -9.315833586859625 ], [ -37.900919149123993, -9.3158239878596 ], [ -37.900925472123959, -9.315813956859625 ], [ -37.900930949123925, -9.31580388085966 ], [ -37.900954758123824, -9.31575655085962 ], [ -37.900962951123816, -9.31575069585965 ], [ -37.900972186123795, -9.31574321585963 ], [ -37.900980908123735, -9.315735151859633 ], [ -37.900989080123743, -9.315726538859655 ], [ -37.900996668123739, -9.31571741385963 ], [ -37.901003638123655, -9.315707813859637 ], [ -37.901009962123652, -9.315697782859651 ], [ -37.901015611123647, -9.315687361859647 ], [ -37.901019097123601, -9.315679982859608 ], [ -37.901020250123622, -9.315677391859627 ], [ -37.901067006123483, -9.315670198859628 ], [ -37.901083276123373, -9.315681045859604 ], [ -37.901246864122932, -9.316092285859524 ], [ -37.901360067122646, -9.316518375859415 ], [ -37.901669776121793, -9.317199525859328 ], [ -37.901965275120816, -9.317581694859172 ], [ -37.902228210120057, -9.317964225859091 ], [ -37.902557334119059, -9.318379283858928 ], [ -37.902693475118681, -9.318858794858834 ], [ -37.902662553118866, -9.319401062858812 ], [ -37.902562456119306, -9.319878058858848 ], [ -37.902197377120601, -9.320383673858951 ], [ -37.90183322512182, -9.320665685859016 ], [ -37.901370266123379, -9.320850213859194 ], [ -37.900972174124746, -9.320938672859331 ], [ -37.900773436125405, -9.321188603859351 ], [ -37.90076528812552, -9.321531580859356 ], [ -37.900927370125039, -9.321975738859262 ], [ -37.901300835123891, -9.322338685859146 ], [ -37.901666153122662, -9.322346639858987 ], [ -37.902029493121503, -9.322289026858872 ], [ -37.90242661812016, -9.322104419858761 ], [ -37.902758995119072, -9.322141926858659 ], [ -37.903088235117977, -9.322177310858544 ], [ -37.90331878111725, -9.322371100858399 ], [ -37.903319883117291, -9.3226589008584 ], [ -37.902991870118377, -9.322687951858544 ], [ -37.902694641119353, -9.322683890858643 ], [ -37.902329263120556, -9.322677148858775 ], [ -37.90193180812188, -9.322733571858889 ], [ -37.901535314123215, -9.322726369859001 ], [ -37.90120419812429, -9.322909638859121 ], [ -37.90093999412526, -9.323220893859178 ], [ -37.900780639125834, -9.323539070859274 ], [ -37.900558116126639, -9.32411683585925 ], [ -37.900397437127246, -9.324560922859289 ], [ -37.900272231127758, -9.325099352859304 ], [ -37.900148950128248, -9.325606226859305 ], [ -37.900123264128453, -9.326082012859322 ], [ -37.899967783129014, -9.326654237859342 ], [ -37.899450678130883, -9.327131490859474 ], [ -37.899065193132152, -9.327418039859595 ], [ -37.898612092133646, -9.327576899859753 ], [ -37.89828881913467, -9.32732240785986 ], [ -37.897963997135712, -9.327099632859996 ], [ -37.897767415136293, -9.32675002986012 ], [ -37.897765418136281, -9.326496074860128 ], [ -37.897505535137114, -9.326496244860197 ], [ -37.897312001137756, -9.326623164860246 ], [ -37.897282410137933, -9.326940478860225 ], [ -37.897024754138791, -9.327162600860323 ], [ -37.89666925713999, -9.327289205860433 ], [ -37.896312455141135, -9.327161809860588 ], [ -37.895985272142212, -9.327143895860706 ], [ -37.895693773143236, -9.327402603860774 ], [ -37.895374489144338, -9.327719544860861 ], [ -37.89511137214518, -9.327862711860966 ], [ -37.894759940146344, -9.327946707861109 ], [ -37.894380106147601, -9.328029109861182 ], [ -37.894293832147945, -9.328345786861197 ], [ -37.894207746148233, -9.328578704861219 ], [ -37.894325406147892, -9.328870194861148 ], [ -37.894443375147603, -9.329133495861115 ], [ -37.894445252147626, -9.329457340861115 ], [ -37.894022684149164, -9.330126310861219 ], [ -37.89371937015023, -9.330573487861303 ], [ -37.893769702150152, -9.331070272861268 ], [ -37.893617847150722, -9.331567645861256 ], [ -37.8932638101519, -9.33186655886135 ], [ -37.892757762153714, -9.332464290861497 ], [ -37.892352261155111, -9.33291181286163 ], [ -37.891895422156672, -9.333209286861731 ], [ -37.891439233158195, -9.333608286861894 ], [ -37.891034472159618, -9.334108216861996 ], [ -37.891084300159584, -9.334856936861916 ], [ -37.891234772159216, -9.33570561886186 ], [ -37.891234239159374, -9.336505369861776 ], [ -37.891182381159695, -9.337455469861771 ], [ -37.891333512159385, -9.338406205861643 ], [ -37.891739774158232, -9.33930671186144 ], [ -37.89199377515763, -9.340407290861316 ], [ -37.891791130158367, -9.340807512861367 ], [ -37.891386688159727, -9.341306783861441 ], [ -37.890679465162108, -9.341704795861656 ], [ -37.890226627163742, -9.34245167086177 ], [ -37.890086174164296, -9.343191914861762 ], [ -37.890134631164244, -9.34379634486171 ], [ -37.890186023164162, -9.344393119861687 ], [ -37.889780822165605, -9.344944112861796 ], [ -37.889325404167217, -9.345644238861928 ], [ -37.888767493169127, -9.346199472862075 ], [ -37.888259009170746, -9.346214040862252 ], [ -37.887853006172115, -9.346279406862365 ], [ -37.887853770172164, -9.346672817862354 ], [ -37.888159147171223, -9.347006674862241 ], [ -37.888211474171207, -9.347597574862174 ], [ -37.888113024171645, -9.348287817862195 ], [ -37.88786092717254, -9.348934865862205 ], [ -37.887911397172523, -9.34973298786219 ], [ -37.88755824017381, -9.350579829862232 ], [ -37.887002648175645, -9.350928384862359 ], [ -37.88642520117758, -9.351241075862585 ], [ -37.885772370179751, -9.351404582862761 ], [ -37.885243328181524, -9.351647630862963 ], [ -37.884958196182488, -9.352210904863014 ], [ -37.884673281183531, -9.35269365586308 ], [ -37.884428027184384, -9.353256916863147 ], [ -37.884384632184627, -9.35382149286313 ], [ -37.884382254184764, -9.354306636863074 ], [ -37.884175853185496, -9.354832814863146 ], [ -37.883477717187887, -9.355481274863322 ], [ -37.882901597189864, -9.35600924986351 ], [ -37.882835487190029, -9.356052897863488 ], [ -37.882821551190105, -9.356045620863565 ], [ -37.882780250190237, -9.356017361863527 ], [ -37.882524595190972, -9.355820969863679 ], [ -37.882499180191047, -9.355801981863666 ], [ -37.882422063191328, -9.355750453863674 ], [ -37.882341114191576, -9.355705094863737 ], [ -37.882256831191803, -9.355666181863754 ], [ -37.882169733192079, -9.355633957863752 ], [ -37.882080359192393, -9.355608618863805 ], [ -37.881989258192675, -9.355590323863842 ], [ -37.881896992192942, -9.355579182863845 ], [ -37.881804131193256, -9.355575265863921 ], [ -37.881014173195808, -9.355572775864164 ], [ -37.880964288195941, -9.355573523864233 ], [ -37.880864766196304, -9.355580442864243 ], [ -37.880766019196585, -9.355594557864256 ], [ -37.880668572196917, -9.355615794864294 ], [ -37.880572946197269, -9.355644038864362 ], [ -37.880479651197547, -9.355679140864341 ], [ -37.880389185197835, -9.355720912864415 ], [ -37.88030203019818, -9.355769130864401 ], [ -37.880218652198444, -9.355823539864465 ], [ -37.880139494198701, -9.355883847864474 ], [ -37.880064981198956, -9.355949733864458 ], [ -37.880004927199131, -9.356010578864492 ], [ -37.879837740199726, -9.356190966864505 ], [ -37.879807779199808, -9.356220429864555 ], [ -37.879762053199975, -9.356256410864564 ], [ -37.879712069200146, -9.356286289864617 ], [ -37.879658648200319, -9.356309573864632 ], [ -37.879602667200473, -9.356325883864617 ], [ -37.879545047200665, -9.356334948864601 ], [ -37.879533013200714, -9.356335903864641 ], [ -37.876709281209813, -9.356522593865586 ], [ -37.876663000209916, -9.356523310865615 ], [ -37.876604948210122, -9.356517563865633 ], [ -37.87654811421033, -9.356504490865657 ], [ -37.876493429210484, -9.356484306865688 ], [ -37.876441792210649, -9.356457343865655 ], [ -37.876405149210768, -9.356432614865721 ], [ -37.87314943822075, -9.353997348866958 ], [ -37.873092636220896, -9.353957607866963 ], [ -37.873015206221147, -9.353911449867011 ], [ -37.872934201221383, -9.353871800867079 ], [ -37.87285017722165, -9.35383892986707 ], [ -37.872763707221949, -9.353813062867118 ], [ -37.872675381222194, -9.353794375867153 ], [ -37.872585804222489, -9.353782997867151 ], [ -37.872560503222573, -9.35378112786716 ], [ -37.872294840223425, -9.353764575867283 ], [ -37.87227809022346, -9.35376275586723 ], [ -37.872242449223592, -9.353753469867277 ], [ -37.872209419223708, -9.353737248867304 ], [ -37.872180354223744, -9.353714755867289 ], [ -37.872156536223834, -9.353687046867314 ], [ -37.871522772225738, -9.352778267867594 ], [ -37.871512595225738, -9.352763971867585 ], [ -37.871461859225889, -9.352700367867621 ], [ -37.871405587226057, -9.35264153786764 ], [ -37.871344232226235, -9.352587953867646 ], [ -37.871278288226463, -9.352540047867667 ], [ -37.871208285226672, -9.352498205867706 ], [ -37.871134788226932, -9.352462764867722 ], [ -37.871058388227162, -9.352434008867728 ], [ -37.87097970022738, -9.352412170867822 ], [ -37.870899358227639, -9.352397426867839 ], [ -37.870818009227911, -9.352389893867834 ], [ -37.870736307228142, -9.352389633867894 ], [ -37.870691828228281, -9.35239256086785 ], [ -37.869711094231413, -9.352481087868213 ], [ -37.869239920232758, -9.351587202868446 ], [ -37.869203161232861, -9.351523331868433 ], [ -37.869154550232992, -9.351452653868483 ], [ -37.869100002233168, -9.351386388868532 ], [ -37.869039920233362, -9.351325024868517 ], [ -37.868974749233544, -9.351269018868505 ], [ -37.868904972233807, -9.351218783868589 ], [ -37.868831104234026, -9.351174692868614 ], [ -37.868753695234226, -9.3511370718686 ], [ -37.868673315234496, -9.351106198868651 ], [ -37.868590561234747, -9.351082302868688 ], [ -37.868506044235005, -9.351065560868712 ], [ -37.868420392235286, -9.351056096868758 ], [ -37.868334237235587, -9.351053979868778 ], [ -37.868281791235717, -9.351056300868779 ], [ -37.867855539237105, -9.351086293868946 ], [ -37.867807312237233, -9.351087142868929 ], [ -37.867749262237425, -9.351081393868981 ], [ -37.867692429237607, -9.351068319869013 ], [ -37.867637745237758, -9.351048134868982 ], [ -37.867586110237966, -9.351021169869062 ], [ -37.867538370238059, -9.350987868869039 ], [ -37.867495310238219, -9.350948777869034 ], [ -37.867483414238244, -9.350936016869044 ], [ -37.866996279239665, -9.350392875869241 ], [ -37.866986649239692, -9.350382279869253 ], [ -37.866922998239872, -9.350318654869298 ], [ -37.866854274240126, -9.350260467869306 ], [ -37.86678094824034, -9.350208115869329 ], [ -37.866703519240595, -9.350161956869362 ], [ -37.866622516240781, -9.350122306869395 ], [ -37.866538494241105, -9.350089434869403 ], [ -37.866452025241379, -9.350063565869476 ], [ -37.866363701241617, -9.350044877869504 ], [ -37.866318576241767, -9.35003821086954 ], [ -37.865480565244447, -9.349932099869781 ], [ -37.865400897244669, -9.349919627869836 ], [ -37.865303591244981, -9.349897772869863 ], [ -37.865208151245284, -9.349868921869874 ], [ -37.865115086245595, -9.349833228869969 ], [ -37.865024892245806, -9.349790883869961 ], [ -37.864938051246092, -9.349742112869981 ], [ -37.864936143246105, -9.349740944870002 ], [ -37.863189916251443, -9.348670886870687 ], [ -37.863167160251542, -9.348656893870643 ], [ -37.862955393252186, -9.348521946870719 ], [ -37.862747666252794, -9.348380938870788 ], [ -37.862544157253438, -9.348233989870879 ], [ -37.862489279253602, -9.348192798870905 ], [ -37.861440538256737, -9.347399102871307 ], [ -37.861391432256916, -9.347360596871315 ], [ -37.861304345257139, -9.347285159871383 ], [ -37.861222252257434, -9.347204387871404 ], [ -37.861145481257637, -9.347118607871417 ], [ -37.861102518257766, -9.347065412871439 ], [ -37.860648365259095, -9.346480845871627 ], [ -37.860620190259191, -9.346443597871634 ], [ -37.860554971259404, -9.346348854871653 ], [ -37.860495934259568, -9.346250194871677 ], [ -37.86044331525973, -9.3461480148717 ], [ -37.860443012259658, -9.346147377871718 ], [ -37.860104983260676, -9.345435432871865 ], [ -37.86006284826076, -9.345353942871895 ], [ -37.860011154260938, -9.345269199871943 ], [ -37.859953369261078, -9.345188429871943 ], [ -37.859889802261286, -9.345112065871966 ], [ -37.859820793261484, -9.345040512871998 ], [ -37.859746709261707, -9.344974154871993 ], [ -37.859667946261965, -9.344913344872062 ], [ -37.859584923262219, -9.344858406872081 ], [ -37.859498085262452, -9.344809634872083 ], [ -37.859407893262706, -9.344767288872141 ], [ -37.859314830263003, -9.344731593872174 ], [ -37.859271961263168, -9.344717696872213 ], [ -37.858048418266911, -9.344343131872636 ], [ -37.858005549267041, -9.34432923387261 ], [ -37.857912486267352, -9.344293538872652 ], [ -37.85782229526766, -9.344251192872674 ], [ -37.857735457267893, -9.344202419872719 ], [ -37.857652435268143, -9.34414748187274 ], [ -37.857573672268416, -9.344086670872805 ], [ -37.85749958926862, -9.344020312872807 ], [ -37.857430580268804, -9.343948759872827 ], [ -37.857367014268995, -9.343872394872884 ], [ -37.857309230269188, -9.343791624872898 ], [ -37.857257537269284, -9.343706881872913 ], [ -37.857243188269351, -9.343680617872943 ], [ -37.856928893270236, -9.343089919873083 ], [ -37.856923879270262, -9.343080538873096 ], [ -37.856853898270465, -9.342958019873134 ], [ -37.85679978927061, -9.342873798873127 ], [ -37.856821921270523, -9.342667829873108 ], [ -37.856989164269891, -9.342183844873132 ], [ -37.856705133270694, -9.341457575873207 ], [ -37.856710821270596, -9.341097019873262 ], [ -37.857054105269448, -9.340703238873168 ], [ -37.856722974270397, -9.340095791873315 ], [ -37.856388076271365, -9.339727323873483 ], [ -37.856346848271407, -9.339202409873471 ], [ -37.855928622272707, -9.339114961873641 ], [ -37.855388356274339, -9.338745562873806 ], [ -37.855056639275389, -9.338581058873933 ], [ -37.854642582276639, -9.338375930874085 ], [ -37.854312946277673, -9.338374941874211 ], [ -37.853859545279079, -9.33837358187434 ], [ -37.853817227279208, -9.338408323874374 ], [ -37.85297582428182, -9.338141155874668 ], [ -37.852951173281802, -9.337924659874698 ], [ -37.853281589280762, -9.337601963874578 ], [ -37.85361159327968, -9.337360150874488 ], [ -37.853941289278595, -9.337077760874401 ], [ -37.854229659277664, -9.336754795874308 ], [ -37.854519561276689, -9.336514290874257 ], [ -37.854188183277678, -9.336268621874364 ], [ -37.854146939277712, -9.335742150874394 ], [ -37.854064476277919, -9.335296455874461 ], [ -37.854065199277827, -9.334770897874479 ], [ -37.854024683277892, -9.334407114874519 ], [ -37.854115001277499, -9.333828428874533 ], [ -37.85467237527557, -9.332738025874443 ], [ -37.854939608274584, -9.33170029687439 ], [ -37.85544223127291, -9.331319295874261 ], [ -37.855894333271507, -9.331375648874104 ], [ -37.856346063270102, -9.331431953873919 ], [ -37.856948500268238, -9.331550368873746 ], [ -37.857237068267253, -9.331226735873683 ], [ -37.857168929267381, -9.330625886873694 ], [ -37.857391055266575, -9.329810629873689 ], [ -37.857805455265229, -9.329438332873568 ], [ -37.858294112263529, -9.329019223873416 ], [ -37.858360603263229, -9.328299579873482 ], [ -37.858796691261723, -9.327646439873371 ], [ -37.859448859259651, -9.327262786873154 ], [ -37.859929446258043, -9.326875750873006 ], [ -37.860418790256453, -9.32643763387289 ], [ -37.861034230254475, -9.326387804872708 ], [ -37.861705204252374, -9.326447225872464 ], [ -37.862273487250647, -9.326836517872215 ], [ -37.862851154248922, -9.327338725872005 ], [ -37.86335347424729, -9.327288687871841 ], [ -37.863855791245697, -9.327184836871679 ], [ -37.864248447244435, -9.327243688871553 ], [ -37.864765362242856, -9.327635087871357 ], [ -37.864629089243422, -9.328081499871351 ], [ -37.864934779242461, -9.328474943871239 ], [ -37.865444658240953, -9.32880704487108 ], [ -37.865980891239303, -9.329125309870832 ], [ -37.866505521237613, -9.329168852870664 ], [ -37.867035720235961, -9.329322403870469 ], [ -37.867506967234505, -9.329527465870294 ], [ -37.867791586233707, -9.330342391870138 ], [ -37.868124764232753, -9.330937918870026 ], [ -37.868559059231515, -9.331422024869859 ], [ -37.868732472230988, -9.331749125869758 ], [ -37.869326118229132, -9.331908009869556 ], [ -37.869627057228072, -9.331356755869482 ], [ -37.869828621227292, -9.330861291869441 ], [ -37.870148504226229, -9.33042261686936 ], [ -37.870530904224999, -9.330312793869245 ], [ -37.870972734223628, -9.33058513486907 ], [ -37.871196767222976, -9.330967005868954 ], [ -37.871380224222513, -9.331319162868894 ], [ -37.87114643422327, -9.331685743868979 ], [ -37.871233731223043, -9.332049466868906 ], [ -37.871592385221959, -9.332166528868767 ], [ -37.871992195220678, -9.332364037868599 ], [ -37.872079092220503, -9.332848117868574 ], [ -37.872251788220026, -9.33341323186848 ], [ -37.872427023219601, -9.333937638868377 ], [ -37.872666016218794, -9.333914086868308 ], [ -37.872975213217792, -9.333789201868177 ], [ -37.873236497216951, -9.333667103868095 ], [ -37.873387259216493, -9.33390507986809 ], [ -37.873304536216814, -9.334204570868062 ], [ -37.873142516217364, -9.334416688868126 ], [ -37.872958951218017, -9.334717585868173 ], [ -37.872804350218559, -9.335074761868157 ], [ -37.872816338218541, -9.335369850868164 ], [ -37.873079598217814, -9.335633965868068 ], [ -37.873369217216926, -9.335839580867971 ], [ -37.873490918216525, -9.336074921867905 ], [ -37.873502834216552, -9.33639759086787 ], [ -37.873457359216758, -9.336689521867834 ], [ -37.873526538216581, -9.337039375867834 ], [ -37.873763144215872, -9.337361297867755 ], [ -37.873933339215348, -9.337392450867707 ], [ -37.87419221621456, -9.337423917867573 ], [ -37.874421219213815, -9.337367559867523 ], [ -37.874616496213136, -9.337135498867459 ], [ -37.874812744212484, -9.336902283867422 ], [ -37.875133557211399, -9.336903989867292 ], [ -37.875398449210614, -9.336964275867205 ], [ -37.875551845210126, -9.337229798867121 ], [ -37.875709392209693, -9.33767053086709 ], [ -37.876136049208391, -9.337991295866855 ], [ -37.876406598207559, -9.338285016866738 ], [ -37.876759316206503, -9.338407344866662 ], [ -37.877086077205483, -9.338557134866514 ], [ -37.877357759204671, -9.338879666866427 ], [ -37.877750473203506, -9.339405161866267 ], [ -37.878081187202461, -9.339813385866117 ], [ -37.878231340202021, -9.340164404866044 ], [ -37.878556127200994, -9.340115440865956 ], [ -37.878851280200031, -9.339774732865877 ], [ -37.879059383199284, -9.339515850865775 ], [ -37.879298675198498, -9.339344045865728 ], [ -37.879539186197732, -9.339257999865625 ], [ -37.879623244197361, -9.338872699865682 ], [ -37.879776747196807, -9.338360378865598 ], [ -37.879930732196229, -9.337845476865581 ], [ -37.880239525195158, -9.337390659865505 ], [ -37.880363347194582, -9.336598879865511 ], [ -37.880742803193264, -9.335997317865443 ], [ -37.881301710191408, -9.335546159865258 ], [ -37.882068269188885, -9.335370040864991 ], [ -37.882615305187151, -9.335408536864813 ], [ -37.883084898185636, -9.335524219864677 ], [ -37.88351709918426, -9.335755499864502 ], [ -37.883908863183024, -9.335871043864325 ], [ -37.884417755181367, -9.335986513864192 ], [ -37.884808701180155, -9.335986403864011 ], [ -37.885198764178845, -9.335755070863931 ], [ -37.885549398177631, -9.335369336863785 ], [ -37.8857431091769, -9.334751526863757 ], [ -37.885741476176797, -9.33421021786382 ], [ -37.885542987177274, -9.333396915863963 ], [ -37.885541816177202, -9.332583585863999 ], [ -37.885268374177834, -9.331501948864117 ], [ -37.885073361178378, -9.330923429864225 ], [ -37.884957799178608, -9.329960656864362 ], [ -37.884802852178929, -9.329152815864425 ], [ -37.884653405179264, -9.328126219864538 ], [ -37.884735021178919, -9.327706755864552 ], [ -37.88473415117884, -9.327339954864597 ], [ -37.884786669178659, -9.327078155864591 ], [ -37.884971487177992, -9.326764084864498 ], [ -37.885236739177159, -9.326973287864385 ], [ -37.8855014951763, -9.326947012864318 ], [ -37.885792684175314, -9.32673772186428 ], [ -37.885951355174754, -9.326397772864212 ], [ -37.885976872174616, -9.326136300864221 ], [ -37.885867143174941, -9.325849012864239 ], [ -37.885553198175877, -9.325613614864405 ], [ -37.885289379176697, -9.325352009864492 ], [ -37.885210362176906, -9.325142663864545 ], [ -37.885369227176355, -9.324933440864484 ], [ -37.885686317175342, -9.324907549864355 ], [ -37.885974978174417, -9.324908374864298 ], [ -37.886260295173521, -9.324910045864211 ], [ -37.886570160172504, -9.324990086864085 ], [ -37.886828717171646, -9.324835237864001 ], [ -37.886984326171124, -9.324601915863951 ], [ -37.886960610171073, -9.324236945863982 ], [ -37.886910132171231, -9.324053890864027 ], [ -37.887118220170514, -9.323638916863951 ], [ -37.887351404169614, -9.323276975863905 ], [ -37.887515346169074, -9.322961487863839 ], [ -37.887680530168453, -9.32264470086383 ], [ -37.887792167168072, -9.322380015863835 ], [ -37.888098971167032, -9.322146276863725 ], [ -37.888641199165242, -9.321756957863528 ], [ -37.889012765163933, -9.321536557863437 ], [ -37.889359171162788, -9.321292221863347 ], [ -37.88972977916152, -9.320805368863255 ], [ -37.889852945160982, -9.320222590863237 ], [ -37.889852343160896, -9.319640189863243 ], [ -37.889728590161283, -9.319373315863318 ], [ -37.889654009161411, -9.318936296863354 ], [ -37.889653666161372, -9.318620553863413 ], [ -37.889826315160768, -9.318353387863329 ], [ -37.890122611159789, -9.318353464863208 ], [ -37.8905173821585, -9.318402100863116 ], [ -37.890788459157569, -9.318305114863003 ], [ -37.890985612156861, -9.318014203862976 ], [ -37.891209281156129, -9.317700578862951 ], [ -37.891505772155114, -9.317460496862827 ], [ -37.891652468154589, -9.317170122862766 ], [ -37.891823125153927, -9.316612494862785 ], [ -37.89179769615393, -9.316199140862816 ], [ -37.89177249215394, -9.315810088862857 ], [ -37.891845739153624, -9.315348699862836 ], [ -37.892116458152657, -9.314891998862771 ], [ -37.892435904151569, -9.314631918862691 ], [ -37.892754269150487, -9.314316263862585 ], [ -37.893210883148953, -9.314059075862394 ], [ -37.893434766148189, -9.313865499862382 ], [ -37.89343497414815, -9.313670094862397 ], [ -37.893658953147408, -9.313532235862338 ], [ -37.893882714146621, -9.313450319862255 ], [ -37.894106825145876, -9.313228661862174 ], [ -37.894106983145797, -9.312979223862186 ], [ -37.894107823145731, -9.312561062862187 ] ] ] ] } }
]
}
