{
"type": "FeatureCollection",
"name": "ZA_Rebio_PedraTalhada",
"crs": { "type": "name", "properties": { "name": "urn:ogc:def:crs:OGC:1.3:CRS84" } },
"features": [
{ "type": "Feature", "properties": { "id": 1, "Zona": "Zona de Amortecimento", "AREA_HA": 4327.397 }, "geometry": { "type": "MultiPolygon", "coordinates": [ [ [ [ -36.476035666132645, -9.216539011325944 ], [ -36.475832198672933, -9.216256875519692 ], [ -36.475679190251391, -9.216102688415015 ], [ -36.475551683334665, -9.215974199137657 ], [ -36.475398856512932, -9.215794494305653 ], [ -36.475271531168161, -9.215640487314976 ], [ -36.475271893892504, -9.215589451977468 ], [ -36.475195934018309, -9.215435805375897 ], [ -36.475044195794723, -9.21510299450893 ], [ -36.474968236079185, -9.214949347909796 ], [ -36.47481595405258, -9.214693090034862 ], [ -36.474739450349794, -9.214615996413439 ], [ -36.474586987206031, -9.214385256176858 ], [ -36.474434161450304, -9.214205551234517 ], [ -36.474307018399934, -9.214026026502815 ], [ -36.474051825587949, -9.213794565239626 ], [ -36.473744905227193, -9.213613778636455 ], [ -36.473541803867548, -9.213280607153676 ], [ -36.473441069801218, -9.212999192042759 ], [ -36.473365655403221, -9.212768992490224 ], [ -36.473289878180182, -9.212589828213245 ], [ -36.473137416658773, -9.212359087824312 ], [ -36.472933953443693, -9.212076951577934 ], [ -36.472654532260712, -9.211641168643931 ], [ -36.47232501743219, -9.211026401710024 ], [ -36.472172194067504, -9.210846696470679 ], [ -36.472019370850475, -9.210666991206267 ], [ -36.471738136519058, -9.210486384192777 ], [ -36.471534312255429, -9.210255282919277 ], [ -36.47132994364631, -9.21010073439469 ], [ -36.4711261198645, -9.209869633016089 ], [ -36.470845612939151, -9.209586955229693 ], [ -36.470565651176869, -9.209227724586571 ], [ -36.470260007836494, -9.208868313448713 ], [ -36.470056003808587, -9.208662729401773 ], [ -36.46985236323026, -9.208406110157082 ], [ -36.469597540466246, -9.208123612396284 ], [ -36.469495538821072, -9.208020820296856 ], [ -36.469291354071984, -9.207840753618679 ], [ -36.469086987889902, -9.207686204436174 ], [ -36.46885693991841, -9.207531474687688 ], [ -36.468626710495002, -9.207402262393609 ], [ -36.468293753460664, -9.20727232788108 ], [ -36.467833659145413, -9.206962867598488 ], [ -36.467655884782459, -9.206680910804538 ], [ -36.467503065592872, -9.20650120467907 ], [ -36.467350246550872, -9.206321498528652 ], [ -36.467248427854521, -9.206193188573438 ], [ -36.467146790980372, -9.206039361086965 ], [ -36.467019654117713, -9.205859835479696 ], [ -36.46681583548915, -9.205628733017271 ], [ -36.466637517121114, -9.205423328635236 ], [ -36.466459198951036, -9.205217924218173 ], [ -36.466331880891339, -9.205063916039823 ], [ -36.466153381262203, -9.204884029067086 ], [ -36.466051745166745, -9.204730201489534 ], [ -36.465898745731941, -9.204576012608005 ], [ -36.465592747259279, -9.204267634753448 ], [ -36.465439566384305, -9.20413896327069 ], [ -36.465260885818033, -9.203984593580609 ], [ -36.4650567056337, -9.20380452566401 ], [ -36.464878207281778, -9.203624638391478 ], [ -36.464648527785997, -9.203418872170001 ], [ -36.464469847947456, -9.203264502271637 ], [ -36.464239987033331, -9.203084253380165 ], [ -36.464035626004012, -9.202929702618986 ], [ -36.463933445561025, -9.202852427212397 ], [ -36.463293954580067, -9.202490663416299 ], [ -36.463038231400361, -9.202335750698033 ], [ -36.462653737120334, -9.202230968579078 ], [ -36.46239783248577, -9.202101572962263 ], [ -36.462193108938827, -9.201998056373348 ], [ -36.462039384335604, -9.201945936301867 ], [ -36.461732117368697, -9.201816178578058 ], [ -36.461526848051399, -9.201789213953438 ], [ -36.461347442293146, -9.201736912728801 ], [ -36.460449321770867, -9.201628509844618 ], [ -36.459602200715004, -9.201571501705445 ], [ -36.459114619345293, -9.201517026865783 ], [ -36.458780579555864, -9.201540190106233 ], [ -36.458575128799453, -9.201538741258846 ], [ -36.458343814444895, -9.201562628518811 ], [ -36.457804688763467, -9.201533307040657 ], [ -36.457265016277994, -9.20158053677328 ], [ -36.456469078064252, -9.201549401152846 ], [ -36.454543347102877, -9.201484766707411 ], [ -36.454363578311494, -9.201483496867525 ], [ -36.45379840823135, -9.201505022622362 ], [ -36.453310282031381, -9.201527091943214 ], [ -36.453052739002246, -9.20162734596248 ], [ -36.452330558119861, -9.202056055972919 ], [ -36.452022017587488, -9.202104911477161 ], [ -36.451919658114271, -9.202053150650162 ], [ -36.451740986059406, -9.201898776099831 ], [ -36.451588178164513, -9.201719065899338 ], [ -36.451435918781364, -9.201462804028104 ], [ -36.451232114444338, -9.201231696104651 ], [ -36.450345341420793, -9.199541203056121 ], [ -36.449888202770637, -9.198823451620163 ], [ -36.449278260375209, -9.197925989621559 ], [ -36.449024560480659, -9.19749038055064 ], [ -36.448795078817511, -9.197259090533269 ], [ -36.448412610039938, -9.196873607019976 ], [ -36.447748019588403, -9.196435089491514 ], [ -36.446777641550703, -9.195662666469293 ], [ -36.446599157893445, -9.195482773666678 ], [ -36.446447087141841, -9.195200994180556 ], [ -36.446397190016121, -9.194996493481296 ], [ -36.446425798826084, -9.194588401336722 ], [ -36.446505036603256, -9.194282741333229 ], [ -36.446773917728606, -9.192600428736336 ], [ -36.446858276152561, -9.191580288577546 ], [ -36.447234625263931, -9.189235255415193 ], [ -36.447394191301356, -9.18847083088813 ], [ -36.447453594799335, -9.187348439374421 ], [ -36.447459443715267, -9.186531890368398 ], [ -36.447417221669873, -9.185255669291221 ], [ -36.447270634656384, -9.184208376338924 ], [ -36.446918792124492, -9.183134113747947 ], [ -36.446488815323448, -9.182212409428246 ], [ -36.445930624850988, -9.181264279963395 ], [ -36.44514205221607, -9.180212447109497 ], [ -36.444096689437764, -9.179158796781245 ], [ -36.443586209946055, -9.17872137177495 ], [ -36.44317680298159, -9.178514327152582 ], [ -36.442434479873675, -9.178177333517812 ], [ -36.441589624337212, -9.177814094264912 ], [ -36.44102541224931, -9.177708024805746 ], [ -36.440717810228264, -9.177629290829724 ], [ -36.440384346067241, -9.17757589171976 ], [ -36.438845973596599, -9.177233251193963 ], [ -36.437872180477996, -9.176945645575577 ], [ -36.437411605408407, -9.176712714681338 ], [ -36.436848131330045, -9.176504571663729 ], [ -36.436181391710704, -9.176372249949759 ], [ -36.435232550197142, -9.176186888340677 ], [ -36.434874144346836, -9.176031234771603 ], [ -36.434464380870608, -9.175875216284478 ], [ -36.434054434353456, -9.175744714332641 ], [ -36.433592763224823, -9.175664881025593 ], [ -36.433182450384777, -9.175585412008562 ], [ -36.432669789271031, -9.175454179055864 ], [ -36.432337064817474, -9.175298705909134 ], [ -36.431927304003473, -9.175142685069659 ], [ -36.431542671519608, -9.175063396940555 ], [ -36.431131809325791, -9.175060476442777 ], [ -36.430566874031989, -9.175056459997586 ], [ -36.429976076349433, -9.175077776867552 ], [ -36.427921033457764, -9.175165227921864 ], [ -36.426712657057287, -9.175360769505282 ], [ -36.426070134630322, -9.175432747531698 ], [ -36.42555655859524, -9.175429088918214 ], [ -36.425197607904757, -9.175349977277639 ], [ -36.424890567473319, -9.175194681153235 ], [ -36.424429454881, -9.175038286745423 ], [ -36.424071057741742, -9.174882624047122 ], [ -36.42353291004914, -9.174725679571491 ], [ -36.423020625991519, -9.174543400851938 ], [ -36.422687356071194, -9.174464470219476 ], [ -36.422328407723114, -9.174385356162933 ], [ -36.421815203425787, -9.174330659330955 ], [ -36.421353356742017, -9.174276328265131 ], [ -36.420865462902768, -9.174272846670085 ], [ -36.420454051724995, -9.174346464186501 ], [ -36.419888384346251, -9.174444497851582 ], [ -36.418885257816292, -9.174666995921337 ], [ -36.418164780050965, -9.174865992476136 ], [ -36.417135604506164, -9.175139334716061 ], [ -36.416310009246068, -9.175669307945313 ], [ -36.414837638446699, -9.176858115436538 ], [ -36.414112161739318, -9.177746047527609 ], [ -36.412765948329088, -9.179241958835313 ], [ -36.412170336707668, -9.179926672233103 ], [ -36.411938301211329, -9.180052598517792 ], [ -36.41173101844867, -9.180306290868318 ], [ -36.411677808664187, -9.180561087266533 ], [ -36.411573240954652, -9.180815515538486 ], [ -36.41136651311453, -9.180992658159969 ], [ -36.411082377802565, -9.181220281205604 ], [ -36.41077256322022, -9.18144771980722 ], [ -36.410488241898719, -9.181700858594848 ], [ -36.410358735236152, -9.181853036356459 ], [ -36.409968175494512, -9.182590249662653 ], [ -36.409967063253262, -9.182743348109936 ], [ -36.409964653330888, -9.183075061407481 ], [ -36.41001397219506, -9.183356110308841 ], [ -36.410011932934388, -9.183636790792779 ], [ -36.410010079004635, -9.183891954864938 ], [ -36.409930260661859, -9.184274148270676 ], [ -36.409799640034244, -9.18457942390007 ], [ -36.409695440026766, -9.184782818082763 ], [ -36.409667350136949, -9.185114347002498 ], [ -36.40966531020635, -9.185395027381906 ], [ -36.409714257724808, -9.185727109112335 ], [ -36.409890674207269, -9.186187694249222 ], [ -36.409939065480685, -9.186596325229514 ], [ -36.410064494676902, -9.187005509071327 ], [ -36.410114555129418, -9.187184492458474 ], [ -36.410212636067712, -9.187823139712638 ], [ -36.410208926722532, -9.188333467816474 ], [ -36.410257317977447, -9.188742098891685 ], [ -36.410203733278287, -9.189047927135174 ], [ -36.410099902445438, -9.189200288290058 ], [ -36.409866932034014, -9.18945379329867 ], [ -36.409505378236332, -9.189731892610354 ], [ -36.409170616905385, -9.189857077514265 ], [ -36.408732766177366, -9.190032557069017 ], [ -36.407676007338431, -9.190560837105567 ], [ -36.407392046855591, -9.190762938033467 ], [ -36.406928515080061, -9.190938230290193 ], [ -36.406670976648741, -9.191038449712167 ], [ -36.406542207394992, -9.191088559338914 ], [ -36.406181764841541, -9.191213556203646 ], [ -36.406001264750991, -9.191314328947163 ], [ -36.405922925230733, -9.191492389172076 ], [ -36.405870636878909, -9.19161960140371 ], [ -36.40576661761915, -9.191797476881682 ], [ -36.405662412365693, -9.192000868606744 ], [ -36.405481539960867, -9.192152673542365 ], [ -36.40514696165765, -9.192252337377125 ], [ -36.404992884115657, -9.192251228944487 ], [ -36.404813127007813, -9.192249935690112 ], [ -36.404401695808879, -9.192323528188751 ], [ -36.404195701213851, -9.19239859865972 ], [ -36.404066187320737, -9.192550772263241 ], [ -36.403961794880246, -9.1927796794313 ], [ -36.403934069098348, -9.193060173583179 ], [ -36.403906901289325, -9.193264118907331 ], [ -36.403905599100113, -9.19344273279591 ], [ -36.403903180678711, -9.193774444298102 ], [ -36.403926627907445, -9.194080824382384 ], [ -36.403822420716381, -9.194284215077106 ], [ -36.403641360282045, -9.19446153479722 ], [ -36.403382702206706, -9.194714848436039 ], [ -36.403174844917707, -9.195045080401002 ], [ -36.402967359461144, -9.195324279638228 ], [ -36.402810860916567, -9.195654881086922 ], [ -36.402680786496134, -9.195883602401032 ], [ -36.402472927681615, -9.196213833573088 ], [ -36.402265627057069, -9.19646751581717 ], [ -36.402239016161346, -9.196594911951099 ], [ -36.402211474139037, -9.196849889229592 ], [ -36.402209611908027, -9.197105051531766 ], [ -36.402208308314258, -9.19728366514093 ], [ -36.402129778735372, -9.197487239828815 ], [ -36.401846182217604, -9.197638301474845 ], [ -36.401666795392529, -9.197585973464932 ], [ -36.401461356168141, -9.197584492708542 ], [ -36.400947571931859, -9.19760630651041 ], [ -36.40068984130815, -9.197732036022252 ], [ -36.400457790441081, -9.197857950478092 ], [ -36.400251046574162, -9.198035082312819 ], [ -36.40009584874484, -9.19818706821169 ], [ -36.399812064746037, -9.198363644036762 ], [ -36.399374387389948, -9.198513591804351 ], [ -36.399117028734132, -9.198588287518808 ], [ -36.398602311239287, -9.198737678305237 ], [ -36.398011113413162, -9.198809963696389 ], [ -36.39744596873269, -9.198831401203201 ], [ -36.397188423185845, -9.198931611487385 ], [ -36.39705797065136, -9.199211361646428 ], [ -36.397057037453024, -9.199338942256851 ], [ -36.397054611074175, -9.199670651839321 ], [ -36.396870931362365, -9.200205192059363 ], [ -36.396664184591394, -9.200382320941772 ], [ -36.396405144027142, -9.200686659142749 ], [ -36.39619783654706, -9.200940335918498 ], [ -36.395990155241115, -9.201245044684969 ], [ -36.395730179484339, -9.201676962512851 ], [ -36.395625964823324, -9.201880348846984 ], [ -36.395521563210842, -9.202109251202682 ], [ -36.395416600967174, -9.202414701741095 ], [ -36.395337879123304, -9.202643789589031 ], [ -36.395257101837515, -9.203153554270592 ], [ -36.395253177894119, -9.203689391940175 ], [ -36.395250748666875, -9.20402110096491 ], [ -36.39527493396524, -9.204225415268072 ], [ -36.395348237336471, -9.204736293883682 ], [ -36.395294073514805, -9.205118663693142 ], [ -36.395163429142201, -9.205423928113573 ], [ -36.395033345236506, -9.20565264420452 ], [ -36.394928567642033, -9.205932578071792 ], [ -36.394797735551329, -9.20626335824365 ], [ -36.394667464027933, -9.206517590105797 ], [ -36.394562498754546, -9.206823039764739 ], [ -36.394483774638324, -9.20705212695302 ], [ -36.394481717773353, -9.207332803595776 ], [ -36.39445267135936, -9.207791906833226 ], [ -36.394475172767869, -9.208225865608881 ], [ -36.394498422146739, -9.208557760161993 ], [ -36.394572097543872, -9.2090176066492 ], [ -36.394568731113921, -9.209476895680979 ], [ -36.394566299694489, -9.209808604418139 ], [ -36.394562745917135, -9.2102934094834 ], [ -36.394481588624949, -9.210854205115059 ], [ -36.394374750079429, -9.211414814759953 ], [ -36.394296024005229, -9.211643901539867 ], [ -36.394139694115538, -9.211948978688259 ], [ -36.393803411131543, -9.212278270189621 ], [ -36.393518302000167, -9.212633449168736 ], [ -36.393464881417309, -9.212913753556471 ], [ -36.393332920535549, -9.213397628150467 ], [ -36.393303495546689, -9.213907762658696 ], [ -36.393300125659351, -9.214367051100393 ], [ -36.393349053681249, -9.214699131458369 ], [ -36.393320564260605, -9.215081685794095 ], [ -36.393368743259373, -9.215515830266193 ], [ -36.393418045690353, -9.215796878608405 ], [ -36.393467160894545, -9.216103442986665 ], [ -36.393568012792613, -9.21635934740771 ], [ -36.393794087357108, -9.217049954524228 ], [ -36.39394555298928, -9.217408295179659 ], [ -36.394096644375217, -9.217817667920622 ], [ -36.394247174295344, -9.218303588800101 ], [ -36.394372959342334, -9.218661743489628 ], [ -36.394473063249229, -9.219019712171955 ], [ -36.39457298003169, -9.219403196918899 ], [ -36.394673458622364, -9.219710133556669 ], [ -36.394722574555047, -9.220016698153289 ], [ -36.394720514932409, -9.220297374648281 ], [ -36.394719016983949, -9.220501503005234 ], [ -36.394587613756862, -9.220908829446895 ], [ -36.394380476696192, -9.221136985259962 ], [ -36.393838918335149, -9.221439269548174 ], [ -36.393349659005402, -9.221614345014611 ], [ -36.392860024541967, -9.221840451688838 ], [ -36.392499359327878, -9.221990940700859 ], [ -36.392138131493759, -9.222217977233216 ], [ -36.391390930756209, -9.222544282628618 ], [ -36.391056696244419, -9.222592892269018 ], [ -36.390542878900575, -9.222614680995715 ], [ -36.390028686444545, -9.222687500860996 ], [ -36.389592289041119, -9.22265881554617 ], [ -36.389258617687645, -9.222630875624244 ], [ -36.388744613178801, -9.222678177651535 ], [ -36.388307653073532, -9.222726038539397 ], [ -36.387871068565744, -9.22272286705986 ], [ -36.387460165642679, -9.222719881654999 ], [ -36.387178796953492, -9.222564733592927 ], [ -36.387026211206418, -9.222359486767068 ], [ -36.386797145041662, -9.222077132374977 ], [ -36.386444369020232, -9.221155947822735 ], [ -36.386318780436071, -9.220772276499133 ], [ -36.386166947210945, -9.220464966162206 ], [ -36.385962624552413, -9.220310377713135 ], [ -36.385757926320402, -9.220206820919724 ], [ -36.385347402828138, -9.220152802202339 ], [ -36.384833966899556, -9.220123551958865 ], [ -36.384500863402785, -9.220019060868037 ], [ -36.384193065358332, -9.219965787962705 ], [ -36.383782354856258, -9.219937283421263 ], [ -36.383217933833663, -9.219856625748056 ], [ -36.382910136424982, -9.219803351835425 ], [ -36.382422195171344, -9.219799801001285 ], [ -36.381985804466488, -9.219771107594417 ], [ -36.381421573083593, -9.219664931510394 ], [ -36.380909080842478, -9.219508097123125 ], [ -36.380627718616054, -9.219352945405284 ], [ -36.3803718494568, -9.219223496325585 ], [ -36.380038937480201, -9.219093485945189 ], [ -36.379758140965201, -9.218861786517451 ], [ -36.379477156534513, -9.218655602704812 ], [ -36.378940869666586, -9.218243421807562 ], [ -36.378300918733771, -9.217958070392616 ], [ -36.377994066774995, -9.217777214394253 ], [ -36.377559752983579, -9.217467843724037 ], [ -36.377304263586183, -9.217287361750879 ], [ -36.377048962918082, -9.217081363979036 ], [ -36.376690939424691, -9.216874617106992 ], [ -36.376052124611505, -9.216436168846801 ], [ -36.375744521353887, -9.216357374247306 ], [ -36.375359499062895, -9.216329048729529 ], [ -36.374973911217488, -9.216377269754682 ], [ -36.374665365507923, -9.216426052511636 ], [ -36.374279589038878, -9.216499788367651 ], [ -36.37394498527506, -9.216599414279331 ], [ -36.373711594817578, -9.216903914646956 ], [ -36.373479147435063, -9.217080836675452 ], [ -36.373271248257751, -9.217411039651841 ], [ -36.373062971152258, -9.217792273604388 ], [ -36.372854693517411, -9.21817350730427 ], [ -36.372697588210194, -9.218580631495652 ], [ -36.372565974475073, -9.219013458693706 ], [ -36.372485722047337, -9.219446660958958 ], [ -36.372405846948915, -9.219828831965621 ], [ -36.37214582731567, -9.220260720594956 ], [ -36.372015156157104, -9.220565969297324 ], [ -36.371831422671264, -9.221100482702218 ], [ -36.371571023225286, -9.22158340157138 ], [ -36.371439406082288, -9.222016227598633 ], [ -36.371308355383199, -9.222372506792299 ], [ -36.371203741346335, -9.222626911383776 ], [ -36.371098938124341, -9.222906831456942 ], [ -36.371071178051871, -9.223187314802724 ], [ -36.37106834298821, -9.22357004814137 ], [ -36.371168232522145, -9.223953532646414 ], [ -36.37126831117272, -9.224311501617931 ], [ -36.371496418121581, -9.224721440665988 ], [ -36.371596308125412, -9.22510492524941 ], [ -36.371773620142307, -9.225437942065172 ], [ -36.371975668806456, -9.225898724506143 ], [ -36.372127111065538, -9.226257069138118 ], [ -36.372150524557149, -9.22656344379199 ], [ -36.372223788872653, -9.227074318598415 ], [ -36.372218118676997, -9.227839785813305 ], [ -36.372260219451675, -9.229090424488883 ], [ -36.372256438587911, -9.22960073592745 ], [ -36.372253224682218, -9.230034500637649 ], [ -36.372250766883298, -9.23036620305531 ], [ -36.372350657631856, -9.230749687991638 ], [ -36.372399185034389, -9.231132797262545 ], [ -36.372525135831218, -9.231465438945813 ], [ -36.372726241497318, -9.232053799943607 ], [ -36.372749276345814, -9.232411205876556 ], [ -36.372590647255933, -9.23302245253362 ], [ -36.372357619324696, -9.233275917302182 ], [ -36.372123834487006, -9.233631444076059 ], [ -36.371993344289507, -9.23391117563018 ], [ -36.371760126096014, -9.234190155272699 ], [ -36.371681566794571, -9.234393715825963 ], [ -36.371602250571222, -9.234699338538599 ], [ -36.371522934141517, -9.235004961190947 ], [ -36.37144380673125, -9.235285068236292 ], [ -36.371133540930835, -9.235563483057851 ], [ -36.371080662814379, -9.235767231310655 ], [ -36.370975852688602, -9.236047150056091 ], [ -36.370922595769791, -9.236301929304688 ], [ -36.370920892189453, -9.236531569114506 ], [ -36.370893317166114, -9.236786536387157 ], [ -36.370787749134848, -9.237168517061219 ], [ -36.370706916288164, -9.237678263373462 ], [ -36.370472368526642, -9.238135849814897 ], [ -36.370418353067855, -9.238492690858875 ], [ -36.370415323138594, -9.238900939191764 ], [ -36.3703350568518, -9.239334138562421 ], [ -36.370356761862752, -9.23987015260642 ], [ -36.370353731402957, -9.240278400887824 ], [ -36.370349943131743, -9.240788711225179 ], [ -36.370190544588226, -9.24150201641897 ], [ -36.370084973015132, -9.241883996194346 ], [ -36.369927846662819, -9.242291114880747 ], [ -36.3693543031575, -9.243435170153791 ], [ -36.369042510657842, -9.243917704491123 ], [ -36.368680110431455, -9.244297799643066 ], [ -36.368291647494125, -9.24472873672854 ], [ -36.368007052244636, -9.245007334138998 ], [ -36.367722266846201, -9.245311446650728 ], [ -36.367410659878409, -9.245768462994137 ], [ -36.367099241781169, -9.246199963390143 ], [ -36.366916805882781, -9.246555859764644 ], [ -36.366707737739084, -9.247039144529674 ], [ -36.366499428215015, -9.24742036729128 ], [ -36.366420671282306, -9.247649440323904 ], [ -36.366340775067073, -9.248031605850622 ], [ -36.366415165543124, -9.248389387655479 ], [ -36.366568123556611, -9.248543611928408 ], [ -36.366797750667317, -9.248749432850703 ], [ -36.366947861446498, -9.249286388567079 ], [ -36.367123845279885, -9.249798017498302 ], [ -36.367478091907458, -9.250515090167708 ], [ -36.368115423051208, -9.25115769075467 ], [ -36.368549189094907, -9.251543627933817 ], [ -36.368804502319833, -9.251749636938674 ], [ -36.369058108133856, -9.252185285107204 ], [ -36.369388384661413, -9.252672529716014 ], [ -36.369489979181303, -9.252826376580069 ], [ -36.369847268049973, -9.253135201165398 ], [ -36.36999909120609, -9.253442517871569 ], [ -36.370022308270599, -9.253774407730008 ], [ -36.370071208633846, -9.254106486071461 ], [ -36.370171475739788, -9.254438941382984 ], [ -36.370297616063887, -9.254746069692851 ], [ -36.370475692503248, -9.254977028455771 ], [ -36.370805972881215, -9.25546427295652 ], [ -36.370831466647303, -9.255489976912918 ], [ -36.371085456115289, -9.255874593983508 ], [ -36.371366267595853, -9.256106306355282 ], [ -36.371646889814102, -9.256363534127333 ], [ -36.371851220321581, -9.25651813449697 ], [ -36.372080665713248, -9.256749469772618 ], [ -36.372311059474306, -9.256853227312057 ], [ -36.372541074206417, -9.257008015817373 ], [ -36.372899507271605, -9.257163745932759 ], [ -36.373103270195188, -9.257394892510275 ], [ -36.373204867409918, -9.257548739109476 ], [ -36.373356694705983, -9.25785605566057 ], [ -36.373456207000586, -9.258290573365338 ], [ -36.373505489282294, -9.25857162111984 ], [ -36.373657127507677, -9.258904453281003 ], [ -36.373808765948922, -9.259237285451587 ], [ -36.374395323929626, -9.259802958767509 ], [ -36.37470125605914, -9.260111404965802 ], [ -36.374853464318022, -9.260367690346246 ], [ -36.375005293769135, -9.260675006887995 ], [ -36.375132576442304, -9.260829041663856 ], [ -36.37523493321833, -9.260880825825712 ], [ -36.37546552030301, -9.260959066723126 ], [ -36.375696107526764, -9.261037307499887 ], [ -36.376029241351205, -9.261141816540661 ], [ -36.376464732610316, -9.261298109217435 ], [ -36.376951024296687, -9.261531324605823 ], [ -36.377155739059923, -9.261634892124302 ], [ -36.377488495529391, -9.261790431344904 ], [ -36.377719273385537, -9.261843155450338 ], [ -36.378026914260552, -9.261921959270104 ], [ -36.378359860861188, -9.262051982207955 ], [ -36.378666934408201, -9.262207332536963 ], [ -36.378870325502398, -9.262489508944 ], [ -36.379098833308412, -9.262848420322024 ], [ -36.379326773799164, -9.263283878683394 ], [ -36.379479554393114, -9.263463616346753 ], [ -36.379632524360908, -9.263617838311404 ], [ -36.379759620997206, -9.263797387947061 ], [ -36.379912780436527, -9.263926094182999 ], [ -36.380091435063285, -9.264080504027238 ], [ -36.380218532079525, -9.264260053606201 ], [ -36.380345250829336, -9.264490634550631 ], [ -36.380522960004299, -9.264772622763482 ], [ -36.380700101888415, -9.265131158046458 ], [ -36.380775452390672, -9.265361363114087 ], [ -36.380877244055171, -9.265489693334684 ], [ -36.381055710674261, -9.265669618721322 ], [ -36.381490643487581, -9.265902454529853 ], [ -36.381721236059171, -9.265980692663881 ], [ -36.381822650019807, -9.266160054187861 ], [ -36.381821326166367, -9.266338664199861 ], [ -36.381537662112095, -9.266489691655194 ], [ -36.381073828115397, -9.266690434676679 ], [ -36.380481949751889, -9.266839205654353 ], [ -36.379993376880378, -9.266912180596629 ], [ -36.379761648746737, -9.266987035326203 ], [ -36.379528974024247, -9.267189468216831 ], [ -36.37937240592283, -9.267520043442573 ], [ -36.37934615343049, -9.267596402351245 ], [ -36.379343881447667, -9.267902590308216 ], [ -36.37934217740915, -9.268132231272173 ], [ -36.379546139231223, -9.268337861305948 ], [ -36.379725173978791, -9.268441240532649 ], [ -36.379980884028079, -9.268596215228836 ], [ -36.380211099007987, -9.268725486079214 ], [ -36.380415061721799, -9.268931115845623 ], [ -36.38059390782972, -9.269060010474274 ], [ -36.380874924965582, -9.269266204165746 ], [ -36.380976717403691, -9.269394534654163 ], [ -36.381308915230314, -9.269626619847839 ], [ -36.381666230637393, -9.269935439937482 ], [ -36.381896258079763, -9.270090225817308 ], [ -36.382203907570748, -9.270169028254069 ], [ -36.382562926813847, -9.27024820628028 ], [ -36.38341071371827, -9.270228890451586 ], [ -36.384106093600487, -9.269978804032007 ], [ -36.384389004301113, -9.26992983808867 ], [ -36.384620356409279, -9.269906012168304 ], [ -36.384799583007478, -9.269983873702907 ], [ -36.384900999359942, -9.270163235066791 ], [ -36.384898920537807, -9.270443908572945 ], [ -36.384897030642499, -9.270699066301619 ], [ -36.384895896679254, -9.270852160936881 ], [ -36.384968982368903, -9.271388555427627 ], [ -36.384992399241881, -9.27169493246484 ], [ -36.385093248947193, -9.271950841246214 ], [ -36.385246413680925, -9.272079546657855 ], [ -36.38542488553437, -9.272259471337817 ], [ -36.385654727560862, -9.27243977143819 ], [ -36.385807703763902, -9.272593992509556 ], [ -36.386062475445584, -9.272876543355634 ], [ -36.386240759174996, -9.273081983643342 ], [ -36.386497042972636, -9.273160407952325 ], [ -36.386650964462142, -9.273187049820368 ], [ -36.386932933585491, -9.273265661535214 ], [ -36.387240776863891, -9.273318944878815 ], [ -36.387445502170628, -9.273422509163945 ], [ -36.38770122015822, -9.273577480227125 ], [ -36.387879694151948, -9.273757404220836 ], [ -36.388263838398395, -9.273913312967837 ], [ -36.388571682736178, -9.273966595373606 ], [ -36.388956394006009, -9.274045955968951 ], [ -36.389161309209186, -9.274124003666799 ], [ -36.389468587868734, -9.274253832969897 ], [ -36.389673125929164, -9.274382912167759 ], [ -36.389927713660171, -9.274690977309607 ], [ -36.390106000803371, -9.274896416521587 ], [ -36.390283910756153, -9.275152887452657 ], [ -36.390538876876782, -9.275409920684275 ], [ -36.390895830067969, -9.27576976706886 ], [ -36.390972508791712, -9.275821361097613 ], [ -36.391203676979153, -9.275823047756052 ], [ -36.391486781799351, -9.275748561324589 ], [ -36.391951004160674, -9.275496774703177 ], [ -36.392285856516466, -9.275371630357347 ], [ -36.392542898540036, -9.275347987458002 ], [ -36.39280012909704, -9.275298828436492 ], [ -36.393108164856649, -9.27532659151546 ], [ -36.393620929861157, -9.275457915900311 ], [ -36.393774853699384, -9.27548455511884 ], [ -36.394006022184541, -9.275486239906183 ], [ -36.394339743886484, -9.275514189183587 ], [ -36.394570912495425, -9.275515873611322 ], [ -36.394879137375511, -9.275518119283122 ], [ -36.395341474841672, -9.275521487294018 ], [ -36.396059725368616, -9.275654305205816 ], [ -36.396188905707945, -9.275553176428721 ], [ -36.396318462508113, -9.275401015585565 ], [ -36.396372468969084, -9.275044165618658 ], [ -36.396373598478654, -9.274891069612622 ], [ -36.396197001118871, -9.274455988545556 ], [ -36.396146948189447, -9.274277002536289 ], [ -36.396148830699083, -9.274021842560497 ], [ -36.396228333792457, -9.273690695579011 ], [ -36.396281774921938, -9.273410393552666 ], [ -36.396438333392375, -9.273079807370612 ], [ -36.396569206258583, -9.272749034083214 ], [ -36.397011688175624, -9.271961215447648 ], [ -36.39792233016518, -9.270385761620712 ], [ -36.398596722487952, -9.269497556122456 ], [ -36.398858459764526, -9.268836005887602 ], [ -36.398963267077967, -9.268556076020753 ], [ -36.399171189875041, -9.268225860656145 ], [ -36.399353427282762, -9.267895458404283 ], [ -36.399638591864644, -9.267540286409055 ], [ -36.399948689408824, -9.267287364960874 ], [ -36.40033565344342, -9.267060518921921 ], [ -36.400722241515815, -9.266884704527218 ], [ -36.401159823618045, -9.266760294834786 ], [ -36.401956243517205, -9.266740559412133 ], [ -36.402288833886381, -9.266921595976696 ], [ -36.402825403324961, -9.267308252650357 ], [ -36.403310791617209, -9.267669019949844 ], [ -36.403668506070858, -9.267926790499661 ], [ -36.40412914890657, -9.26815978995044 ], [ -36.404794898199967, -9.268445311590476 ], [ -36.405306913015984, -9.268678682463031 ], [ -36.405716562962418, -9.268860275524403 ], [ -36.406229516367034, -9.268966064353412 ], [ -36.406793653266327, -9.269097741044202 ], [ -36.407255986721189, -9.269101091361335 ], [ -36.40769226051691, -9.269155287481679 ], [ -36.408257335259073, -9.269159380839866 ], [ -36.4089765216712, -9.269164589281296 ], [ -36.409541971365968, -9.269117648062814 ], [ -36.409927437248314, -9.269094920798993 ], [ -36.410236034555254, -9.269046119129348 ], [ -36.410647747072574, -9.268947028052629 ], [ -36.411187137542562, -9.268950930829297 ], [ -36.411982446042401, -9.269084272222189 ], [ -36.412596462699533, -9.269420442643655 ], [ -36.413031617880321, -9.269627730657616 ], [ -36.413441088308829, -9.269834832596832 ], [ -36.414030544000056, -9.270017717388601 ], [ -36.414722368600039, -9.270252376541944 ], [ -36.415106342530024, -9.270433775042473 ], [ -36.415592872072828, -9.27064143182514 ], [ -36.416052783101797, -9.270976484616128 ], [ -36.416563879455865, -9.271337424443818 ], [ -36.416818681244237, -9.271619959871465 ], [ -36.417098795646041, -9.27195371353918 ], [ -36.417456154131649, -9.272262507032439 ], [ -36.417993872849351, -9.27249604892404 ], [ -36.419172988650594, -9.272836289869485 ], [ -36.41973676877592, -9.273018982058225 ], [ -36.420480536516273, -9.273177453779867 ], [ -36.421224491754487, -9.273310407625873 ], [ -36.421892136034408, -9.273340738554475 ], [ -36.422328794766123, -9.27334388577283 ], [ -36.422996439771666, -9.273374214680315 ], [ -36.423485029379464, -9.273301180972478 ], [ -36.423844817321637, -9.273278254666256 ], [ -36.424127361575387, -9.273280289607266 ], [ -36.424512463114219, -9.273308580741878 ], [ -36.425025249558594, -9.273439862442803 ], [ -36.425435106878815, -9.273595920531491 ], [ -36.426153195670828, -9.273754196561432 ], [ -36.426537926383148, -9.27383351892348 ], [ -36.427000273269641, -9.273836845429397 ], [ -36.427410876452313, -9.27389083508586 ], [ -36.427976339487273, -9.273843866095389 ], [ -36.428207699106302, -9.273820011848104 ], [ -36.428952778224499, -9.273799850779662 ], [ -36.429621171354704, -9.273728100989796 ], [ -36.43013544858276, -9.273655242543972 ], [ -36.43054698180795, -9.273581645195636 ], [ -36.431061630418121, -9.273457751895901 ], [ -36.431524906860865, -9.273333488850335 ], [ -36.431910753840171, -9.273259705295224 ], [ -36.432477887637418, -9.272983078133649 ], [ -36.432865033293844, -9.272730676192158 ], [ -36.433277864432377, -9.272478457990927 ], [ -36.433691066059176, -9.272175205629592 ], [ -36.434077653763623, -9.271999352192857 ], [ -36.434773028819968, -9.271749158320356 ], [ -36.435417216683433, -9.271473077753987 ], [ -36.435726189363152, -9.271373220078072 ], [ -36.436087089731551, -9.271197179835793 ], [ -36.436396988515313, -9.270969737382453 ], [ -36.436655144593921, -9.270792960125643 ], [ -36.438050701506008, -9.269629120302149 ], [ -36.438387209192356, -9.269274275007739 ], [ -36.439190871821218, -9.26825929946942 ], [ -36.439888272467819, -9.267728406831747 ], [ -36.440969848014817, -9.267353368782734 ], [ -36.44176813960361, -9.267078375120629 ], [ -36.442463502639676, -9.266828162128673 ], [ -36.443312794780844, -9.266604565365919 ], [ -36.443801747336046, -9.266480466236972 ], [ -36.444290699717975, -9.266356366345715 ], [ -36.444651038600085, -9.266256865836537 ], [ -36.445344923076448, -9.266210782257113 ], [ -36.44611531160966, -9.266241798143945 ], [ -36.447167138062724, -9.266427929879352 ], [ -36.448143014948165, -9.266460407087921 ], [ -36.44963205725815, -9.2665730937369 ], [ -36.450505377202646, -9.26657931545156 ], [ -36.45094203740436, -9.266582425511888 ], [ -36.451378697759019, -9.266585535040877 ], [ -36.452149459280342, -9.266565504011295 ], [ -36.452715837749679, -9.266390906051633 ], [ -36.452998934864318, -9.266316365255678 ], [ -36.453333587718319, -9.266216672547058 ], [ -36.454028762915598, -9.265991951557977 ], [ -36.454829071126021, -9.265436236030057 ], [ -36.45591412657091, -9.264576319482366 ], [ -36.456744155557921, -9.26345940137319 ], [ -36.45762646815129, -9.262215258339667 ], [ -36.458145321241851, -9.261504421881625 ], [ -36.458407866202016, -9.260715209557862 ], [ -36.458617937708247, -9.26007873585584 ], [ -36.458833327307559, -9.258702260650873 ], [ -36.458891850745168, -9.257707451004901 ], [ -36.459132003969096, -9.256458743395136 ], [ -36.45929693165823, -9.254954315812215 ], [ -36.459463688789633, -9.253194714643291 ], [ -36.459493771790484, -9.252582481423447 ], [ -36.459573208952392, -9.252251302573248 ], [ -36.459652096238926, -9.25199667558303 ], [ -36.459807671960029, -9.251793629184062 ], [ -36.46027128425586, -9.251618283735059 ], [ -36.461041834470322, -9.251623741961753 ], [ -36.461556267159786, -9.251525310477531 ], [ -36.462301864969483, -9.251428514625148 ], [ -36.462893535559907, -9.251305109119711 ], [ -36.463950462829857, -9.250776695053123 ], [ -36.465732049694886, -9.249487838220814 ], [ -36.46715841843772, -9.247584010317194 ], [ -36.467889457950612, -9.245930452610322 ], [ -36.468257255191695, -9.244784703854648 ], [ -36.468524682075753, -9.243306501696582 ], [ -36.468972808030223, -9.241701979227896 ], [ -36.469367189758024, -9.240428820521419 ], [ -36.46976102083039, -9.239232213119413 ], [ -36.470194285454092, -9.237908288310324 ], [ -36.470390651166902, -9.237386536106506 ], [ -36.470470162571544, -9.237042592167819 ], [ -36.470575357859119, -9.236698829106187 ], [ -36.470602407871048, -9.236507628446079 ], [ -36.470655688247618, -9.236240056058467 ], [ -36.470683102317423, -9.235997820268661 ], [ -36.470684832247663, -9.235755403549772 ], [ -36.470687017354976, -9.235449192952387 ], [ -36.470689475510341, -9.235104706023479 ], [ -36.470691387342818, -9.234836771740444 ], [ -36.470693754293322, -9.234505043574417 ], [ -36.470588007893546, -9.233126281835903 ], [ -36.470516053639912, -9.23241124780464 ], [ -36.470546106228333, -9.231799007419738 ], [ -36.470728622756695, -9.231417509967345 ], [ -36.471350309418497, -9.230681839791744 ], [ -36.472074546150473, -9.22997240823199 ], [ -36.473446323673073, -9.22850196136846 ], [ -36.475207518820923, -9.226447306667474 ], [ -36.476038828825665, -9.225126160080391 ], [ -36.476637349127834, -9.224033046733375 ], [ -36.476873759940972, -9.223294656040684 ], [ -36.477006710968425, -9.222657614859418 ], [ -36.477115791584048, -9.221765216329345 ], [ -36.477149091037084, -9.22069365320357 ], [ -36.477130298135009, -9.219723800482546 ], [ -36.476931361330458, -9.218803722205669 ], [ -36.476704747674916, -9.218164158545473 ], [ -36.47645281433941, -9.21747337941299 ], [ -36.476250796720926, -9.21698710213586 ], [ -36.476136584021432, -9.216794908796061 ], [ -36.476035666132645, -9.216539011325944 ] ], [ [ -36.428464674306504, -9.186436975647519 ], [ -36.428171261651507, -9.184248088735735 ], [ -36.430128287023102, -9.183999990607026 ], [ -36.432526435091496, -9.184665220916626 ], [ -36.438402595584982, -9.186257659225063 ], [ -36.436194225025901, -9.20181311222802 ], [ -36.437353158326033, -9.202734830179239 ], [ -36.438133173023537, -9.202843429555543 ], [ -36.439901669682662, -9.202529395418054 ], [ -36.441135094310077, -9.202754874687034 ], [ -36.441683073424102, -9.203107027869851 ], [ -36.442106351510425, -9.203446175020156 ], [ -36.441968356754714, -9.20410407544972 ], [ -36.441890634709601, -9.20433814967765 ], [ -36.442001004325846, -9.204571253877067 ], [ -36.441786277477256, -9.20504328222126 ], [ -36.442000192672339, -9.205289632845284 ], [ -36.442534979977751, -9.205641564058176 ], [ -36.443530763221389, -9.206781203532332 ], [ -36.443842450995902, -9.206736588743929 ], [ -36.444518320875737, -9.20806156392509 ], [ -36.445072662556306, -9.208146657820278 ], [ -36.445939333177741, -9.209549544195326 ], [ -36.446483880113654, -9.209900996408608 ], [ -36.446895065563837, -9.210521968254804 ], [ -36.447194436897952, -9.211054866065979 ], [ -36.447466376425538, -9.211386736328606 ], [ -36.447826485292708, -9.21150405443921 ], [ -36.448489366527561, -9.211680902002355 ], [ -36.449455844794016, -9.211802521658655 ], [ -36.449744283051139, -9.2118476035324 ], [ -36.449903608522362, -9.211777007615984 ], [ -36.450192458519695, -9.211764711168813 ], [ -36.450379423902227, -9.211866453734894 ], [ -36.450509668835572, -9.211824341732642 ], [ -36.45072684656175, -9.211739810441935 ], [ -36.450972487460731, -9.211712861726431 ], [ -36.451203896723023, -9.211657121472227 ], [ -36.451392816666939, -9.211486317970863 ], [ -36.451654026043087, -9.211301681488287 ], [ -36.4519433901051, -9.211217660966287 ], [ -36.452275346472881, -9.211234358702301 ], [ -36.452491084432545, -9.211350649385283 ], [ -36.452852429774758, -9.211295828622299 ], [ -36.453126945336628, -9.211269082885334 ], [ -36.453414767845075, -9.211400228982509 ], [ -36.453689386321585, -9.21135913829653 ], [ -36.454108789562071, -9.21126169162747 ], [ -36.45431286475484, -9.210990576666569 ], [ -36.45457376463149, -9.210848971204262 ], [ -36.454964908732769, -9.21066525164299 ], [ -36.45526912029883, -9.210523952124042 ], [ -36.45555766225332, -9.210554684712877 ], [ -36.455888900472914, -9.21067179086973 ], [ -36.456407106499093, -9.210890636515341 ], [ -36.456752577627498, -9.211036533284728 ], [ -36.457111255090282, -9.211354666684539 ], [ -36.457746706809488, -9.211330470036772 ], [ -36.457979654702505, -9.211059556483935 ], [ -36.458341102976846, -9.210990385340825 ], [ -36.458718014130035, -9.210777870026654 ], [ -36.459163249302954, -9.210517664746236 ], [ -36.45936859004869, -9.210954191477725 ], [ -36.459616548490914, -9.211624185413724 ], [ -36.459639814760465, -9.211694088548775 ], [ -36.459786609453296, -9.2121351304746 ], [ -36.460030877628377, -9.212671333657484 ], [ -36.460229808428593, -9.212880169875168 ], [ -36.460646446816966, -9.213007571753829 ], [ -36.460953994806651, -9.21320887776413 ], [ -36.461522895132227, -9.213679428225602 ], [ -36.46168229569021, -9.213915576775504 ], [ -36.461695137770207, -9.213934602032115 ], [ -36.461906076190601, -9.214393752424309 ], [ -36.462431238018283, -9.214099676550513 ], [ -36.462872978132765, -9.214401933843323 ], [ -36.463217047081251, -9.214859798114436 ], [ -36.463561162189912, -9.215069251298853 ], [ -36.463744425831003, -9.215362421160892 ], [ -36.46401898827871, -9.215504875131632 ], [ -36.464498866016847, -9.216253405041515 ], [ -36.46515504424405, -9.21669096975566 ], [ -36.465289233994788, -9.217335762225218 ], [ -36.46504147375542, -9.217732249929792 ], [ -36.464807502331432, -9.218212898777729 ], [ -36.46471286990748, -9.218407302176352 ], [ -36.464693966433671, -9.219098768906745 ], [ -36.46478858742848, -9.219162411136123 ], [ -36.465104069234286, -9.219465889956973 ], [ -36.465332514937998, -9.219826135991735 ], [ -36.465547649382067, -9.220028489026522 ], [ -36.465836099518889, -9.220073560142879 ], [ -36.466109395392941, -9.220218941760667 ], [ -36.466512427794143, -9.220393929019824 ], [ -36.46698898045927, -9.220382944413714 ], [ -36.467394264588734, -9.220242348229013 ], [ -36.467663873938605, -9.220251415409946 ], [ -36.468041191272945, -9.220904663407454 ], [ -36.460845411552988, -9.228742611191938 ], [ -36.461663966719321, -9.235100994164815 ], [ -36.46083239644868, -9.236911427664875 ], [ -36.459642837442871, -9.240445281403591 ], [ -36.459425700178244, -9.242820325789719 ], [ -36.452801394956268, -9.239393715170383 ], [ -36.451545481246129, -9.240758320497839 ], [ -36.447379308487619, -9.248382436547008 ], [ -36.450588444668227, -9.251143310792287 ], [ -36.449841530440423, -9.257598926143977 ], [ -36.447768560670063, -9.257473973240041 ], [ -36.447690569854679, -9.257469271935886 ], [ -36.443040688141807, -9.257188945487783 ], [ -36.43857314641582, -9.258638952716899 ], [ -36.434221111497685, -9.260469228633321 ], [ -36.433397327147141, -9.261340668342905 ], [ -36.431791960453545, -9.263099001073417 ], [ -36.430282061762085, -9.263097197586358 ], [ -36.428130576345076, -9.265006469985597 ], [ -36.427502065099567, -9.263135663695198 ], [ -36.42744548743697, -9.262905185983328 ], [ -36.42695358837009, -9.262732268300006 ], [ -36.426478034865269, -9.262660323562226 ], [ -36.42628970120704, -9.262684457920281 ], [ -36.425693831578393, -9.263210933717392 ], [ -36.425373767208768, -9.263538564053835 ], [ -36.42512694307446, -9.263723271742732 ], [ -36.424578045927284, -9.263748010159595 ], [ -36.424173540478215, -9.263773787483553 ], [ -36.423537695006374, -9.263840932930355 ], [ -36.423142617018016, -9.264027432733162 ], [ -36.423036723577049, -9.264226765008948 ], [ -36.42286390955578, -9.264395971349211 ], [ -36.422706446942804, -9.26450600074512 ], [ -36.422490171989196, -9.264497031394322 ], [ -36.422386385879562, -9.264407352361237 ], [ -36.422201733152171, -9.264154050149305 ], [ -36.422076757501564, -9.263901177988901 ], [ -36.421899348589257, -9.263677571638471 ], [ -36.421773292175089, -9.263572910165848 ], [ -36.42161680283521, -9.263549549477084 ], [ -36.42140815044246, -9.263518401793498 ], [ -36.421230039327796, -9.263391132181253 ], [ -36.421022144078123, -9.263256236868331 ], [ -36.420852482373732, -9.263076518515861 ], [ -36.420311297528905, -9.262694339559827 ], [ -36.410262245102452, -9.258709121526637 ], [ -36.408676556166768, -9.260360295992211 ], [ -36.402873404762452, -9.256649609805638 ], [ -36.398161188145174, -9.254266001740467 ], [ -36.389814571887563, -9.251386052707646 ], [ -36.387509190342371, -9.248554517124811 ], [ -36.388180749560178, -9.248387556183816 ], [ -36.388635134917322, -9.248347904225206 ], [ -36.389047226050089, -9.248179049990734 ], [ -36.389286021721936, -9.248051896840812 ], [ -36.38950240315522, -9.248031991386128 ], [ -36.389696212191062, -9.24814081481278 ], [ -36.389860055228517, -9.248196401914798 ], [ -36.389955046687064, -9.248228629671219 ], [ -36.390236453617391, -9.248187715280027 ], [ -36.390604349876327, -9.24814743063018 ], [ -36.390839730472557, -9.24804715972787 ], [ -36.39095141518991, -9.247999582542068 ], [ -36.39123345505682, -9.247872742817981 ], [ -36.391365720925556, -9.247529989562011 ], [ -36.391560638185581, -9.247488444190905 ], [ -36.391819631302575, -9.247554776572846 ], [ -36.39201328297262, -9.247685079994641 ], [ -36.392358133014504, -9.247837966184459 ], [ -36.392682784573431, -9.24779736447948 ], [ -36.398043593817626, -9.244316775461655 ], [ -36.39964545031399, -9.241689898575959 ], [ -36.399825131350561, -9.239513533384551 ], [ -36.397509978076307, -9.23151790536626 ], [ -36.39807225082577, -9.22924529903495 ], [ -36.396207985681407, -9.224261988027898 ], [ -36.399308498036859, -9.222688953408628 ], [ -36.398052908923567, -9.221514192290199 ], [ -36.400722780554126, -9.217825972746494 ], [ -36.402134251255717, -9.218458757090479 ], [ -36.402968766458457, -9.218421321920454 ], [ -36.403748211049511, -9.218181768406774 ], [ -36.404011616454397, -9.218049869822869 ], [ -36.40429278524644, -9.217815439441704 ], [ -36.404608295608107, -9.217447145533049 ], [ -36.404809036961389, -9.21716622488289 ], [ -36.405004942988306, -9.216882776043279 ], [ -36.405213204915306, -9.216626489870722 ], [ -36.405397985044161, -9.216400898624221 ], [ -36.405460059534995, -9.216138359257366 ], [ -36.405436918548872, -9.215821452236606 ], [ -36.405247392703068, -9.215413648579029 ], [ -36.404937209944805, -9.215052789629505 ], [ -36.404626853195069, -9.214715837253287 ], [ -36.404171429188743, -9.214473468818987 ], [ -36.403691420445554, -9.214302646167317 ], [ -36.402841795482871, -9.214019554286741 ], [ -36.402700745694432, -9.213564284654961 ], [ -36.403212038324853, -9.213115317035934 ], [ -36.403352112071268, -9.21137234646328 ], [ -36.403386021724735, -9.211298905304927 ], [ -36.404001582037331, -9.210137060825595 ], [ -36.404016953061323, -9.210109367702129 ], [ -36.404440075309296, -9.209347049275406 ], [ -36.405592049081925, -9.208515008396882 ], [ -36.405628702253523, -9.208157773575108 ], [ -36.405705530191121, -9.207408975683 ], [ -36.405729605528997, -9.207174325615487 ], [ -36.405958249621435, -9.206921166822186 ], [ -36.406035852865195, -9.206832998338083 ], [ -36.406462827856458, -9.206334560172964 ], [ -36.406476533115921, -9.205702133970492 ], [ -36.406792641738775, -9.204755625152169 ], [ -36.407172602681769, -9.203782467530795 ], [ -36.407231293877807, -9.203703101925042 ], [ -36.407384924688692, -9.203674389951754 ], [ -36.407528065645103, -9.203699909158544 ], [ -36.407867781362242, -9.203623667813613 ], [ -36.408228375465761, -9.203753822474303 ], [ -36.411892362187487, -9.201394664710673 ], [ -36.414364650261405, -9.197351201503343 ], [ -36.417492696232273, -9.192385684915502 ], [ -36.417508416165063, -9.192368365796911 ], [ -36.417528734570233, -9.190561052547087 ], [ -36.4175359593807, -9.189564132878166 ], [ -36.417706132009535, -9.188991556005449 ], [ -36.417379504525094, -9.188591731926426 ], [ -36.42119808773122, -9.183334259847893 ], [ -36.428464674306504, -9.186436975647519 ] ] ] ] } }
]
}
